filename,number_transits,scorer,half,experiment,fishID,largeMalePosition,prePost,latency_plant,latency_right_screen,latency_left_screen,center,left screen,left side,plant,right screen,right side,latency_plant,latency_right_screen,latency_left_screen
mc_post_fid1_p1_ADAMS_largeMale_none_barbie_LL.csv,16,ADAMS,p1,mc,fid1,none,post,12.591,101.743,0,24.262,0,24.557,63.26,170.409,16.817,12.591,101.743,300
mc_post_fid1_p1_BALLARD_largeMale_none_barbie_LL.csv,19,BALLARD,p1,mc,fid1,none,post,12.521,101.778,117.532,25.189,1.331,22.96,62.564,168.459,19.357,12.521,101.778,117.532
mc_post_fid1_p1_BAO_largeMale_none_barbie_LL.csv,17,BAO,p1,mc,fid1,none,post,12.625,102.046,0,25.685,0,24.825,62.726,168.258,18.483,12.625,102.046,300
mc_post_fid1_p1_cornish_largeMale_none_barbie_LL.csv,15,cornish,p1,mc,fid1,none,post,12.703,102.021,0,22.958,0,24.827,63.694,170.483,16.816,12.703,102.021,300
mc_post_fid1_p1_CUI_largeMale_none_barbie_LL.csv,15,CUI,p1,mc,fid1,none,post,13.592,103.347,0,16.02,0,24.587,63.031,169.564,17.743,13.592,103.347,300
mc_post_fid1_p2_ADAMS_largeMale_right_barbie_LL.csv,13,ADAMS,p2,mc,fid1,right,post,0,0.047,0,0,0,0,0,291.146,8.807,300,0.047,300
mc_post_fid1_p2_BALLARD_largeMale_right_barbie_LL.csv,13,BALLARD,p2,mc,fid1,right,post,0,0.233,0,0,0,0,0,287.488,12.279,300,0.233,300
mc_post_fid1_p2_BAO_largeMale_right_barbie_LL.csv,15,BAO,p2,mc,fid1,right,post,0,0.841,0,0,0,0,0,288.122,10.948,300,0.841,300
mc_post_fid1_p2_cornish_largeMale_right_barbie_LL.csv,1,cornish,p2,mc,fid1,right,post,0,3.118,0,0,0,0,0,296.836,0,300,3.118,300
mc_post_fid1_p2_CUI_largeMale_right_barbie_LL.csv,1,CUI,p2,mc,fid1,right,post,0,0.973,0,0,0,0,0,299.027,0,300,0.973,300
mc_post_fid1_p3_ADAMS_largeMale_left_barbie_LL.csv,42,ADAMS,p3,mc,fid1,left,post,215.819,0.023,201.409,10.947,8.804,20.291,6.205,207.022,46.708,215.819,0.023,201.409
mc_post_fid1_p3_BALLARD_largeMale_left_barbie_LL.csv,49,BALLARD,p3,mc,fid1,left,post,215.753,0.37,201.342,9.613,9.072,23.493,8.541,201.938,46.973,215.753,0.37,201.342
mc_post_fid1_p3_BAO_largeMale_left_barbie_LL.csv,58,BAO,p3,mc,fid1,left,post,215.721,0.475,201.308,7.473,8.673,20.013,14.426,204.06,44.88,215.721,0.475,201.308
mc_post_fid1_p3_cornish_largeMale_left_barbie_LL.csv,37,cornish,p3,mc,fid1,left,post,215.465,1.286,201.582,5.333,11.477,16.823,15.752,216.221,33.108,215.465,1.286,201.582
mc_post_fid1_p3_CUI_largeMale_left_barbie_LL.csv,34,CUI,p3,mc,fid1,left,post,215.619,1.641,201.473,7.21,8.272,23.248,9.885,215.198,34.546,215.619,1.641,201.473
mc_post_fid10_p1_ADAMS_largeMale_none_alyssa_INT.csv,56,ADAMS,p1,mc,fid10,none,post,0.023,53.992,10.214,26.782,140.941,38.709,27.814,38.435,27.201,0.023,53.992,10.214
mc_post_fid10_p1_BALLARD_largeMale_none_alyssa_INT.csv,53,BALLARD,p1,mc,fid10,none,post,0.973,54.358,10.048,22.42,144.677,37.373,29.628,38.439,26.49,0.973,54.358,10.048
mc_post_fid10_p1_BAO_largeMale_none_alyssa_INT.csv,53,BAO,p1,mc,fid10,none,post,0.339,54.293,10.218,27.523,141.743,37.636,26.864,37.365,28.439,0.339,54.293,10.218
mc_post_fid10_p1_cornish_largeMale_none_alyssa_INT.csv,46,cornish,p1,mc,fid10,none,post,2.618,54.003,10.092,10.511,157.129,23.448,38.621,43.37,24.249,2.618,54.003,10.092
mc_post_fid10_p1_CUI_largeMale_none_alyssa_INT.csv,45,CUI,p1,mc,fid10,none,post,1.776,54.36,10.316,17.092,152.156,32.833,29.63,38.882,27.54,1.776,54.36,10.316
mc_post_fid10_p2_ADAMS_largeMale_right_alyssa_INT.csv,17,ADAMS,p2,mc,fid10,right,post,293.473,0.647,296.676,0,2.674,2.518,1.335,169.44,123.386,293.473,0.647,296.676
mc_post_fid10_p2_BALLARD_largeMale_right_alyssa_INT.csv,28,BALLARD,p2,mc,fid10,right,post,293.507,0.714,296.443,0,3.557,1.602,1.334,271.971,20.822,293.507,0.714,296.443
mc_post_fid10_p2_BAO_largeMale_right_alyssa_INT.csv,28,BAO,p2,mc,fid10,right,post,294.043,1.816,296.779,0.864,2.667,2.424,0.532,271.74,19.957,294.043,1.816,296.779
mc_post_fid10_p2_cornish_largeMale_right_alyssa_INT.csv,7,cornish,p2,mc,fid10,right,post,294.491,1.326,296.938,0,3.052,0.62,1.827,286.098,7.067,294.491,1.326,296.938
mc_post_fid10_p2_CUI_largeMale_right_alyssa_INT.csv,7,CUI,p2,mc,fid10,right,post,294.076,2.216,296.747,0,3.253,1.338,1.333,280.915,10.945,294.076,2.216,296.747
mc_post_fid10_p3_Rotholz_largeMale_left_alyssa_INT.csv,12,Rotholz,p3,mc,fid10,left,post,0,0.433,0,0,0,0,0,291.026,8.541,300,0.433,300
mc_post_fid10_p3_SANCHEZ_largeMale_left_alyssa_INT.csv,3,SANCHEZ,p3,mc,fid10,left,post,0,2.978,0,0,0,0,0,294.87,2.131,300,2.978,300
mc_post_fid10_p3_VASQUEZ_largeMale_left_alyssa_INT.csv,5,VASQUEZ,p3,mc,fid10,left,post,0,0.497,0,0,0,0,0,297.368,2.135,300,0.497,300
mc_post_fid10_p3_Waindim_largeMale_left_alyssa_INT.csv,1,Waindim,p3,mc,fid10,left,post,0,0.798,0,0,0,0,0,299.134,0,300,0.798,300
mc_post_fid11_p1_EGBULONU_largeMale_none_bernice_LS.csv,45,EGBULONU,p1,mc,fid11,none,post,2.983,26.573,38.318,8.147,42.974,36.837,30.662,149.571,28.826,2.983,26.573,38.318
mc_post_fid11_p1_ESTRELLADO_largeMale_none_bernice_LS.csv,71,ESTRELLADO,p1,mc,fid11,none,post,4.862,26.482,38.228,17.998,41.642,32.83,25.969,93.83,37.745,4.862,26.482,38.228
mc_post_fid11_p1_FER300NDES_largeMale_none_bernice_LS.csv,74,FER300NDES,p1,mc,fid11,none,post,1.015,26.409,37.517,9.109,41.246,35.063,33.966,138.594,41.374,1.015,26.409,37.517
mc_post_fid11_p1_Gadot_largeMale_none_bernice_LS.csv,61,Gadot,p1,mc,fid11,none,post,0.023,24.643,37.985,12.542,43.12,32.558,33.688,146.035,32.034,0.023,24.643,37.985
mc_post_fid11_p1_GAJWANI_largeMale_none_bernice_LS.csv,55,GAJWANI,p1,mc,fid11,none,post,3.826,24.914,38.06,14.148,42.713,32.896,28.288,148.491,29.638,3.826,24.914,38.06
mc_post_fid11_p2_EGBULONU_largeMale_right_bernice_LS.csv,12,EGBULONU,p2,mc,fid11,right,post,0,1.193,298.189,3.471,1.811,1.601,0,276.207,21.489,300,1.193,298.189
mc_post_fid11_p2_ESTRELLADO_largeMale_right_bernice_LS.csv,16,ESTRELLADO,p2,mc,fid11,right,post,0,4.842,298.337,3.342,1.663,1.523,0,272.438,16.192,300,4.842,298.337
mc_post_fid11_p2_FER300NDES_largeMale_right_bernice_LS.csv,18,FER300NDES,p2,mc,fid11,right,post,0,0.327,297.956,3.404,2.003,1.634,0,268.436,24.187,300,0.327,297.956
mc_post_fid11_p2_Gadot_largeMale_right_bernice_LS.csv,10,Gadot,p2,mc,fid11,right,post,0,0.023,298.225,3.201,1.775,1.871,0,274.713,18.417,300,0.023,298.225
mc_post_fid11_p2_GAJWANI_largeMale_right_bernice_LS.csv,10,GAJWANI,p2,mc,fid11,right,post,0,1.739,298.414,3.337,1.586,1.818,0,277.707,13.813,300,1.739,298.414
mc_post_fid11_p3_EGBULONU_largeMale_left_bernice_LS.csv,30,EGBULONU,p3,mc,fid11,left,post,0.653,54.576,11.6,7.744,60.995,17.574,11.745,183.897,18.017,0.653,54.576,11.6
mc_post_fid11_p3_ESTRELLADO_largeMale_left_bernice_LS.csv,48,ESTRELLADO,p3,mc,fid11,left,post,4.234,54.918,12.243,13.614,53.725,22.951,6.411,181.414,17.915,4.234,54.918,12.243
mc_post_fid11_p3_FER300NDES_largeMale_left_bernice_LS.csv,44,FER300NDES,p3,mc,fid11,left,post,0.32,54.009,11.598,10.678,52.222,25.742,10.345,181.592,19.421,0.32,54.009,11.598
mc_post_fid11_p3_Gadot_largeMale_left_bernice_LS.csv,35,Gadot,p3,mc,fid11,left,post,3.155,54.008,11.564,9.345,57.928,20.011,8.145,183.735,17.681,3.155,54.008,11.564
mc_post_fid11_p3_GAJWANI_largeMale_left_bernice_LS.csv,33,GAJWANI,p3,mc,fid11,left,post,51.62,54.017,12.109,13.62,56.592,19.483,0.8,184.321,18.881,51.62,54.017,12.109
mc_post_fid12_p1_EGBULONU_largeMale_none_andrea_SS.csv,20,EGBULONU,p1,mc,fid12,none,post,2.148,171.387,83.964,17.615,6.14,23.623,207.093,6.937,36.444,2.148,171.387,83.964
mc_post_fid12_p1_ESTRELLADO_largeMale_none_andrea_SS.csv,35,ESTRELLADO,p1,mc,fid12,none,post,5.564,171.366,84.342,60.63,6.408,23.874,160.545,10.943,32.036,5.564,171.366,84.342
mc_post_fid12_p1_FER300NDES_largeMale_none_andrea_SS.csv,24,FER300NDES,p1,mc,fid12,none,post,0.781,171.051,83.732,17.483,6.273,23.725,208.255,11.645,31.764,0.781,171.051,83.732
mc_post_fid12_p1_Gadot_largeMale_none_andrea_SS.csv,30,Gadot,p1,mc,fid12,none,post,0.023,171.088,84.065,30.694,6.405,22.161,195.526,11.209,33.899,0.023,171.088,84.065
mc_post_fid12_p1_GAJWANI_largeMale_none_andrea_SS.csv,23,GAJWANI,p1,mc,fid12,none,post,6.997,171.428,151.409,31.749,5.338,24.557,188.114,6.14,37.105,6.997,171.428,151.409
mc_post_fid12_p2_EGBULONU_largeMale_right_andrea_SS.csv,17,EGBULONU,p2,mc,fid12,right,post,1.247,164.609,6.851,5.871,18.419,47.381,211.999,3.603,11.48,1.247,164.609,6.851
mc_post_fid12_p2_ESTRELLADO_largeMale_right_andrea_SS.csv,25,ESTRELLADO,p2,mc,fid12,right,post,2.093,162.75,6.898,19.238,19.754,47.781,197.043,5.608,8.411,2.093,162.75,6.898
mc_post_fid12_p2_FER300NDES_largeMale_right_andrea_SS.csv,18,FER300NDES,p2,mc,fid12,right,post,0.51,164.573,6.65,8.109,17.785,47.346,211.401,3.47,11.379,0.51,164.573,6.65
mc_post_fid12_p2_Gadot_largeMale_right_andrea_SS.csv,18,Gadot,p2,mc,fid12,right,post,0.023,164.876,6.85,16.55,19.221,46.442,202.816,3.472,11.476,0.023,164.876,6.85
mc_post_fid12_p2_GAJWANI_largeMale_right_andrea_SS.csv,18,GAJWANI,p2,mc,fid12,right,post,58.68,164.919,7.061,16.015,18.522,46.444,200.215,3.47,10.142,58.68,164.919,7.061
mc_post_fid12_p3_EGBULONU_largeMale_left_andrea_SS.csv,19,EGBULONU,p3,mc,fid12,left,post,2.739,0,13.016,3.87,257.992,18.047,17.352,0,0,2.739,300,13.016
mc_post_fid12_p3_ESTRELLADO_largeMale_left_andrea_SS.csv,24,ESTRELLADO,p3,mc,fid12,left,post,0.513,0,12.793,10.46,255.547,18.831,14.622,0,0,0.513,300,12.793
mc_post_fid12_p3_FER300NDES_largeMale_left_andrea_SS.csv,25,FER300NDES,p3,mc,fid12,left,post,0.87,0,12.347,1.869,251.189,24.317,21.755,0,0,0.87,300,12.347
mc_post_fid12_p3_Gadot_largeMale_left_andrea_SS.csv,16,Gadot,p3,mc,fid12,left,post,0.023,0,12.614,6.94,260.529,14.512,17.931,0,0,0.023,300,12.614
mc_post_fid12_p3_GAJWANI_largeMale_left_andrea_SS.csv,15,GAJWANI,p3,mc,fid12,left,post,274.821,0,12.595,5.874,261.088,12.756,11.904,0,0,274.821,300,12.595
mc_post_fid13_p1_EGBULONU_largeMale_none_ava_LL.csv,78,EGBULONU,p1,mc,fid13,none,post,10.442,2.701,20.318,13.883,79.142,50.15,45.885,58.328,49.911,10.442,2.701,20.318
mc_post_fid13_p1_ESTRELLADO_largeMale_none_ava_LL.csv,84,ESTRELLADO,p1,mc,fid13,none,post,10.62,2.075,19.96,46.374,79.105,46.459,21.877,61.934,42.176,10.62,2.075,19.96
mc_post_fid13_p1_FER300NDEs_largeMale_none_ava_LL.csv,75,FER300NDEs,p1,mc,fid13,none,post,9.341,0.398,19.818,17.318,75.969,53.326,45.813,63.024,44.14,9.341,0.398,19.818
mc_post_fid13_p1_Gadot_largeMale_none_ava_LL.csv,73,Gadot,p1,mc,fid13,none,post,10.44,0.023,20.049,28.138,81.945,49.913,30.696,64.068,45.217,10.44,0.023,20.049
mc_post_fid13_p1_GAJWANI_largeMale_none_ava_LL.csv,76,GAJWANI,p1,mc,fid13,none,post,10.017,2.543,43.417,22.578,78.218,50.95,39.361,59.824,46.491,10.017,2.543,43.417
mc_post_fid13_p2_EGBULONU_largeMale_right_ava_LL.csv,69,EGBULONU,p2,mc,fid13,right,post,11.536,3.529,14.74,19.213,89.092,61.234,20.822,58.06,51.579,11.536,3.529,14.74
mc_post_fid13_p2_ESTRELLADO_largeMale_right_ava_LL.csv,70,ESTRELLADO,p2,mc,fid13,right,post,268.205,6.376,13.051,45.923,99.601,48.34,2.668,56.058,45.034,268.205,6.376,13.051
mc_post_fid13_p2_FER300NDES_largeMale_right_ava_LL.csv,68,FER300NDES,p2,mc,fid13,right,post,10.336,3.23,14.207,35.473,92.998,55.19,10.412,58.565,47.228,10.336,3.23,14.207
mc_post_fid13_p2_Gadot_largeMale_right_ava_LL.csv,64,Gadot,p2,mc,fid13,right,post,267.293,3.83,13.973,41.107,98.5,49.792,3.737,61.66,42.959,267.293,3.83,13.973
mc_post_fid13_p2_GAJWANI_largeMale_right_ava_LL.csv,69,GAJWANI,p2,mc,fid13,right,post,59.996,3.673,14.619,35.505,94.212,54.959,8.008,58.455,46.717,59.996,3.673,14.619
mc_post_fid13_p3_EGBULONU_largeMale_left_ava_LL.csv,51,EGBULONU,p3,mc,fid13,left,post,189.217,197.76,0.225,6.139,169.247,49.641,29.106,9.076,36.566,189.217,197.76,0.225
mc_post_fid13_p3_ESTRELLADO_largeMale_left_ava_LL.csv,50,ESTRELLADO,p3,mc,fid13,left,post,191.699,199.339,1.907,19.343,164.073,53.048,19.083,13.993,28.291,191.699,199.339,1.907
mc_post_fid13_p3_FER300NDES_largeMale_left_ava_LL.csv,55,FER300NDES,p3,mc,fid13,left,post,238.538,197.593,0.294,11.754,165.137,52.509,24.689,8.578,36.433,238.538,197.593,0.294
mc_post_fid13_p3_Gadot_largeMale_left_ava_LL.csv,54,Gadot,p3,mc,fid13,left,post,239.467,197.825,0.023,16.684,172.976,45.647,19.484,9.61,35.504,239.467,197.825,0.023
mc_post_fid13_p3_GAJWANI_largeMale_left_ava_LL.csv,26,GAJWANI,p3,mc,fid13,left,post,239.477,197.668,1.039,14.269,194.767,21.516,22.461,9.352,36.596,239.477,197.668,1.039
mc_post_fid14_p1_EGBULONU_largeMale_none_delfina_LS.csv,30,EGBULONU,p1,mc,fid14,none,post,56.316,61.121,2.062,0,49.25,6.404,2.002,227.609,14.073,56.316,61.121,2.062
mc_post_fid14_p1_ESTRELLADO_largeMale_none_delfina_LS.csv,28,ESTRELLADO,p1,mc,fid14,none,post,56.795,61.332,2.341,1.336,48.576,6.412,1.868,227.729,13.074,56.795,61.332,2.341
mc_post_fid14_p1_FER300NDES_largeMale_none_delfina_LS.csv,28,FER300NDES,p1,mc,fid14,none,post,55.75,61.122,1.829,2.4,48.852,6.67,0,226.663,15.416,55.75,61.122,1.829
mc_post_fid14_p1_Gadot_largeMale_none_delfina_LS.csv,19,Gadot,p1,mc,fid14,none,post,56.516,61.055,0.023,0,49.935,6.558,2.137,232.806,8.541,56.516,61.055,0.023
mc_post_fid14_p1_GAJWANI_largeMale_none_delfina_LS.csv,22,GAJWANI,p1,mc,fid14,none,post,56.094,61.166,2.172,0,49.917,5.072,2.405,230.557,10.944,56.094,61.166,2.172
mc_post_fid14_p2_EGBULONU_largeMale_left_delfina_LS.csv,8,EGBULONU,p2,mc,fid14,left,post,247.148,0.501,250.352,0,48.848,2.67,1.334,245.312,1.335,247.148,0.501,250.352
mc_post_fid14_p2_ESTRELLADO_largeMale_left_delfina_LS.csv,10,ESTRELLADO,p2,mc,fid14,left,post,248.16,0.023,250.029,1.598,48.904,1.868,0.804,245.467,1.336,248.16,0.023,250.029
mc_post_fid14_p2_FER300NDES_largeMale_left_delfina_LS.csv,6,FER300NDES,p2,mc,fid14,left,post,0,0.213,249.819,1.335,49.348,2.536,0,244.834,1.568,300,0.213,249.819
mc_post_fid14_p2_Gadot_largeMale_left_delfina_LS.csv,8,Gadot,p2,mc,fid14,left,post,246.948,0.023,249.887,0,49.575,1.875,1.602,245.324,1.601,246.948,0.023,249.887
mc_post_fid14_p2_GAJWANI_largeMale_left_delfina_LS.csv,6,GAJWANI,p2,mc,fid14,left,post,247.261,5.15,249.928,0,50.072,1.6,1.067,241.042,1.069,247.261,5.15,249.928
mc_post_fid14_p3_EGBULONU_largeMale_right_delfina_LS.csv,74,EGBULONU,p3,mc,fid14,right,post,59.798,49.922,0.538,14.945,77.87,27.135,7.217,135.2,37.095,59.798,49.922,0.538
mc_post_fid14_p3_ESTRELLADO_largeMale_right_delfina_LS.csv,81,ESTRELLADO,p3,mc,fid14,right,post,60.876,49.8,0.023,24.017,77.273,26.17,3.204,135.546,33.767,60.876,49.8,0.023
mc_post_fid14_p3_FER300NDES_largeMale_right_delfina_LS.csv,77,FER300NDES,p3,mc,fid14,right,post,67.977,49.588,0.262,19.336,71.616,32.207,4.533,130.758,41.288,67.977,49.588,0.262
mc_post_fid14_p3_Gadot_largeMale_right_delfina_LS.csv,80,Gadot,p3,mc,fid14,right,post,59.632,49.755,0.023,16.547,74.559,30.698,7.743,133.868,36.562,59.632,49.755,0.023
mc_post_fid14_p3_GAJWANI_largeMale_right_delfina_LS.csv,68,GAJWANI,p3,mc,fid14,right,post,59.645,49.766,1.985,13.876,81.411,24.571,8.272,137.313,32.572,59.645,49.766,1.985
mc_post_fid15_p1_EGBULONU_largeMale_none_chloe_INT.csv,81,EGBULONU,p1,mc,fid15,none,post,0,0.723,9.332,8.211,194.441,33.363,0,49.452,14.392,300,0.723,9.332
mc_post_fid15_p1_ESTRELLADO_largeMale_none_chloe_INT.csv,65,ESTRELLADO,p1,mc,fid15,none,post,0,2.001,8.946,10.145,201.572,24.453,0,46.169,15.66,300,2.001,8.946
mc_post_fid15_p1_FER300NDES_largeMale_none_chloe_INT.csv,60,FER300NDES,p1,mc,fid15,none,post,0,0.524,8.865,9.081,202.351,24.779,0,47.251,15.876,300,0.524,8.865
mc_post_fid15_p1_Gadot_largeMale_none_chloe_INT.csv,91,Gadot,p1,mc,fid15,none,post,0,1.208,8.835,8.801,191.697,35.273,0,47.527,15.494,300,1.208,8.835
mc_post_fid15_p1_GAJWANI_largeMale_none_chloe_INT.csv,31,GAJWANI,p1,mc,fid15,none,post,0,2.302,8.708,8.801,214.618,12.818,0,52.05,9.351,300,2.302,8.708
mc_post_fid15_p2_EGBULONU_largeMale_left_chloe_INT.csv,65,EGBULONU,p2,mc,fid15,left,post,19.634,23.371,2.55,9.075,43.772,18.426,4.267,189.938,31.972,19.634,23.371,2.55
mc_post_fid15_p2_ESTRELLADO_largeMale_left_chloe_INT.csv,61,ESTRELLADO,p2,mc,fid15,left,post,20.78,24.515,1.825,12.808,44.308,20.029,2.668,195.469,22.893,20.78,24.515,1.825
mc_post_fid15_p2_FER300NDES_largeMale_left_chloe_INT.csv,65,FER300NDES,p2,mc,fid15,left,post,19.3,23.169,0.413,11.748,44.172,19.118,2.401,187.151,35.105,19.3,23.169,0.413
mc_post_fid15_p2_Gadot_largeMale_left_chloe_INT.csv,79,Gadot,p2,mc,fid15,left,post,20.168,23.102,0.023,11.741,45.769,18.421,1.867,187.742,34.437,20.168,23.102,0.023
mc_post_fid15_p2_GAJWANI_largeMale_left_chloe_INT.csv,47,GAJWANI,p2,mc,fid15,left,post,19.976,23.18,2.092,10.413,46.44,16.617,2.403,200.948,21.087,19.976,23.18,2.092
mc_post_fid15_p3_EGBULONU_largeMale_right_chloe_INT.csv,39,EGBULONU,p3,mc,fid15,right,post,0,1.582,0,0,0,0,0,284.544,13.874,300,1.582,300
mc_post_fid15_p3_ESTRELLADO_largeMale_right_chloe_INT.csv,15,ESTRELLADO,p3,mc,fid15,right,post,0,0.725,0,0,0,0,0,293.932,5.343,300,0.725,300
mc_post_fid15_p3_FER300NDES_largeMale_right_chloe_INT.csv,25,FER300NDES,p3,mc,fid15,right,post,0,0.133,0,0,0,0,0,282.68,17.187,300,0.133,300
mc_post_fid15_p3_Gadot_largeMale_right_chloe_INT.csv,41,Gadot,p3,mc,fid15,right,post,0,1.664,0,0,0,0,0,282.316,16.02,300,1.664,300
mc_post_fid15_p3_GAJWANI_largeMale_right_chloe_INT.csv,1,GAJWANI,p3,mc,fid15,right,post,0,2.427,0,0,0,0,0,297.573,0,300,2.427,300
mc_post_fid16_p1_EGBULONU_largeMale_none_carla_LL.csv,38,EGBULONU,p1,mc,fid16,none,post,14.352,48.783,30.365,16.548,8.275,26.429,71.005,131.896,45.378,14.352,48.783,30.365
mc_post_fid16_p1_ESTRELLADO_largeMale_none_carla_LL.csv,48,ESTRELLADO,p1,mc,fid16,none,post,14.463,2.815,30.242,33.136,8.012,25.883,55.527,134.418,42.077,14.463,2.815,30.242
mc_post_fid16_p1_FER300NDES_largeMale_none_carla_LL.csv,46,FER300NDES,p1,mc,fid16,none,post,13.916,2.206,29.934,13.279,7.774,28.594,72.205,123.825,53.657,13.916,2.206,29.934
mc_post_fid16_p1_Gadot_largeMale_none_carla_LL.csv,50,Gadot,p1,mc,fid16,none,post,14.417,3.739,30.166,18.25,7.474,27.495,69.038,123.454,54.169,14.417,3.739,30.166
mc_post_fid16_p1_GAJWANI_largeMale_none_carla_LL.csv,38,GAJWANI,p1,mc,fid16,none,post,14.494,3.55,30.244,26.7,8.272,28.032,58.553,138.457,38.508,14.494,3.55,30.244
mc_post_fid16_p2_EGBULONU_largeMale_left_carla_LL.csv,50,EGBULONU,p2,mc,fid16,left,post,221.495,2.341,46.385,26.157,86.522,66.192,24.558,57.658,36.572,221.495,2.341,46.385
mc_post_fid16_p2_ESTRELLADO_largeMale_left_carla_LL.csv,57,ESTRELLADO,p2,mc,fid16,left,post,221.472,0.653,45.23,46.132,93.816,53.901,11.209,59.049,35.24,221.472,0.653,45.23
mc_post_fid16_p2_FER300NDES_largeMale_left_carla_LL.csv,55,FER300NDES,p2,mc,fid16,left,post,220.861,0.574,44.651,27.191,81.99,67.906,27.294,56.318,38.678,220.861,0.574,44.651
mc_post_fid16_p2_Gadot_largeMale_left_carla_LL.csv,53,Gadot,p2,mc,fid16,left,post,221.293,1.836,44.585,27.761,87.95,63.534,26.162,56.096,36.567,221.293,1.836,44.585
mc_post_fid16_p2_GAJWANI_largeMale_left_carla_LL.csv,51,GAJWANI,p2,mc,fid16,left,post,221.675,2.353,46.063,25.897,93.382,60.284,25.359,59.63,33.095,221.675,2.353,46.063
mc_post_fid16_p3_EGBULONU_largeMale_right_carla_LL.csv,36,EGBULONU,p3,mc,fid16,right,post,0,0,1.009,10.141,235.603,53.121,0,0,0,300,300,1.009
mc_post_fid16_p3_ESTRELLADO_largeMale_right_carla_LL.csv,23,ESTRELLADO,p3,mc,fid16,right,post,0,0,0.952,9.879,235.394,53.649,0,0,0,300,300,0.952
mc_post_fid16_p3_FER300NDES_largeMale_right_carla_LL.csv,35,FER300NDES,p3,mc,fid16,right,post,0,0,0.308,9.842,219.112,70.535,0,0,0,300,300,0.308
mc_post_fid16_p3_Gadot_largeMale_right_carla_LL.csv,40,Gadot,p3,mc,fid16,right,post,0,0,0.023,8.546,225.972,65.135,0,0,0,300,300,0.023
mc_post_fid16_p3_GAJWANI_largeMale_right_carla_LL.csv,23,GAJWANI,p3,mc,fid16,right,post,0,0,18.003,9.074,237.982,47.25,0,0,0,300,300,18.003
mc_post_fid17_p1_EGBULONU_largeMale_none_amanda_INT.csv,40,EGBULONU,p1,mc,fid17,none,post,7.554,17.428,42.788,13.344,82.212,34.815,16.008,106.735,45.656,7.554,17.428,42.788
mc_post_fid17_p1_ESTRELLADO_largeMale_none_amanda_INT.csv,38,ESTRELLADO,p1,mc,fid17,none,post,0,17.104,42.766,38.243,80.281,31.229,0,114.058,35.969,300,17.104,42.766
mc_post_fid17_p1_FER300NDES_largeMale_none_amanda_INT.csv,52,FER300NDES,p1,mc,fid17,none,post,0,16.664,42.489,35.531,77.143,34.239,0,100.747,51.729,300,16.664,42.489
mc_post_fid17_p1_Gadot_largeMale_none_amanda_INT.csv,50,Gadot,p1,mc,fid17,none,post,11.291,17.161,42.72,30.87,79.817,33.148,4.268,104.89,46.984,11.291,17.161,42.72
mc_post_fid17_p1_GAJWANI_largeMale_none_amanda_INT.csv,41,GAJWANI,p1,mc,fid17,none,post,11.133,17.271,42.629,29.098,76.907,34.174,4.803,113.345,39.351,11.133,17.271,42.629
mc_post_fid17_p2_EGBULONU_largeMale_right_amanda_INT.csv,5,EGBULONU,p2,mc,fid17,right,post,0,1.416,0,0,0,0,0,291.647,6.937,300,1.416,300
mc_post_fid17_p2_ESTRELLADO_largeMale_right_amanda_INT.csv,9,ESTRELLADO,p2,mc,fid17,right,post,0,2.398,0,0,0,0,0,286.394,11.208,300,2.398,300
mc_post_fid17_p2_FER300NDES_largeMale_right_amanda_INT.csv,17,FER300NDES,p2,mc,fid17,right,post,0,0.216,0,0,0,0,0,284.086,15.614,300,0.216,300
mc_post_fid17_p2_Gadot_largeMale_right_amanda_INT.csv,21,Gadot,p2,mc,fid17,right,post,0,0.023,0,0,0,0,0,283.159,16.818,300,0.023,300
mc_post_fid17_p2_GAJWANI_largeMale_right_amanda_INT.csv,3,GAJWANI,p2,mc,fid17,right,post,0,2.733,0,0,0,0,0,292.657,4.542,300,2.733,300
mc_post_fid17_p3_ESTRELLADO_largeMale_left_amanda_INT.csv,5,ESTRELLADO,p3,mc,fid17,left,post,0,0.393,0,0,0,0,0,294.225,5.068,300,0.393,300
mc_post_fid17_p3_FER300NDES_largeMale_left_amanda_INT.csv,25,FER300NDES,p3,mc,fid17,left,post,0,0.416,0,0,0,0,0,276.597,22.987,300,0.416,300
mc_post_fid17_p3_Gadot_largeMale_left_amanda_INT.csv,17,Gadot,p3,mc,fid17,left,post,0,0.023,0,0,0,0,0,283.346,16.551,300,0.023,300
mc_post_fid17_p3_GAJWANI_largeMale_left_amanda_INT.csv,3,GAJWANI,p3,mc,fid17,left,post,0,0.265,0,0,0,0,0,296.532,3.203,300,0.265,300
mc_post_fid18_p1_ESTRELLADO_largeMale_none_anna_LL.csv,42,ESTRELLADO,p1,mc,fid18,none,post,2.581,21.266,9.254,15.831,13.41,21.471,3.47,223.294,22.139,2.581,21.266,9.254
mc_post_fid18_p1_FER300NDES_largeMale_none_anna_LL.csv,39,FER300NDES,p1,mc,fid18,none,post,0.234,20.821,9.076,10.717,12.045,23.887,6.707,218.348,28.062,0.234,20.821,9.076
mc_post_fid18_p1_Gadot_largeMale_none_anna_LL.csv,44,Gadot,p1,mc,fid18,none,post,2.602,21.289,9.277,9.176,14.677,21.893,6.94,222.387,24.904,2.602,21.289,9.277
mc_post_fid18_p1_GAJWANI_largeMale_none_anna_LL.csv,31,GAJWANI,p1,mc,fid18,none,post,15.129,21.534,9.787,7.471,13.616,23.514,5.446,227.469,17.718,15.129,21.534,9.787
mc_post_fid18_p2_ESTRELLADO_largeMale_right_anna_LL.csv,21,ESTRELLADO,p2,mc,fid18,right,post,255.098,0.023,243.018,4.57,8.038,4.07,1.736,269.386,12.177,255.098,0.023,243.018
mc_post_fid18_p2_FER300NDES_largeMale_right_anna_LL.csv,20,FER300NDES,p2,mc,fid18,right,post,253.252,0.256,241.104,1.069,9.074,4.276,2.932,270.603,11.79,253.252,0.256,241.104
mc_post_fid18_p2_Gadot_largeMale_right_anna_LL.csv,23,Gadot,p2,mc,fid18,right,post,254.682,2.03,241.336,1.335,9.609,4.805,1.868,239.578,42.71,254.682,2.03,241.336
mc_post_fid18_p2_GAJWANI_largeMale_right_anna_LL.csv,11,GAJWANI,p2,mc,fid18,right,post,253.858,1.106,241.046,1.331,9.876,3.737,2.672,276.472,4.806,253.858,1.106,241.046
mc_post_fid18_p3_ESTRELLADO_largeMale_left_anna_LL.csv,40,ESTRELLADO,p3,mc,fid18,left,post,0,0.503,92.628,10.506,17.145,10.248,0,242.271,19.327,300,0.503,92.628
mc_post_fid18_p3_FER300NDES_largeMale_left_anna_LL.csv,40,FER300NDES,p3,mc,fid18,left,post,0,0,91.95,8.804,14.982,12.949,0,233.259,30.006,300,0,91.95
mc_post_fid18_p3_Gadot_largeMale_left_anna_LL.csv,42,Gadot,p3,mc,fid18,left,post,97.09,0.023,92.018,6.943,15.746,12.548,2.135,240.14,22.465,97.09,0.023,92.018
mc_post_fid18_p3_GAJWANI_largeMale_left_anna_LL.csv,37,GAJWANI,p3,mc,fid18,left,post,96.966,1.671,92.161,6.678,16.278,12.814,2.138,243.02,17.401,96.966,1.671,92.161
mc_post_fid19_p1_ESTRELLADO_largeMale_none_allison_FF.csv,66,ESTRELLADO,p1,mc,fid19,none,post,11.265,29.851,43.497,39.991,69.278,42.239,51.755,54.762,41.952,11.265,29.851,43.497
mc_post_fid19_p1_FER300NDES_largeMale_none_allison_FF.csv,58,FER300NDES,p1,mc,fid19,none,post,10.021,29.339,43.854,24.458,61.796,51.05,61.325,45.144,55.867,10.021,29.339,43.854
mc_post_fid19_p1_Gadot_largeMale_none_allison_FF.csv,60,Gadot,p1,mc,fid19,none,post,11.088,29.507,44.188,26.161,65.753,49.916,58.194,47.245,50.985,11.088,29.507,44.188
mc_post_fid19_p1_GAJWANI_largeMale_none_allison_FF.csv,57,GAJWANI,p1,mc,fid19,none,post,11.034,29.451,43.869,24.55,65.364,48.693,60.063,48.659,50.18,11.034,29.451,43.869
mc_post_fid19_p2_ESTRELLADO_largeMale_left_allison_FF.csv,59,ESTRELLADO,p2,mc,fid19,left,post,0,66.053,0.023,24.089,139.153,72.038,0,27.457,36.864,300,66.053,0.023
mc_post_fid19_p2_FER300NDES_largeMale_left_allison_FF.csv,61,FER300NDES,p2,mc,fid19,left,post,0,65.738,1.341,23.254,134.285,75.076,0,23.022,42.878,300,65.738,1.341
mc_post_fid19_p2_Gadot_largeMale_left_allison_FF.csv,63,Gadot,p2,mc,fid19,left,post,0,66.239,0.023,24.558,139.986,71.01,0,22.422,41.907,300,66.239,0.023
mc_post_fid19_p2_GAJWANI_largeMale_left_allison_FF.csv,51,GAJWANI,p2,mc,fid19,left,post,0,65.948,2.152,25.364,149.376,59.579,0,24.022,39.507,300,65.948,2.152
mc_post_fid19_p3_ESTRELLADO_largeMale_right_allison_FF.csv,55,ESTRELLADO,p3,mc,fid19,right,post,56.106,7.429,0.484,48.302,24.615,32.835,56.061,93.154,44.489,56.106,7.429,0.484
mc_post_fid19_p3_FER300NDES_largeMale_right_allison_FF.csv,45,FER300NDES,p3,mc,fid19,right,post,54.628,6.947,0.942,38.693,24.491,32.931,66.434,88.455,48.026,54.628,6.947,0.942
mc_post_fid19_p3_Gadot_largeMale_right_allison_FF.csv,46,Gadot,p3,mc,fid19,right,post,56.029,6.646,0.023,41.907,28.112,31.498,57.923,89.426,50.985,56.029,6.646,0.023
mc_post_fid19_p3_GAJWANI_largeMale_right_allison_FF.csv,42,GAJWANI,p3,mc,fid19,right,post,55.84,7.26,275.258,40.848,23.349,33.554,59.492,92.667,46.108,55.84,7.26,275.258
mc_post_fid2_p1_ADAMS_largeMale_none_daisy_LL.csv,80,ADAMS,p1,mc,fid2,none,post,10.387,13.592,5.85,18.467,29.097,32.231,11.216,163.088,44.31,10.387,13.592,5.85
mc_post_fid2_p1_BALLARD_largeMale_none_daisy_LL.csv,83,BALLARD,p1,mc,fid2,none,post,10.155,13.491,5.651,18.685,28.759,33.239,10.814,162.149,46.289,10.155,13.491,5.651
mc_post_fid2_p1_BAO_largeMale_none_daisy_LL.csv,99,BAO,p1,mc,fid2,none,post,10.091,13.56,5.817,24.593,26.97,32.288,9.079,158.706,47.351,10.091,13.56,5.817
mc_post_fid2_p1_cornish_largeMale_none_daisy_LL.csv,74,cornish,p1,mc,fid2,none,post,10.601,13.805,5.797,16.282,31.488,30.707,11.473,174.602,34.191,10.601,13.805,5.797
mc_post_fid2_p1_CUI_largeMale_none_daisy_LL.csv,75,CUI,p1,mc,fid2,none,post,35.887,13.731,5.821,18.948,31.624,32.075,7.508,171.447,36.048,35.887,13.731,5.821
mc_post_fid2_p2_ADAMS_largeMale_left_daisy_LL.csv,55,ADAMS,p2,mc,fid2,left,post,0,1.829,43.204,4.539,10.407,4.006,0,233.826,47.199,300,1.829,43.204
mc_post_fid2_p2_BALLARD_largeMale_left_daisy_LL.csv,55,BALLARD,p2,mc,fid2,left,post,0,1.759,43.067,3.736,11.748,3.735,0,236.203,43.62,300,1.759,43.067
mc_post_fid2_p2_BAO_largeMale_left_daisy_LL.csv,59,BAO,p2,mc,fid2,left,post,0,2.058,43.433,4.807,10.411,4.003,0,233.045,46.743,300,2.058,43.433
mc_post_fid2_p2_cornish_largeMale_left_daisy_LL.csv,16,cornish,p2,mc,fid2,left,post,0,3.341,43.414,4.539,10.408,3.74,0,264.483,13.489,300,3.341,43.414
mc_post_fid2_p2_CUI_largeMale_left_daisy_LL.csv,20,CUI,p2,mc,fid2,left,post,0,3.663,43.439,4.27,10.408,4.543,0,263.426,13.69,300,3.663,43.439
mc_post_fid2_p3_ADAMS_largeMale_right_daisy_LL.csv,65,ADAMS,p3,mc,fid2,right,post,77.22,85.229,0.023,10.672,103.355,28.029,6.409,118.404,33.108,77.22,85.229,0.023
mc_post_fid2_p3_BALLARD_largeMale_right_daisy_LL.csv,70,BALLARD,p3,mc,fid2,right,post,77.12,84.862,2.646,9.606,102.506,27.758,6.943,120.373,32.036,77.12,84.862,2.646
mc_post_fid2_p3_BAO_largeMale_right_daisy_LL.csv,81,BAO,p3,mc,fid2,right,post,76.788,85.064,0.169,13.084,99.319,30.686,5.339,115.719,35.684,76.788,85.064,0.169
mc_post_fid2_p3_cornish_largeMale_right_daisy_LL.csv,33,cornish,p3,mc,fid2,right,post,78.035,84.976,4.226,10.148,112.241,16.289,6.134,126.809,24.153,78.035,84.976,4.226
mc_post_fid2_p3_CUI_largeMale_right_daisy_LL.csv,31,CUI,p3,mc,fid2,right,post,77.389,104.616,1.645,10.411,115.779,14.682,6.678,128.383,22.422,77.389,104.616,1.645
mc_post_fid20_p1_ESTRELLADO_largeMale_none_daniela_LS.csv,59,ESTRELLADO,p1,mc,fid20,none,post,1.499,11.608,29.881,26.767,46.797,37.493,58,92.399,37.045,1.499,11.608,29.881
mc_post_fid20_p1_FER300NDES_largeMale_none_daniela_LS.csv,56,FER300NDES,p1,mc,fid20,none,post,0.655,11.165,29.65,14.115,38.137,46.217,69.033,88.021,42.974,0.655,11.165,29.65
mc_post_fid20_p1_Gadot_largeMale_none_daniela_LS.csv,56,Gadot,p1,mc,fid20,none,post,0.023,11.331,29.749,17.355,38.974,46.293,66.565,88.356,42.434,0.023,11.331,29.749
mc_post_fid20_p1_GAJWANI_largeMale_none_daniela_LS.csv,50,GAJWANI,p1,mc,fid20,none,post,40.505,11.576,30.094,17.155,50.214,36.289,56.459,91.557,40.488,40.505,11.576,30.094
mc_post_fid20_p2_ESTRELLADO_largeMale_left_daniela_LS.csv,41,ESTRELLADO,p2,mc,fid20,left,post,121.491,89.158,0.771,17.638,112.416,20.825,7.038,128.658,12.654,121.491,89.158,0.771
mc_post_fid20_p2_FER300NDES_largeMale_left_daniela_LS.csv,45,FER300NDES,p2,mc,fid20,left,post,119.546,88.881,0.795,8.541,107.515,29.888,11.144,124.059,18.058,119.546,88.881,0.795
mc_post_fid20_p2_Gadot_largeMale_left_daniela_LS.csv,38,Gadot,p2,mc,fid20,left,post,119.745,89.048,0.023,6.405,113.312,25.362,12.278,128.205,14.415,119.745,89.048,0.023
mc_post_fid20_p2_GAJWANI_largeMale_left_daniela_LS.csv,36,GAJWANI,p2,mc,fid20,left,post,120.59,89.224,2.472,5.339,110.312,27.021,12.951,127.428,14.477,120.59,89.224,2.472
mc_post_fid20_p3_Rotholz_largeMale_right_daniela_LS.csv,51,Rotholz,p3,mc,fid20,right,post,242.967,1.926,147.272,12.811,24.824,26.603,26.028,164.166,43.642,242.967,1.926,147.272
mc_post_fid20_p3_SANCHEZ_largeMale_right_daniela_LS.csv,52,SANCHEZ,p3,mc,fid20,right,post,241.347,3.241,147.916,11.782,23.754,24.36,28.653,174.574,33.636,241.347,3.241,147.916
mc_post_fid20_p3_VASQUEZ_largeMale_right_daniela_LS.csv,54,VASQUEZ,p3,mc,fid20,right,post,240.298,0.229,150.609,25.42,20.824,23.228,20.992,173.97,35.337,240.298,0.229,150.609
mc_post_fid20_p3_Waindim_largeMale_right_daniela_LS.csv,54,Waindim,p3,mc,fid20,right,post,240.935,0.692,147.376,18.104,22.947,23.231,26.16,174.439,34.427,240.935,0.692,147.376
mc_post_fid21_p1__GONZALEZ_largeMale_none_adele_LS.csv,55,,p1,mc,fid21,largeMale,post,9.387,0.023,11.056,18.676,58.454,41.441,27.431,128.227,34.629,9.387,0.023,11.056
mc_post_fid21_p1_HAWKINS_largeMale_none_adele_LS.csv,55,HAWKINS,p1,mc,fid21,none,post,26.415,1.357,10.934,22.089,54.723,42.999,26.162,106.449,46,26.415,1.357,10.934
mc_post_fid21_p1_ihim_largeMale_none_adele_LS.csv,57,ihim,p1,mc,fid21,none,post,27.573,4.353,11.024,23.234,48.58,48.995,22.184,97.699,54.71,27.573,4.353,11.024
mc_post_fid21_p1_Ikehara_largeMale_none_adele_LS.csv,63,Ikehara,p1,mc,fid21,none,post,26.717,0.723,11.271,22.796,38.962,59.068,25.126,99.174,53.947,26.717,0.723,11.271
mc_post_fid21_p1_IYENGAR_largeMale_none_adele_LS.csv,54,IYENGAR,p1,mc,fid21,none,post,26.75,0.07,11,18.459,52.33,44.616,28.99,101.494,53.985,26.75,0.07,11
mc_post_fid21_p2_GONZALEZ_largeMale_right_adele_LS.csv,34,GONZALEZ,p2,mc,fid21,right,post,12.182,16.719,3.508,9.578,4.803,11.617,29.892,153.988,15.613,12.182,16.719,3.508
mc_post_fid21_p2_HAWKINS_largeMale_right_adele_LS.csv,65,HAWKINS,p2,mc,fid21,right,post,12.939,17.564,4.085,14.007,62.004,29.016,26.68,134.726,32.427,12.939,17.564,4.085
mc_post_fid21_p2_ihim_largeMale_right_adele_LS.csv,69,ihim,p2,mc,fid21,right,post,12.451,17.523,3.907,13.622,61.93,26.421,28.027,131.332,36.833,12.451,17.523,3.907
mc_post_fid21_p2_Ikehara_largeMale_right_adele_LS.csv,79,Ikehara,p2,mc,fid21,right,post,12.161,17.229,3.617,14.703,61.652,28.52,26.433,130.206,38.162,12.161,17.229,3.617
mc_post_fid21_p2_IYENGAR_largeMale_right_adele_LS.csv,68,IYENGAR,p2,mc,fid21,right,post,12.324,16.866,3.583,17.804,64.748,23.497,24.738,135.303,33.496,12.324,16.866,3.583
mc_post_fid21_p3_GONZALEZ_largeMale_left_adele_LS.csv,30,GONZALEZ,p3,mc,fid21,left,post,164.824,197.022,0.023,11.611,182.955,16.012,23.625,47.513,17.154,164.824,197.022,0.023
mc_post_fid21_p3_HAWKINS_largeMale_left_adele_LS.csv,29,HAWKINS,p3,mc,fid21,left,post,166.002,197.505,1.172,11.844,178.654,19.642,25.333,42.274,20.916,166.002,197.505,1.172
mc_post_fid21_p3_ihim_largeMale_left_adele_LS.csv,37,ihim,p3,mc,fid21,left,post,166.259,197.222,2.794,14.449,173.564,22.164,22.957,45.648,18.424,166.259,197.222,2.794
mc_post_fid21_p3_Ikehara_largeMale_left_adele_LS.csv,41,Ikehara,p3,mc,fid21,left,post,165.57,197.101,0.339,13.107,175.114,23.487,22.458,45.454,20.041,165.57,197.101,0.339
mc_post_fid21_p3_IYENGAR_largeMale_left_adele_LS.csv,35,IYENGAR,p3,mc,fid21,left,post,165.201,197.299,0.023,12.08,176.213,23.33,23.117,44.257,20.98,165.201,197.299,0.023
mc_post_fid22_p1_GONZALEZ_largeMale_none_bernadette_FF.csv,59,GONZALEZ,p1,mc,fid22,none,post,14.249,0.046,44.68,13.35,13.011,23.922,47.957,153.196,47.51,14.249,0.046,44.68
mc_post_fid22_p1_HAWKINS_largeMale_none_bernadette_FF.csv,71,HAWKINS,p1,mc,fid22,none,post,15.059,0.023,44.922,19.118,11.28,26.252,43.349,149.491,49.619,15.059,0.023,44.922
mc_post_fid22_p1_ihim_largeMale_none_bernadette_FF.csv,79,ihim,p1,mc,fid22,none,post,14.55,4.139,44.714,20.285,9.616,25.624,42.703,132.761,63.814,14.55,4.139,44.714
mc_post_fid22_p1_Ikehara_largeMale_none_bernadette_FF.csv,95,Ikehara,p1,mc,fid22,none,post,14.459,1.648,44.889,20.297,8.11,28.824,42.105,134.98,63.168,14.459,1.648,44.889
mc_post_fid22_p1_IYENGAR_largeMale_none_bernadette_FF.csv,73,IYENGAR,p1,mc,fid22,none,post,14.496,0.083,44.755,11.753,6.138,28.362,48.949,136.747,67.003,14.496,0.083,44.755
mc_post_fid22_p2_GONZALEZ_largeMale_left_bernadette_FF.csv,15,GONZALEZ,p2,mc,fid22,left,post,7.181,0,18.591,1.803,5.003,5.007,16.214,259.958,12.015,7.181,0,18.591
mc_post_fid22_p2_HAWKINS_largeMale_left_bernadette_FF.csv,17,HAWKINS,p2,mc,fid22,left,post,7.554,0.347,19.032,1.597,5.073,4.802,16.29,257.846,14.045,7.554,0.347,19.032
mc_post_fid22_p2_ihim_largeMale_left_bernadette_FF.csv,38,ihim,p2,mc,fid22,left,post,7.344,0.15,19.092,3.2,4.003,5.073,15.748,243.272,28.554,7.344,0.15,19.092
mc_post_fid22_p2_Ikehara_largeMale_left_bernadette_FF.csv,59,Ikehara,p2,mc,fid22,left,post,7.489,0.023,18.97,4.53,3.736,6.143,14.154,232.5,38.789,7.489,0.023,18.97
mc_post_fid22_p2_IYENGAR_largeMale_left_bernadette_FF.csv,33,IYENGAR,p2,mc,fid22,left,post,7.856,0.023,19.534,1.869,3.74,5.605,15.946,247.953,24.862,7.856,0.023,19.534
mc_post_fid22_p3_GONZALEZ_largeMale_right_bernadette_FF.csv,1,GONZALEZ,p3,mc,fid22,right,post,0,0.122,0,0,0,0,0,299.878,0,300,0.122,300
mc_post_fid22_p3_HAWKINS_largeMale_right_bernadette_FF.csv,1,HAWKINS,p3,mc,fid22,right,post,0,9.991,0,0,0,0,0,290.009,0,300,9.991,300
mc_post_fid22_p3_ihim_largeMale_right_bernadette_FF.csv,27,ihim,p3,mc,fid22,right,post,0,1.972,0,0,0,0,0,287.88,10.148,300,1.972,300
mc_post_fid22_p3_Ikehara_largeMale_right_bernadette_FF.csv,51,Ikehara,p3,mc,fid22,right,post,0,0.267,0,0,0,0,0,279.948,19.785,300,0.267,300
mc_post_fid22_p3_IYENGAR_largeMale_right_bernadette_FF.csv,23,IYENGAR,p3,mc,fid22,right,post,0,0.023,0,0,0,0,0,290.243,9.734,300,0.023,300
mc_post_fid23_p1_GONZALEZ_largeMale_none_bess_LL.csv,33,GONZALEZ,p1,mc,fid23,none,post,0.023,7.584,12.123,3.471,135.393,11.009,137.828,7.472,4.804,0.023,7.584,12.123
mc_post_fid23_p1_HAWKINS_largeMale_none_bess_LL.csv,31,HAWKINS,p1,mc,fid23,none,post,3.462,8.863,12.972,2.094,133.941,15.12,134.104,6.136,5.143,3.462,8.863,12.972
mc_post_fid23_p1_ihim_largeMale_none_bess_LL.csv,33,ihim,p1,mc,fid23,none,post,0.747,7.953,12.491,2.705,133.013,14.82,136.707,7.206,4.802,0.747,7.953,12.491
mc_post_fid23_p1_Ikehara_largeMale_none_bess_LL.csv,45,Ikehara,p1,mc,fid23,none,post,2.293,7.896,12.704,5.413,129.412,17.973,133.418,6.673,4.804,2.293,7.896,12.704
mc_post_fid23_p1_IYENGAR_largeMale_none_bess_LL.csv,37,IYENGAR,p1,mc,fid23,none,post,0.221,7.9,12.437,2.664,132.656,15.849,137.135,6.938,4.537,0.221,7.9,12.437
mc_post_fid23_p2_GONZALEZ_largeMale_left_bess_LL.csv,58,GONZALEZ,p2,mc,fid23,left,post,26.179,51.437,0.023,13.616,34.458,50.389,121.523,44.576,26.692,26.179,51.437,0.023
mc_post_fid23_p2_HAWKINS_largeMale_left_bess_LL.csv,58,HAWKINS,p2,mc,fid23,left,post,26.394,52.75,57.358,15.649,32.071,52.227,122.027,45.892,29.503,26.394,52.75,57.358
mc_post_fid23_p2_ihim_largeMale_left_bess_LL.csv,61,ihim,p2,mc,fid23,left,post,26.781,52.94,1.423,16.278,32.649,52.224,119.244,39.422,38.381,26.781,52.94,1.423
mc_post_fid23_p2_Ikehara_largeMale_left_bess_LL.csv,75,Ikehara,p2,mc,fid23,left,post,26.489,52.384,0.064,20.799,33.506,52.526,119.704,40.265,33.048,26.489,52.384,0.064
mc_post_fid23_p2_IYENGAR_largeMale_left_bess_LL.csv,60,IYENGAR,p2,mc,fid23,left,post,26.393,52.182,57.257,18.928,30.965,55.246,120.201,42.575,31.255,26.393,52.182,57.257
mc_post_fid23_p3_GONZALEZ_largeMale_right_bess_LL.csv,43,GONZALEZ,p3,mc,fid23,right,post,0.735,25.792,36.203,15.747,90.496,23.215,62.968,84.118,22.721,0.735,25.792,36.203
mc_post_fid23_p3_HAWKINS_largeMale_right_bess_LL.csv,41,HAWKINS,p3,mc,fid23,right,post,1.179,26.304,37.082,15.941,90.218,21.086,64.811,83.568,23.197,1.179,26.304,37.082
mc_post_fid23_p3_ihim_largeMale_right_bess_LL.csv,90,ihim,p3,mc,fid23,right,post,1.701,26.26,36.938,13.613,85.682,26.428,64.599,85.02,22.957,1.701,26.26,36.938
mc_post_fid23_p3_Ikehara_largeMale_right_bess_LL.csv,62,Ikehara,p3,mc,fid23,right,post,0.127,26.039,36.717,20.86,81.939,30.972,59.773,80.163,26.166,0.127,26.039,36.717
mc_post_fid23_p3_IYENGAR_largeMale_right_bess_LL.csv,45,IYENGAR,p3,mc,fid23,right,post,0.214,26.337,37.019,14.785,84.98,28.864,64.366,79.67,27.121,0.214,26.337,37.019
mc_post_fid24_p1_GONZALEZ_largeMale_none_ariana_LS.csv,27,GONZALEZ,p1,mc,fid24,none,post,31.604,47.922,62.336,2.938,8.005,47.504,52.651,170.995,17.692,31.604,47.922,62.336
mc_post_fid24_p1_HAWKINS_largeMale_none_ariana_LS.csv,24,HAWKINS,p1,mc,fid24,none,post,33.281,48.262,64.178,5.167,5.1,52.011,51.47,171.774,13.871,33.281,48.262,64.178
mc_post_fid24_p1_ihim_largeMale_none_ariana_LS.csv,29,ihim,p1,mc,fid24,none,post,32.742,48.394,63.04,5.722,7.298,44.125,52.576,169.894,17.154,32.742,48.394,63.04
mc_post_fid24_p1_Ikehara_largeMale_none_ariana_LS.csv,36,Ikehara,p1,mc,fid24,none,post,31.945,48.062,63.814,6.14,4.267,50.61,50.981,164.605,23.182,31.945,48.062,63.814
mc_post_fid24_p1_IYENGAR_largeMale_none_ariana_LS.csv,30,IYENGAR,p1,mc,fid24,none,post,32.113,48.33,64.047,4.47,4.537,51.342,50.686,166.618,22.324,32.113,48.33,64.047
mc_post_fid24_p2_GONZALEZ_largeMale_left_ariana_LS.csv,17,GONZALEZ,p2,mc,fid24,left,post,264.437,0.023,137.711,6.676,124.325,23.221,6.467,132.349,6.939,264.437,0.023,137.711
mc_post_fid24_p2_HAWKINS_largeMale_left_ariana_LS.csv,13,HAWKINS,p2,mc,fid24,left,post,267.653,272.256,139.491,6.133,128.16,21.448,4.768,3.838,3.07,267.653,272.256,139.491
mc_post_fid24_p2_ihim_largeMale_left_ariana_LS.csv,23,ihim,p2,mc,fid24,left,post,264.878,0.581,139.345,6.804,120.905,25.64,5.33,133.526,7.214,264.878,0.581,139.345
mc_post_fid24_p2_Ikehara_largeMale_left_ariana_LS.csv,46,Ikehara,p2,mc,fid24,left,post,266.216,0.023,137.821,9.689,117.725,29.245,3.654,128.991,10.673,266.216,0.023,137.821
mc_post_fid24_p2_IYENGAR_largeMale_left_ariana_LS.csv,25,IYENGAR,p2,mc,fid24,left,post,265.884,0.023,138.56,8.441,121.726,25.217,4.453,129.728,10.412,265.884,0.023,138.56
mc_post_fid24_p3_GONZALEZ_largeMale_right_ariana_LS.csv,13,GONZALEZ,p3,mc,fid24,right,post,0.023,3.411,28.501,6.406,261.89,15.484,1.516,7.739,6.942,0.023,3.411,28.501
mc_post_fid24_p3_HAWKINS_largeMale_right_ariana_LS.csv,11,HAWKINS,p3,mc,fid24,right,post,3.422,7.325,28.749,6.909,261.852,13.052,3.834,6.839,3.908,3.422,7.325,28.749
mc_post_fid24_p3_ihim_largeMale_right_ariana_LS.csv,34,ihim,p3,mc,fid24,right,post,0,6.147,27.372,6.738,249.644,26.088,0,6.275,7.21,300,6.147,27.372
mc_post_fid24_p3_Ikehara_largeMale_right_ariana_LS.csv,48,Ikehara,p3,mc,fid24,right,post,0.917,4.12,28.71,6.669,242.341,34.821,1.071,5.368,8.813,0.917,4.12,28.71
mc_post_fid24_p3_IYENGAR_largeMale_right_ariana_LS.csv,31,IYENGAR,p3,mc,fid24,right,post,0.023,5.358,28.18,6.671,251.883,25.012,1.329,5.738,9.344,0.023,5.358,28.18
mc_post_fid25_p1_GONZALEZ_largeMale_none_amy_FF.csv,23,GONZALEZ,p1,mc,fid25,none,post,0.023,74.215,34.308,7.742,198.726,27.494,53.869,6.408,5.738,0.023,74.215,34.308
mc_post_fid25_p1_HAWKINS_largeMale_none_amy_FF.csv,18,HAWKINS,p1,mc,fid25,none,post,0.918,75.863,34.418,6.906,200.555,26.083,53.472,5.369,6.137,0.918,75.863,34.418
mc_post_fid25_p1_ihim_largeMale_none_amy_FF.csv,31,ihim,p1,mc,fid25,none,post,11.929,76.081,34.381,8.304,190.488,36.982,40.198,4.678,7.33,11.929,76.081,34.381
mc_post_fid25_p1_Ikehara_largeMale_none_amy_FF.csv,40,Ikehara,p1,mc,fid25,none,post,0.023,74.365,34.322,9.869,185.322,40.842,52.19,6.132,5.611,0.023,74.365,34.322
mc_post_fid25_p1_IYENGAR_largeMale_none_amy_FF.csv,29,IYENGAR,p1,mc,fid25,none,post,0.023,74.292,34.885,8.103,193.405,32.995,53.653,6.306,5.407,0.023,74.292,34.885
mc_post_fid25_p2_GONZALEZ_largeMale_left_amy_FF.csv,31,GONZALEZ,p2,mc,fid25,left,post,138.484,129.142,0.023,10.144,119.106,37.906,12.279,104.526,16.016,138.484,129.142,0.023
mc_post_fid25_p2_HAWKINS_largeMale_left_amy_FF.csv,28,HAWKINS,p2,mc,fid25,left,post,141.467,129.956,106.166,9.217,14.568,46.055,12.277,99.196,19.952,141.467,129.956,106.166
mc_post_fid25_p2_ihim_largeMale_left_amy_FF.csv,37,ihim,p2,mc,fid25,left,post,139.158,129.312,3.616,8.818,123.232,34.155,11.872,99.434,18.792,139.158,129.312,3.616
mc_post_fid25_p2_Ikehara_largeMale_left_amy_FF.csv,45,Ikehara,p2,mc,fid25,left,post,139.165,129.019,0.108,12.286,115.833,41.375,10.404,97.842,22.152,139.165,129.019,0.108
mc_post_fid25_p2_IYENGAR_largeMale_left_amy_FF.csv,34,IYENGAR,p2,mc,fid25,left,post,138.962,129.085,0.023,7.473,120.02,37.646,11.079,102.921,20.838,138.962,129.085,0.023
mc_post_fid25_p3_GONZALEZ_largeMale_right_amy_FF.csv,24,GONZALEZ,p3,mc,fid25,right,post,47.453,0.023,89.995,0,65.099,42.276,66.032,109.925,16.552,47.453,0.023,89.995
mc_post_fid25_p3_HAWKINS_largeMale_right_amy_FF.csv,23,HAWKINS,p3,mc,fid25,right,post,49.171,0.45,88.306,0,91.352,18.458,64.469,108.952,16.112,49.171,0.45,88.306
mc_post_fid25_p3_ihim_largeMale_right_amy_FF.csv,35,ihim,p3,mc,fid25,right,post,47.927,2.549,87.561,0,88.66,18.65,66.238,105.204,18.276,47.927,2.549,87.561
mc_post_fid25_p3_Ikehara_largeMale_right_amy_FF.csv,49,Ikehara,p3,mc,fid25,right,post,48.065,0.023,90.139,5.075,84.347,23.491,60.329,101.117,25.618,48.065,0.023,90.139
mc_post_fid25_p3_IYENGAR_largeMale_right_amy_FF.csv,31,IYENGAR,p3,mc,fid25,right,post,48.168,0.023,90.177,0,87.314,18.988,66.965,103.614,23.096,48.168,0.023,90.177
mc_post_fid26_p1_GONZALEZ_largeMale_none_beverly_LS.csv,3,GONZALEZ,p1,mc,fid26,none,post,0,0.023,0,0,0,0,0,296.241,3.736,300,0.023,300
mc_post_fid26_p1_HAWKINS_largeMale_none_beverly_LS.csv,3,HAWKINS,p1,mc,fid26,none,post,0,1.975,0,0,0,0,0,295.717,2.308,300,1.975,300
mc_post_fid26_p1_ihim_largeMale_none_beverly_LS.csv,11,ihim,p1,mc,fid26,none,post,0,2.633,0,0,0,0,0,286.955,10.412,300,2.633,300
mc_post_fid26_p1_Ikehara_largeMale_none_beverly_LS.csv,31,Ikehara,p1,mc,fid26,none,post,0,0.107,0,0,0,0,0,285.644,14.249,300,0.107,300
mc_post_fid26_p1_IYENGAR_largeMale_none_beverly_LS.csv,11,IYENGAR,p1,mc,fid26,none,post,0,0.023,0,0,0,0,0,290.41,9.567,300,0.023,300
mc_post_fid26_p2_GONZALEZ_largeMale_left_beverly_LS.csv,30,GONZALEZ,p2,mc,fid26,left,post,208.899,0.023,225.883,10.52,20.022,14.21,23.359,220.918,10.948,208.899,0.023,225.883
mc_post_fid26_p2_HAWKINS_largeMale_left_beverly_LS.csv,29,HAWKINS,p2,mc,fid26,left,post,212.749,0.335,226.563,5.375,22.253,13.812,22.263,220.358,15.604,212.749,0.335,226.563
mc_post_fid26_p2_ihim_largeMale_left_beverly_LS.csv,32,ihim,p2,mc,fid26,left,post,208.868,1.894,225.525,9.161,20.702,12.472,25.933,215.816,14.022,208.868,1.894,225.525
mc_post_fid26_p2_Ikehara_largeMale_left_beverly_LS.csv,43,Ikehara,p2,mc,fid26,left,post,209.644,0.092,225.962,12.254,19.218,14.716,21.357,217.738,14.625,209.644,0.092,225.962
mc_post_fid26_p2_IYENGAR_largeMale_left_beverly_LS.csv,31,IYENGAR,p2,mc,fid26,left,post,209.111,0.023,226.194,9.767,21.386,12.211,23.83,221.1,11.683,209.111,0.023,226.194
mc_post_fid26_p3_GONZALEZ_largeMale_right_beverly_LS.csv,1,GONZALEZ,p3,mc,fid26,right,post,0,0.072,0,0,0,0,0,299.928,0,300,0.072,300
mc_post_fid26_p3_HAWKINS_largeMale_right_beverly_LS.csv,1,HAWKINS,p3,mc,fid26,right,post,0,0.417,0,0,0,0,0,299.583,0,300,0.417,300
mc_post_fid26_p3_ihim_largeMale_right_beverly_LS.csv,3,ihim,p3,mc,fid26,right,post,0,1.144,0,0,0,0,0,297.82,1.036,300,1.144,300
mc_post_fid26_p3_Ikehara_largeMale_right_beverly_LS.csv,7,Ikehara,p3,mc,fid26,right,post,0,0.321,0,0,0,0,0,298.079,1.6,300,0.321,300
mc_post_fid26_p3_IYENGAR_largeMale_right_beverly_LS.csv,1,IYENGAR,p3,mc,fid26,right,post,0,0.023,0,0,0,0,0,299.977,0,300,0.023,300
mc_post_fid27_p1_GONZALEZ_largeMale_none_amber_SS.csv,9,GONZALEZ,p1,mc,fid27,none,post,172.722,4.922,0,4,0,0,127.196,60.228,108.105,172.722,4.922,300
mc_post_fid27_p1_HAWKINS_largeMale_none_amber_SS.csv,9,HAWKINS,p1,mc,fid27,none,post,174.869,5.166,0,0.8,0,0,124.567,61.402,108.834,174.869,5.166,300
mc_post_fid27_p1_ihim_largeMale_none_amber_SS.csv,11,ihim,p1,mc,fid27,none,post,173.898,6.591,0,1.03,0,0,125.72,61.663,107.21,173.898,6.591,300
mc_post_fid27_p1_Ikehara_largeMale_none_amber_SS.csv,12,Ikehara,p1,mc,fid27,none,post,172.87,4.966,0,1.603,0,0,127.116,60.05,108.118,172.87,4.966,300
mc_post_fid27_p1_IYENGAR_largeMale_none_amber_SS.csv,9,IYENGAR,p1,mc,fid27,none,post,172.867,5.567,0,5.01,0,0,127.133,59.425,108.409,172.867,5.567,300
mc_post_fid27_p2_HAWKINS_largeMale_right_amber_SS.csv,12,HAWKINS,p2,mc,fid27,right,post,5.233,0,81.143,2.304,201.974,19.185,52.918,0,18.386,5.233,300,81.143
mc_post_fid27_p2_ihim_largeMale_right_amber_SS.csv,21,ihim,p2,mc,fid27,right,post,4.1,0,93.914,0,175.602,43.48,59.688,0,16.684,4.1,300,93.914
mc_post_fid27_p2_Ikehara_largeMale_right_amber_SS.csv,29,Ikehara,p2,mc,fid27,right,post,0.863,0,93.225,1.069,170.59,50.601,58.991,0,17.886,0.863,300,93.225
mc_post_fid27_p2_IYENGAR_largeMale_right_amber_SS.csv,21,IYENGAR,p2,mc,fid27,right,post,0.023,0,93.187,0,180.435,40.797,61.1,0,17.517,0.023,300,93.187
mc_post_fid27_p3_HAWKINS_largeMale_left_amber_SS.csv,27,HAWKINS,p3,mc,fid27,left,post,4.014,93.735,122.902,13.041,23.781,9.217,204.163,10.755,35.029,4.014,93.735,122.902
mc_post_fid27_p3_ihim_largeMale_left_amber_SS.csv,26,ihim,p3,mc,fid27,left,post,5.941,93.823,121.321,15.71,21.92,9.344,197.746,15.02,34.222,5.941,93.823,121.321
mc_post_fid27_p3_Ikehara_largeMale_left_amber_SS.csv,37,Ikehara,p3,mc,fid27,left,post,0.346,93.801,121.564,17.289,15.483,16.016,205.093,8.008,37.639,0.346,93.801,121.564
mc_post_fid27_p3_IYENGAR_largeMale_left_amber_SS.csv,25,IYENGAR,p3,mc,fid27,left,post,0.023,93.801,121.562,15.913,21.789,9.343,206.535,7.039,39.345,0.023,93.801,121.562
mc_post_fid28_p1_HAWKINS_largeMale_none_becca_SS.csv,42,HAWKINS,p1,mc,fid28,none,post,7.565,1.728,16.78,12.26,164.509,21.485,9.978,64.911,24.6,7.565,1.728,16.78
mc_post_fid28_p1_ihim_largeMale_none_becca_SS.csv,64,ihim,p1,mc,fid28,none,post,6.862,1.618,17.734,12.356,152.216,36.868,11.878,60.668,24.396,6.862,1.618,17.734
mc_post_fid28_p1_Ikehara_largeMale_none_becca_SS.csv,77,Ikehara,p1,mc,fid28,none,post,6.8,0.137,16.177,17.17,143.118,44.682,6.675,60.65,27.568,6.8,0.137,16.177
mc_post_fid28_p1_IYENGAR_largeMale_none_becca_SS.csv,67,IYENGAR,p1,mc,fid28,none,post,7.335,0.023,16.676,13.14,153.54,34.14,9.073,61.668,28.4,7.335,0.023,16.676
mc_post_fid28_p2_HAWKINS_largeMale_right_becca_SS.csv,37,HAWKINS,p2,mc,fid28,right,post,17.447,22.817,1.76,0,182.431,19.949,15.344,67.532,12.984,17.447,22.817,1.76
mc_post_fid28_p2_ihim_largeMale_right_becca_SS.csv,73,ihim,p2,mc,fid28,right,post,13.702,19.438,1.324,0,168.104,29.794,16.578,70.282,13.54,13.702,19.438,1.324
mc_post_fid28_p2_Ikehara_largeMale_right_becca_SS.csv,99,Ikehara,p2,mc,fid28,right,post,15.14,18.643,1.55,12.333,159.476,38.228,5.882,66.193,16.261,15.14,18.643,1.55
mc_post_fid28_p2_IYENGAR_largeMale_right_becca_SS.csv,72,IYENGAR,p2,mc,fid28,right,post,15.309,18.777,0.023,5.878,172.209,27.805,10.948,70.071,13.066,15.309,18.777,0.023
mc_post_fid28_p3_HAWKINS_largeMale_left_becca_SS.csv,23,HAWKINS,p3,mc,fid28,left,post,1.292,23.685,6.095,2.306,245.597,28.088,17.345,1.532,3.84,1.292,23.685,6.095
mc_post_fid28_p3_ihim_largeMale_left_becca_SS.csv,49,ihim,p3,mc,fid28,left,post,1.846,19.998,6.118,2.668,231.3,36.3,17.086,1.336,9.464,1.846,19.998,6.118
mc_post_fid28_p3_Ikehara_largeMale_left_becca_SS.csv,105,Ikehara,p3,mc,fid28,left,post,0.095,19.71,5.828,8.159,216.105,50.674,15.051,1.87,8.046,0.095,19.71,5.828
mc_post_fid28_p3_IYENGAR_largeMale_left_becca_SS.csv,49,IYENGAR,p3,mc,fid28,left,post,0.023,19.977,5.995,2.401,229.584,38.445,19.85,1.367,8.33,0.023,19.977,5.995
mc_post_fid3_p1_ADAMS_largeMale_none_diana_LL.csv,7,ADAMS,p1,mc,fid3,none,post,0,38.267,0,34.243,0,0,0,251.887,13.61,300,38.267,300
mc_post_fid3_p1_BALLARD_largeMale_none_diana_LL.csv,9,BALLARD,p1,mc,fid3,none,post,0,38.267,0,33.467,0,0,0,251.345,14.154,300,38.267,300
mc_post_fid3_p1_BAO_largeMale_none_diana_LL.csv,9,BAO,p1,mc,fid3,none,post,0,38.368,0,32.301,0,0,0,251.628,13.877,300,38.368,300
mc_post_fid3_p1_cornish_largeMale_none_diana_LL.csv,5,cornish,p1,mc,fid3,none,post,0,38.649,0,33.005,0,0,0,255.062,8.814,300,38.649,300
mc_post_fid3_p1_CUI_largeMale_none_diana_LL.csv,7,CUI,p1,mc,fid3,none,post,0,38.434,0,14.482,0,0,0,253.261,12.036,300,38.434,300
mc_post_fid3_p2_ADAMS_largeMale_left_diana_LL.csv,1,ADAMS,p2,mc,fid3,left,post,0,0.023,0,0,0,0,0,299.858,0,300,0.023,300
mc_post_fid3_p2_BALLARD_largeMale_left_diana_LL.csv,3,BALLARD,p2,mc,fid3,left,post,0,1.049,0,0,0,0,0,297.497,1.335,300,1.049,300
mc_post_fid3_p2_BAO_largeMale_left_diana_LL.csv,3,BAO,p2,mc,fid3,left,post,0,1.018,0,0,0,0,0,296.726,2.137,300,1.018,300
mc_post_fid3_p2_cornish_largeMale_left_diana_LL.csv,1,cornish,p2,mc,fid3,left,post,0,1.463,0,0,0,0,0,298.188,0,300,1.463,300
mc_post_fid3_p2_CUI_largeMale_left_diana_LL.csv,1,CUI,p2,mc,fid3,left,post,0,1.586,0,0,0,0,0,298.414,0,300,1.586,300
mc_post_fid3_p3_ADAMS_largeMale_right_diana_LL.csv,7,ADAMS,p3,mc,fid3,right,post,0,0.023,0,0,0,0,0,295.438,4.539,300,0.023,300
mc_post_fid3_p3_BALLARD_largeMale_right_diana_LL.csv,5,BALLARD,p3,mc,fid3,right,post,0,0.517,0,0,0,0,0,296.279,3.204,300,0.517,300
mc_post_fid3_p3_BAO_largeMale_right_diana_LL.csv,7,BAO,p3,mc,fid3,right,post,0,1.185,0,0,0,0,0,294.012,4.803,300,1.185,300
mc_post_fid3_p3_cornish_largeMale_right_diana_LL.csv,1,cornish,p3,mc,fid3,right,post,0,0.399,0,0,0,0,0,299.601,0,300,0.399,300
mc_post_fid3_p3_CUI_largeMale_right_diana_LL.csv,1,CUI,p3,mc,fid3,right,post,0,1.617,0,0,0,0,0,298.383,0,300,1.617,300
mc_post_fid30_p1_HAWKINS_largeMale_none_dawn_LL.csv,58,HAWKINS,p1,mc,fid30,none,post,23.397,17.257,1.206,9.193,188.886,25.221,13.809,39.24,21.534,23.397,17.257,1.206
mc_post_fid30_p1_ihim_largeMale_none_dawn_LL.csv,104,ihim,p1,mc,fid30,none,post,22.55,15.611,3.331,9.874,160.087,51.526,13.348,35.504,27.227,22.55,15.611,3.331
mc_post_fid30_p1_Ikehara_largeMale_none_dawn_LL.csv,124,Ikehara,p1,mc,fid30,none,post,22.865,15.656,2.909,15.208,158.018,55.125,9.996,35.228,26.163,22.865,15.656,2.909
mc_post_fid30_p1_IYENGAR_largeMale_none_dawn_LL.csv,82,IYENGAR,p1,mc,fid30,none,post,22.661,16.055,3.408,9.414,172.117,38.376,16.188,37.069,26.358,22.661,16.055,3.408
mc_post_fid30_p2_HAWKINS_largeMale_left_dawn_LL.csv,50,HAWKINS,p2,mc,fid30,left,post,22.973,15.269,1.686,6.126,50.42,72.488,26.874,126.269,16.137,22.973,15.269,1.686
mc_post_fid30_p2_ihim_largeMale_left_dawn_LL.csv,66,ihim,p2,mc,fid30,left,post,21.861,14.654,1.574,10.142,45.114,38.973,24.289,95.562,22.957,21.861,14.654,1.574
mc_post_fid30_p2_Ikehara_largeMale_left_dawn_LL.csv,87,Ikehara,p2,mc,fid30,left,post,21.805,14.598,1.521,14.419,43.317,39.754,21.89,151.859,27.24,21.805,14.598,1.521
mc_post_fid30_p2_IYENGAR_largeMale_left_dawn_LL.csv,60,IYENGAR,p2,mc,fid30,left,post,21.841,14.697,0.023,8.548,46.234,38.705,26.692,158.163,21.635,21.841,14.697,0.023
mc_post_fid30_p3_HAWKINS_largeMale_right_dawn_LL.csv,1,HAWKINS,p3,mc,fid30,right,post,0,0.724,0,0,0,0,0,299.276,0,300,0.724,300
mc_post_fid30_p3_ihim_largeMale_right_dawn_LL.csv,11,ihim,p3,mc,fid30,right,post,0,0.777,0,0,0,0,0,294.149,5.074,300,0.777,300
mc_post_fid30_p3_Ikehara_largeMale_right_dawn_LL.csv,13,Ikehara,p3,mc,fid30,right,post,0,0.178,0,0,0,0,0,293.414,6.408,300,0.178,300
mc_post_fid30_p3_IYENGAR_largeMale_right_dawn_LL.csv,7,IYENGAR,p3,mc,fid30,right,post,0,0.023,0,0,0,0,0,297.54,2.437,300,0.023,300
mc_post_fid31_p1_HAWKINS_largeMale_none_bailey_LL.csv,31,HAWKINS,p1,mc,fid31,none,post,13.037,1.849,34.515,10.733,52.224,36.817,69.06,84.27,46.175,13.037,1.849,34.515
mc_post_fid31_p1_ihim_largeMale_none_bailey_LL.csv,40,ihim,p1,mc,fid31,none,post,10.28,1.737,34.036,17.886,49.649,34.438,68.098,84.648,43.81,10.28,1.737,34.036
mc_post_fid31_p1_Ikehara_largeMale_none_bailey_LL.csv,47,Ikehara,p1,mc,fid31,none,post,10.793,2.618,33.717,22.689,41.902,41.375,64.568,75.743,53.466,10.793,2.618,33.717
mc_post_fid31_p1_IYENGAR_largeMale_none_bailey_LL.csv,42,IYENGAR,p1,mc,fid31,none,post,10.659,1.717,33.914,16.509,49.382,35.542,68.036,79.611,50.897,10.659,1.717,33.914
mc_post_fid31_p2_HAWKINS_largeMale_right_bailey_LL.csv,27,HAWKINS,p2,mc,fid31,right,post,193.511,3.178,196.568,7.671,26.103,21.481,15.031,197.46,28.565,193.511,3.178,196.568
mc_post_fid31_p2_ihim_largeMale_right_bailey_LL.csv,35,ihim,p2,mc,fid31,right,post,0,2.964,195.557,24.289,19.219,24.825,0,186.591,44.514,300,2.964,195.557
mc_post_fid31_p2_Ikehara_largeMale_right_bailey_LL.csv,57,Ikehara,p2,mc,fid31,right,post,0,2.51,195.3,25.895,18.949,24.831,0,176.458,51.891,300,2.51,195.3
mc_post_fid31_p2_IYENGAR_largeMale_right_bailey_LL.csv,40,IYENGAR,p2,mc,fid31,right,post,0,2.844,195.634,24.859,20.356,23.49,0,185.751,45.521,300,2.844,195.634
mc_post_fid31_p3_Rotholz_largeMale_left_bailey_LL.csv,18,Rotholz,p3,mc,fid31,left,post,207.523,2.518,202.317,3.603,2.404,6.406,4.003,268.785,10.012,207.523,2.518,202.317
mc_post_fid31_p3_SANCHEZ_largeMale_left_bailey_LL.csv,21,SANCHEZ,p3,mc,fid31,left,post,0,5.033,201.761,6.407,2.936,6.406,0,266.356,10.679,300,5.033,201.761
mc_post_fid31_p3_VASQUEZ_largeMale_left_bailey_LL.csv,19,VASQUEZ,p3,mc,fid31,left,post,207.589,0.182,201.449,7.742,2.937,4.804,0.533,272.442,9.339,207.589,0.182,201.449
mc_post_fid31_p3_Waindim_largeMale_left_bailey_LL.csv,15,Waindim,p3,mc,fid31,left,post,0,3.021,201.686,8.002,2.667,5.342,0,269.601,9.346,300,3.021,201.686
mc_post_fid32_p1_JEW_largeMale_none_claire_INT.csv,30,JEW,p1,mc,fid32,none,post,2.848,29.806,47.689,17.352,33.361,22.161,13.078,194.682,17.616,2.848,29.806,47.689
mc_post_fid32_p1_KALARIA_largeMale_none_claire_INT.csv,27,KALARIA,p1,mc,fid32,none,post,4.123,29.749,47.637,13.886,34.961,21.087,15.488,194.857,18.678,4.123,29.749,47.637
mc_post_fid32_p1_KAR300TI_largeMale_none_claire_INT.csv,32,KAR300TI,p1,mc,fid32,none,post,3.423,28.282,47.467,19.449,32.714,21.878,12.046,195.861,17.065,3.423,28.282,47.467
mc_post_fid32_p1_KUE_largeMale_none_claire_INT.csv,30,KUE,p1,mc,fid32,none,post,3.891,28.717,47.669,14.69,33.9,21.352,14.946,195.683,16.546,3.891,28.717,47.669
mc_post_fid32_p1_lacy_largeMale_none_claire_INT.csv,23,lacy,p1,mc,fid32,none,post,2.355,29.586,47.738,13.351,34.968,20.283,16.287,194.264,18.943,2.355,29.586,47.738
mc_post_fid32_p2_JEW_largeMale_left_claire_INT.csv,5,JEW,p2,mc,fid32,left,post,0,2.202,0,0,0,0,0,293.126,3.671,300,2.202,300
mc_post_fid32_p2_KALARIA_largeMale_left_claire_INT.csv,3,KALARIA,p2,mc,fid32,left,post,0,0.081,0,0,0,0,0,295.522,3.739,300,0.081,300
mc_post_fid32_p2_KAR300TI_largeMale_left_claire_INT.csv,5,KAR300TI,p2,mc,fid32,left,post,0,0.237,0,0,0,0,0,293.452,5.876,300,0.237,300
mc_post_fid32_p2_KUE_largeMale_left_claire_INT.csv,5,KUE,p2,mc,fid32,left,post,0,0.023,0,0,0,0,0,295.275,4.267,300,0.023,300
mc_post_fid32_p2_lacy_largeMale_left_claire_INT.csv,7,lacy,p2,mc,fid32,left,post,0,1.045,0,0,0,0,0,292.327,6.034,300,1.045,300
mc_post_fid32_p3_JEW_largeMale_right_claire_INT.csv,1,JEW,p3,mc,fid32,right,post,0,0.023,0,0,0,0,0,299.977,0,300,0.023,300
mc_post_fid32_p3_KALARIA_largeMale_right_claire_INT.csv,1,KALARIA,p3,mc,fid32,right,post,0,0.195,0,0,0,0,0,299.805,0,300,0.195,300
mc_post_fid32_p3_KAR300TI_largeMale_right_claire_INT.csv,1,KAR300TI,p3,mc,fid32,right,post,0,0.023,0,0,0,0,0,299.977,0,300,0.023,300
mc_post_fid32_p3_KUE_largeMale_right_claire_INT.csv,1,KUE,p3,mc,fid32,right,post,0,0.303,0,0,0,0,0,299.697,0,300,0.303,300
mc_post_fid32_p3_lacy_largeMale_right_claire_INT.csv,1,lacy,p3,mc,fid32,right,post,0,0.909,0,0,0,0,0,299.091,0,300,0.909,300
mc_post_fid33_p1_JEW_largeMale_none_barbara_INT.csv,22,JEW,p1,mc,fid33,none,post,0,15.32,5.443,8.01,253.712,15.3,0,17.349,5.606,300,15.32,5.443
mc_post_fid33_p1_KALARIA_largeMale_none_barbara_INT.csv,17,KALARIA,p1,mc,fid33,none,post,0,15.664,5.519,7.206,256.573,12.278,0,17.355,5.869,300,15.664,5.519
mc_post_fid33_p1_KAR300TI_largeMale_none_barbara_INT.csv,34,KAR300TI,p1,mc,fid33,none,post,0,15.296,4.352,8.009,245.207,23.214,0,14.686,8.536,300,15.296,4.352
mc_post_fid33_p1_KUE_largeMale_none_barbara_INT.csv,24,KUE,p1,mc,fid33,none,post,0,15.298,4.624,7.208,251.599,17.678,0,16.283,7.209,300,15.298,4.624
mc_post_fid33_p1_lacy_largeMale_none_barbara_INT.csv,23,lacy,p1,mc,fid33,none,post,0,15.301,4.888,8.872,252.005,16.013,0,16.419,6.668,300,15.301,4.888
mc_post_fid33_p2_JEW_largeMale_right_barbara_INT.csv,15,JEW,p2,mc,fid33,right,post,0,263.872,0.023,2.402,276.382,12.651,0,4.806,3.736,300,263.872,0.023
mc_post_fid33_p2_KALARIA_largeMale_right_barbara_INT.csv,15,KALARIA,p2,mc,fid33,right,post,270.427,264.016,0.29,1.334,275.413,12.015,2.933,4.271,3.741,270.427,264.016,0.29
mc_post_fid33_p2_KAR300TI_largeMale_right_barbara_INT.csv,41,KAR300TI,p2,mc,fid33,right,post,0,263.716,0.078,2.942,267.517,21.456,0,4.807,3.2,300,263.716,0.078
mc_post_fid33_p2_KUE_largeMale_right_barbara_INT.csv,17,KUE,p2,mc,fid33,right,post,0,264.019,0.023,2.569,276.345,12.543,0,4.671,3.601,300,264.019,0.023
mc_post_fid33_p2_lacy_largeMale_right_barbara_INT.csv,15,lacy,p2,mc,fid33,right,post,0,264.784,0.453,3.84,275.916,12.316,0,3.641,3.834,300,264.784,0.453
mc_post_fid33_p3_JEW_largeMale_left_barbara_INT.csv,11,JEW,p3,mc,fid33,left,post,0,0,0.023,5.708,282.82,7.707,0,0,3.668,300,300,0.023
mc_post_fid33_p3_KALARIA_largeMale_left_barbara_INT.csv,9,KALARIA,p3,mc,fid33,left,post,0,0,1.174,5.61,281.206,8.274,0,0,3.736,300,300,1.174
mc_post_fid33_p3_KAR300TI_largeMale_left_barbara_INT.csv,53,KAR300TI,p3,mc,fid33,left,post,0,0,0.086,5.876,257.784,32.304,0,0,3.467,300,300,0.086
mc_post_fid33_p3_KUE_largeMale_left_barbara_INT.csv,15,KUE,p3,mc,fid33,left,post,0,0,0.023,5.234,280.126,9.948,0,0,4.669,300,300,0.023
mc_post_fid33_p3_lacy_largeMale_left_barbara_INT.csv,13,lacy,p3,mc,fid33,left,post,0,0,1.038,3.846,280.363,9.971,0,0,4.603,300,300,1.038
mc_post_fid34_p1_JEW_largeMale_none_charlotte_INT.csv,72,JEW,p1,mc,fid34,none,post,17.171,24.646,12.467,40.563,74.773,42.616,33.746,72.074,36.205,17.171,24.646,12.467
mc_post_fid34_p1_KALARIA_largeMale_none_charlotte_INT.csv,78,KALARIA,p1,mc,fid34,none,post,16.948,24.425,12.68,39.364,73.407,42.183,37.01,71.269,36.642,16.948,24.425,12.68
mc_post_fid34_p1_KAR300TI_largeMale_none_charlotte_INT.csv,98,KAR300TI,p1,mc,fid34,none,post,17.548,24.489,12.278,42.98,68.649,46.396,28.533,69.84,43.579,17.548,24.489,12.278
mc_post_fid34_p1_KUE_largeMale_none_charlotte_INT.csv,92,KUE,p1,mc,fid34,none,post,17.118,24.591,12.314,43.298,72.604,42.981,33.539,72.206,35.073,17.118,24.591,12.314
mc_post_fid34_p1_lacy_largeMale_none_charlotte_INT.csv,72,lacy,p1,mc,fid34,none,post,16.916,24.392,12.376,31.63,74.291,43.753,35.95,72.246,41.764,16.916,24.392,12.376
mc_post_fid34_p2_JEW_largeMale_left_charlotte_INT.csv,25,JEW,p2,mc,fid34,left,post,0.023,13.296,1.818,7.741,6.671,10.778,9.003,250.15,15.484,0.023,13.296,1.818
mc_post_fid34_p2_KALARIA_largeMale_left_charlotte_INT.csv,27,KALARIA,p2,mc,fid34,left,post,8.269,13.072,2.396,7.442,6.669,10.688,9.871,249.827,15.48,8.269,13.072,2.396
mc_post_fid34_p2_KUE_largeMale_left_charlotte_INT.csv,32,KUE,p2,mc,fid34,left,post,0.297,13.11,2.429,11.242,6.138,10.841,6.91,253.482,11.02,0.297,13.11,2.429
mc_post_fid34_p2_lacy_largeMale_left_charlotte_INT.csv,25,lacy,p2,mc,fid34,left,post,0.023,12.91,3.029,7.247,6.14,11.508,8.619,253.358,12.512,0.023,12.91,3.029
mc_post_fid34_p2_largeMale_left_charlotte_INT.csv,47,largeMale,p2,mc,fid34,charlotte,post,0.893,12.972,2.029,10.751,6.676,12.378,5.868,235.094,28.594,0.893,12.972,2.029
mc_post_fid34_p3_JEW_largeMale_right_charlotte_INT.csv,3,JEW,p3,mc,fid34,right,post,0,0.023,0,0,0,0,0,298.108,1.869,300,0.023,300
mc_post_fid34_p3_KALARIA_largeMale_right_charlotte_INT.csv,7,KALARIA,p3,mc,fid34,right,post,0,0.222,0,0,0,0,0,291.502,8.276,300,0.222,300
mc_post_fid34_p3_KAR300TI_largeMale_right_charlotte_INT.csv,25,KAR300TI,p3,mc,fid34,right,post,0,0.508,0,0,0,0,0,277.736,21.756,300,0.508,300
mc_post_fid34_p3_KUE_largeMale_right_charlotte_INT.csv,7,KUE,p3,mc,fid34,right,post,0,0.08,0,0,0,0,0,292.044,7.876,300,0.08,300
mc_post_fid34_p3_lacy_largeMale_right_charlotte_INT.csv,1,lacy,p3,mc,fid34,right,post,0,0.776,0,0,0,0,0,299.13,0,300,0.776,300
mc_post_fid35_p1_JEW_largeMale_none_beatrice_INT.csv,17,JEW,p1,mc,fid35,none,post,0.023,65.803,0,4.272,0,14.347,32.748,229.865,18.652,0.023,65.803,300
mc_post_fid35_p1_KALARIA_largeMale_none_beatrice_INT.csv,22,KALARIA,p1,mc,fid35,none,post,6.092,65.782,0,5.869,0,13.878,22.697,225.945,27.656,6.092,65.782,300
mc_post_fid35_p1_KAR300TI_largeMale_none_beatrice_INT.csv,24,KAR300TI,p1,mc,fid35,none,post,0.249,65.113,0,9.475,0,13.883,26.292,221.251,28.589,0.249,65.113,300
mc_post_fid35_p1_KUE_largeMale_none_beatrice_INT.csv,26,KUE,p1,mc,fid35,none,post,0.65,65.781,0,7.207,0,14.143,28.036,225.824,24.121,0.65,65.781,300
mc_post_fid35_p1_lacy_largeMale_none_beatrice_INT.csv,18,lacy,p1,mc,fid35,none,post,0.783,65.618,0,7.212,0,14.684,27.321,230.318,19.45,0.783,65.618,300
mc_post_fid35_p2_JEW_largeMale_right_beatrice_INT.csv,14,JEW,p2,mc,fid35,right,post,95.639,0.023,116.493,37.838,129.391,17.28,16.148,86.672,12.648,95.639,0.023,116.493
mc_post_fid35_p2_KALARIA_largeMale_right_beatrice_INT.csv,18,KALARIA,p2,mc,fid35,right,post,93.95,0.788,117.17,12.553,128.623,15.741,46.975,73.142,22.153,93.95,0.788,117.17
mc_post_fid35_p2_KAR300TI_largeMale_right_beatrice_INT.csv,25,KAR300TI,p2,mc,fid35,right,post,94.649,1.054,116.209,30.395,128.291,16.891,26.621,79.715,16.82,94.649,1.054,116.209
mc_post_fid35_p2_KUE_largeMale_right_beatrice_INT.csv,23,KUE,p2,mc,fid35,right,post,94.15,0.135,116.775,28.368,128.608,18.551,24.719,85.671,13.948,94.15,0.135,116.775
mc_post_fid35_p2_lacy_largeMale_right_beatrice_INT.csv,12,lacy,p2,mc,fid35,right,post,96.087,0.79,116.806,39.143,129.898,14.854,16.111,86.083,12.848,96.087,0.79,116.806
mc_post_fid35_p3_JEW_largeMale_left_beatrice_INT.csv,29,JEW,p3,mc,fid35,left,post,0,18.882,0.023,26.664,172.619,38.932,0,31.126,30.636,300,18.882,0.023
mc_post_fid35_p3_KALARIA_largeMale_left_beatrice_INT.csv,33,KALARIA,p3,mc,fid35,left,post,0,19.63,0.412,32.3,170.856,38.709,0,28.293,29.43,300,19.63,0.412
mc_post_fid35_p3_KAR300TI_largeMale_left_beatrice_INT.csv,37,KAR300TI,p3,mc,fid35,left,post,0,18.261,0.099,26.459,171.78,37.845,0,34.726,28.639,300,18.261,0.099
mc_post_fid35_p3_KUE_largeMale_left_beatrice_INT.csv,33,KUE,p3,mc,fid35,left,post,129.675,18.463,0.029,28.571,171.673,38.435,0.534,29.628,31.13,129.675,18.463,0.029
mc_post_fid35_p3_lacy_largeMale_left_beatrice_INT.csv,31,lacy,p3,mc,fid35,left,post,0,18.664,0.775,26.191,173.309,37.623,0,31.702,30.4,300,18.664,0.775
mc_post_fid36_p1_JEW_largeMale_none_bethany_LS.csv,34,JEW,p1,mc,fid36,none,post,129.079,6.855,35.116,22.119,9.412,19.884,2.1,211.5,34.962,129.079,6.855,35.116
mc_post_fid36_p1_KALARIA_largeMale_none_bethany_LS.csv,42,KALARIA,p1,mc,fid36,none,post,0.123,7.334,34.828,18.151,8.541,20.02,7.479,207.235,38.451,0.123,7.334,34.828
mc_post_fid36_p1_KAR300TI_largeMale_none_bethany_LS.csv,44,KAR300TI,p1,mc,fid36,none,post,1.397,6.732,33.895,24.888,10.413,17.653,1.067,192.64,53.282,1.397,6.732,33.895
mc_post_fid36_p1_KUE_largeMale_none_bethany_LS.csv,39,KUE,p1,mc,fid36,none,post,2.594,6.603,34.894,22.682,8.273,19.225,4.812,210.189,34.63,2.594,6.603,34.894
mc_post_fid36_p1_lacy_largeMale_none_bethany_LS.csv,31,lacy,p1,mc,fid36,none,post,0,7.167,33.859,22.56,9.344,20.052,0,216.731,30.82,300,7.167,33.859
mc_post_fid36_p2_JEW_largeMale_left_bethany_LS.csv,17,JEW,p2,mc,fid36,left,post,0,1.621,40.127,16.188,160.632,19.35,0,85.019,17.18,300,1.621,40.127
mc_post_fid36_p2_KALARIA_largeMale_left_bethany_LS.csv,19,KALARIA,p2,mc,fid36,left,post,126.592,2.2,134.602,11.741,158.726,21.889,4.541,83.816,17.087,126.592,2.2,134.602
mc_post_fid36_p2_KAR300TI_largeMale_left_bethany_LS.csv,41,KAR300TI,p2,mc,fid36,left,post,0,0.264,134.198,16.11,147.225,32.992,0,73.486,29.923,300,0.264,134.198
mc_post_fid36_p2_KUE_largeMale_left_bethany_LS.csv,27,KUE,p2,mc,fid36,left,post,128.127,0.088,39.971,15.677,159.955,19.521,2.634,81.858,20.267,128.127,0.088,39.971
mc_post_fid36_p2_lacy_largeMale_left_bethany_LS.csv,13,lacy,p2,mc,fid36,left,post,0,0.233,134.57,16.081,160.647,19.493,0,86.756,16.616,300,0.233,134.57
mc_post_fid36_p3_JEW_largeMale_right_bethany_LS.csv,65,JEW,p3,mc,fid36,right,post,0.023,4.644,88.863,49.876,17.882,31.868,60.413,71.549,68.389,0.023,4.644,88.863
mc_post_fid36_p3_KALARIA_largeMale_right_bethany_LS.csv,68,KALARIA,p3,mc,fid36,right,post,0.127,4.656,88.94,45.103,18.986,26.702,76.261,69.683,63.138,0.127,4.656,88.94
mc_post_fid36_p3_KAR300TI_largeMale_right_bethany_LS.csv,89,KAR300TI,p3,mc,fid36,right,post,0.242,4.256,88.672,60.782,13.547,37.37,56.997,75.406,55.656,0.242,4.256,88.672
mc_post_fid36_p3_KUE_largeMale_right_bethany_LS.csv,88,KUE,p3,mc,fid36,right,post,0.518,4.26,88.61,52.606,16.282,29.891,70.194,73.109,57.4,0.518,4.26,88.61
mc_post_fid36_p3_lacy_largeMale_right_bethany_LS.csv,61,lacy,p3,mc,fid36,right,post,14.503,4.525,89.043,56.383,17.649,30.702,56.024,72.344,66.647,14.503,4.525,89.043
mc_post_fid37_p1_JEW_largeMale_none_bianca_LL.csv,12,JEW,p1,mc,fid37,none,post,1.841,48.354,61.969,2.405,228.161,16.019,16.012,3.208,22.484,1.841,48.354,61.969
mc_post_fid37_p1_KALARIA_largeMale_none_bianca_LL.csv,11,KALARIA,p1,mc,fid37,none,post,6.795,48.165,61.249,2.402,228.655,15.479,11.475,4.541,20.557,6.795,48.165,61.249
mc_post_fid37_p1_KAR300TI_largeMale_none_bianca_LL.csv,28,KAR300TI,p1,mc,fid37,none,post,0.521,47.867,31.381,5.94,226.682,17.254,14.718,3.601,21.258,0.521,47.867,31.381
mc_post_fid37_p1_KUE_largeMale_none_bianca_LL.csv,20,KUE,p1,mc,fid37,none,post,0.618,43.697,33.186,4.804,230.124,12.81,15.221,5.336,20.925,0.618,43.697,33.186
mc_post_fid37_p1_lacy_largeMale_none_bianca_LL.csv,15,lacy,p1,mc,fid37,none,post,0.784,44.032,32.818,2.136,231.355,12.808,16.82,5.601,20.295,0.784,44.032,32.818
mc_post_fid37_p2_JEW_largeMale_right_bianca_LL.csv,11,JEW,p2,mc,fid37,right,post,148.348,151.482,0.023,4.706,143.687,9.842,2.068,128.566,11.108,148.348,151.482,0.023
mc_post_fid37_p2_KALARIA_largeMale_right_bianca_LL.csv,15,KALARIA,p2,mc,fid37,right,post,148.26,155.198,0.375,4.808,142.813,9.608,2.138,124.245,16.013,148.26,155.198,0.375
mc_post_fid37_p2_KAR300TI_largeMale_right_bianca_LL.csv,33,KAR300TI,p2,mc,fid37,right,post,0,150.359,0.242,6.905,131.71,20.711,0,129.314,10.883,300,150.359,0.242
mc_post_fid37_p2_KUE_largeMale_right_bianca_LL.csv,11,KUE,p2,mc,fid37,right,post,0,154.835,0.023,6.173,144.5,9.341,0,126.348,13.449,300,154.835,0.023
mc_post_fid37_p2_lacy_largeMale_right_bianca_LL.csv,11,lacy,p2,mc,fid37,right,post,0,152.195,0.779,6.13,143.742,9.985,0,129.932,9.217,300,152.195,0.779
mc_post_fid37_p3_JEW_largeMale_left_bianca_LL.csv,1,JEW,p3,mc,fid37,left,post,0,0.023,0,0,0,0,0,299.977,0,300,0.023,300
mc_post_fid37_p3_KALARIA_largeMale_left_bianca_LL.csv,1,KALARIA,p3,mc,fid37,left,post,0,0.145,0,0,0,0,0,299.855,0,300,0.145,300
mc_post_fid37_p3_KAR300TI_largeMale_left_bianca_LL.csv,9,KAR300TI,p3,mc,fid37,left,post,0,0.023,0,0,0,0,0,294.861,4.875,300,0.023,300
mc_post_fid37_p3_KUE_largeMale_left_bianca_LL.csv,1,KUE,p3,mc,fid37,left,post,0,0.099,0,0,0,0,0,299.868,0,300,0.099,300
mc_post_fid37_p3_lacy_largeMale_left_bianca_LL.csv,1,lacy,p3,mc,fid37,left,post,0,0,0,0,0,0,0,299.778,0,300,0,300
mc_post_fid38_p1_JEW_largeMale_none_audrey_FF.csv,25,JEW,p1,mc,fid38,none,post,0.343,29.273,11.523,11.009,45.645,22.19,21.327,186.513,12.973,0.343,29.273,11.523
mc_post_fid38_p1_KALARIA_largeMale_none_audrey_FF.csv,28,KALARIA,p1,mc,fid38,none,post,4.558,28.853,11.232,9.346,44.048,25.365,18.683,184.07,13.876,4.558,28.853,11.232
mc_post_fid38_p1_KAR300TI_largeMale_none_audrey_FF.csv,60,KAR300TI,p1,mc,fid38,none,post,0.788,29.416,10.931,20.226,38.701,24.862,18.352,163.412,33.104,0.788,29.416,10.931
mc_post_fid38_p1_KUE_largeMale_none_audrey_FF.csv,34,KUE,p1,mc,fid38,none,post,0.791,28.815,10.934,13.508,43.176,25.593,19.485,183.173,14.274,0.791,28.815,10.934
mc_post_fid38_p1_lacy_largeMale_none_audrey_FF.csv,34,lacy,p1,mc,fid38,none,post,0.254,28.817,10.932,11.121,45.038,24.201,21.082,176.011,22.056,0.254,28.817,10.932
mc_post_fid38_p2_JEW_largeMale_left_audrey_FF.csv,1,JEW,p2,mc,fid38,left,post,0,0.34,0,0,0,0,0,299.66,0,300,0.34,300
mc_post_fid38_p2_KALARIA_largeMale_left_audrey_FF.csv,1,KALARIA,p2,mc,fid38,left,post,0,0.355,0,0,0,0,0,299.645,0,300,0.355,300
mc_post_fid38_p2_KAR300TI_largeMale_left_audrey_FF.csv,27,KAR300TI,p2,mc,fid38,left,post,0,0.023,0,0,0,0,0,292.818,6.912,300,0.023,300
mc_post_fid38_p2_KUE_largeMale_left_audrey_FF.csv,1,KUE,p2,mc,fid38,left,post,0,0.058,0,0,0,0,0,299.942,0,300,0.058,300
mc_post_fid38_p2_lacy_largeMale_left_audrey_FF.csv,1,lacy,p2,mc,fid38,left,post,0,0.023,0,0,0,0,0,299.691,0,300,0.023,300
mc_post_fid38_p3_Rotholz_largeMale_right_audrey_FF.csv,2,Rotholz,p3,mc,fid38,right,post,0,4.668,0,0,0,0,0,295.181,1.201,300,4.668,300
mc_post_fid38_p3_SANCHEZ_largeMale_right_audrey_FF.csv,5,SANCHEZ,p3,mc,fid38,right,post,0,4.347,1.076,0.667,0,0.835,0,295.597,1.769,300,4.347,1.076
mc_post_fid38_p3_VASQUEZ_largeMale_right_audrey_FF.csv,4,VASQUEZ,p3,mc,fid38,right,post,0,4.102,0,1.201,0,0.734,0,295.161,1.802,300,4.102,300
mc_post_fid38_p3_Waindim_largeMale_right_audrey_FF.csv,4,Waindim,p3,mc,fid38,right,post,0,4.135,0,1.603,0,0.799,0,295.865,1.334,300,4.135,300
mc_post_fid4_p1_ADAMS_largeMale_none_beyonce_FF.csv,41,ADAMS,p1,mc,fid4,none,post,58.698,84.858,25.865,15.383,40.308,62.73,23.655,104.111,53.742,58.698,84.858,25.865
mc_post_fid4_p1_BALLARD_largeMale_none_beyonce_FF.csv,37,BALLARD,p1,mc,fid4,none,post,58.598,84.495,25.231,18.236,46.715,56.852,20.553,109.169,48.414,58.598,84.495,25.231
mc_post_fid4_p1_BAO_largeMale_none_beyonce_FF.csv,48,BAO,p1,mc,fid4,none,post,58.567,84.861,25.467,17.744,40.574,61.668,22.691,103.238,53.713,58.567,84.861,25.467
mc_post_fid4_p1_cornish_largeMale_none_beyonce_FF.csv,28,cornish,p1,mc,fid4,none,post,61.277,85.101,25.041,13.974,55.39,42.912,23.229,125.811,35.297,61.277,85.101,25.041
mc_post_fid4_p1_CUI_largeMale_none_beyonce_FF.csv,27,CUI,p1,mc,fid4,none,post,207.08,84.824,26.099,25.633,48.051,56.056,10.142,126.59,31.186,207.08,84.824,26.099
mc_post_fid4_p2_ADAMS_largeMale_left_beyonce_FF.csv,69,ADAMS,p2,mc,fid4,left,post,156.4,0.023,5.683,8.248,95.3,92.083,44.271,25.102,34.973,156.4,0.023,5.683
mc_post_fid4_p2_BALLARD_largeMale_left_beyonce_FF.csv,70,BALLARD,p2,mc,fid4,left,post,165.708,221.231,5.882,13.074,107.036,85.898,33.566,25.094,35.117,165.708,221.231,5.882
mc_post_fid4_p2_BAO_largeMale_left_beyonce_FF.csv,73,BAO,p2,mc,fid4,left,post,163.909,221.198,5.816,9.343,97.429,93.594,38.029,22.162,38.966,163.909,221.198,5.816
mc_post_fid4_p2_cornish_largeMale_left_beyonce_FF.csv,41,cornish,p2,mc,fid4,left,post,164.688,221.542,6.261,5.141,140.81,55.783,34.589,34.437,26.156,164.688,221.542,6.261
mc_post_fid4_p2_CUI_largeMale_left_beyonce_FF.csv,48,CUI,p2,mc,fid4,left,post,192.239,221.1,5.753,14.954,126.381,69.778,27.35,21.898,37.356,192.239,221.1,5.753
mc_post_fid4_p3_ADAMS_largeMale_right_beyonce_FF.csv,19,ADAMS,p3,mc,fid4,right,post,1.052,0,22.826,1.868,254.119,24.57,18.303,0,0,1.052,300,22.826
mc_post_fid4_p3_BALLARD_largeMale_right_beyonce_FF.csv,16,BALLARD,p3,mc,fid4,right,post,0.772,0,22.66,1.068,258.819,21.094,18.151,0,0,0.772,300,22.66
mc_post_fid4_p3_BAO_largeMale_right_beyonce_FF.csv,18,BAO,p3,mc,fid4,right,post,0.251,0,22.529,2.403,253.448,25.36,18.538,0,0,0.251,300,22.529
mc_post_fid4_p3_cornish_largeMale_right_beyonce_FF.csv,7,cornish,p3,mc,fid4,right,post,1.182,0,23.306,1.033,270.99,6.005,20.59,0,0,1.182,300,23.306
mc_post_fid4_p3_CUI_largeMale_right_beyonce_FF.csv,10,CUI,p3,mc,fid4,right,post,1.406,0,22.496,1.863,264.428,15.75,16.553,0,0,1.406,300,22.496
mc_post_fid5_p1_ADAMS_largeMale_none_abigail_LL.csv,37,ADAMS,p1,mc,fid5,none,post,0.768,99.164,71.439,12.813,9.338,18.421,92.657,141.411,24.592,0.768,99.164,71.439
mc_post_fid5_p1_BALLARD_largeMale_none_abigail_LL.csv,44,BALLARD,p1,mc,fid5,none,post,2.233,99.13,71.368,13.612,10.411,18.152,90.058,138.839,26.695,2.233,99.13,71.368
mc_post_fid5_p1_BAO_largeMale_none_abigail_LL.csv,43,BAO,p1,mc,fid5,none,post,1.261,98.496,71.536,8.54,9.608,18.418,96.207,141.692,24.274,1.261,98.496,71.536
mc_post_fid5_p1_cornish_largeMale_none_abigail_LL.csv,23,cornish,p1,mc,fid5,none,post,6.086,99.141,72.352,2.035,9.869,19.595,98.064,149.381,14.97,6.086,99.141,72.352
mc_post_fid5_p1_CUI_largeMale_none_abigail_LL.csv,23,CUI,p1,mc,fid5,none,post,53.485,98.9,71.904,2.136,9.112,20.015,49.653,148.787,16.812,53.485,98.9,71.904
mc_post_fid5_p2_ADAMS_largeMale_right_abigail_LL.csv,35,ADAMS,p2,mc,fid5,right,post,0,1.081,29.394,5.069,13.979,20.822,0,215.198,43.786,300,1.081,29.394
mc_post_fid5_p2_BALLARD_largeMale_right_abigail_LL.csv,37,BALLARD,p2,mc,fid5,right,post,0,0.055,29.662,4.27,14.682,20.554,0,214.395,46.711,300,0.055,29.662
mc_post_fid5_p2_BAO_largeMale_right_abigail_LL.csv,37,BAO,p2,mc,fid5,right,post,0,1.263,29.558,5.074,14.713,20.052,0,213.251,45.647,300,1.263,29.558
mc_post_fid5_p2_cornish_largeMale_right_abigail_LL.csv,39,cornish,p2,mc,fid5,right,post,162.987,222.848,5.993,2.672,155.63,43.859,36.017,42.969,18.605,162.987,222.848,5.993
mc_post_fid5_p2_CUI_largeMale_right_abigail_LL.csv,23,CUI,p2,mc,fid5,right,post,0,2.164,29.629,3.204,16.817,20.018,0,224.698,33.099,300,2.164,29.629
mc_post_fid5_p3_ADAMS_largeMale_left_abigail_LL.csv,14,ADAMS,p3,mc,fid5,left,post,149.363,0.023,0,6.404,0,0,11.213,270.193,11.747,149.363,0.023,300
mc_post_fid5_p3_BALLARD_largeMale_left_abigail_LL.csv,14,BALLARD,p3,mc,fid5,left,post,149.797,0.036,0,6.673,0,0,10.944,270.781,10.946,149.797,0.036,300
mc_post_fid5_p3_BAO_largeMale_left_abigail_LL.csv,14,BAO,p3,mc,fid5,left,post,149.598,0.122,0,6.941,0,0,11.244,268.9,12.28,149.598,0.122,300
mc_post_fid5_p3_cornish_largeMale_left_abigail_LL.csv,11,cornish,p3,mc,fid5,left,post,150.644,5.031,0,8.239,0,0,9.411,270.418,6.179,150.644,5.031,300
mc_post_fid5_p3_CUI_largeMale_left_abigail_LL.csv,6,CUI,p3,mc,fid5,left,post,149.531,4.222,0,5.6,0,0,10.949,275.486,3.743,149.531,4.222,300
mc_post_fid6_p1_ADAMS_largeMale_none_beth_SS.csv,58,ADAMS,p1,mc,fid6,none,post,4.844,44.351,11.253,10.941,120.223,53.923,29.895,38.704,45.117,4.844,44.351,11.253
mc_post_fid6_p1_BALLARD_largeMale_none_beth_SS.csv,53,BALLARD,p1,mc,fid6,none,post,4.868,0.023,11.275,11.481,127.23,46.446,29.896,45.95,38.974,4.868,0.023,11.275
mc_post_fid6_p1_BAO_largeMale_none_beth_SS.csv,69,BAO,p1,mc,fid6,none,post,5.245,0.71,11.383,17.546,119.021,52.984,26.184,38.969,44.586,5.245,0.71,11.383
mc_post_fid6_p1_cornish_largeMale_none_beth_SS.csv,41,cornish,p1,mc,fid6,none,post,5.989,3.053,11.861,12.552,140.791,30.962,32.829,47.783,32.03,5.989,3.053,11.861
mc_post_fid6_p1_CUI_largeMale_none_beth_SS.csv,37,CUI,p1,mc,fid6,none,post,5.611,2.142,11.252,12.542,138.796,36.243,28.336,50.984,30.957,5.611,2.142,11.252
mc_post_fid6_p2_ADAMS_largeMale_right_beth_SS.csv,16,ADAMS,p2,mc,fid6,right,post,0,0,11.454,0,278.578,12.814,0,0,0,300,300,11.454
mc_post_fid6_p2_BALLARD_largeMale_right_beth_SS.csv,19,BALLARD,p2,mc,fid6,right,post,0,0,0.641,0,286.816,12.543,0,0,0,300,300,0.641
mc_post_fid6_p2_BAO_largeMale_right_beth_SS.csv,19,BAO,p2,mc,fid6,right,post,0,0,0.023,0,285.568,14.409,0,0,0,300,300,0.023
mc_post_fid6_p2_cornish_largeMale_right_beth_SS.csv,1,cornish,p2,mc,fid6,right,post,0,0,0.452,0,299.505,0,0,0,0,300,300,0.452
mc_post_fid6_p2_CUI_largeMale_right_beth_SS.csv,1,CUI,p2,mc,fid6,right,post,0,0,2.38,0,297.555,0,0,0,0,300,300,2.38
mc_post_fid6_p3_ADAMS_largeMale_left_beth_SS.csv,6,ADAMS,p3,mc,fid6,left,post,0,0,183.154,0,113.28,6.679,0,0,0,300,300,183.154
mc_post_fid6_p3_BALLARD_largeMale_left_beth_SS.csv,7,BALLARD,p3,mc,fid6,left,post,0,0,0.048,0,296.157,3.737,0,0,0,300,300,0.048
mc_post_fid6_p3_BAO_largeMale_left_beth_SS.csv,7,BAO,p3,mc,fid6,left,post,0,0,0.075,0,295.654,4.271,0,0,0,300,300,0.075
mc_post_fid6_p3_cornish_largeMale_left_beth_SS.csv,1,cornish,p3,mc,fid6,left,post,0,0,2.248,0,297.752,0,0,0,0,300,300,2.248
mc_post_fid6_p3_CUI_largeMale_left_beth_SS.csv,1,CUI,p3,mc,fid6,left,post,0,0,0.872,0,299.128,0,0,0,0,300,300,0.872
mc_post_fid7_p1_ADAMS_largeMale_none_bella_SS.csv,30,ADAMS,p1,mc,fid7,none,post,222.632,0.023,206.882,4.808,47.915,18.423,18.952,142.962,66.832,222.632,0.023,206.882
mc_post_fid7_p1_BALLARD_largeMale_none_bella_SS.csv,27,BALLARD,p1,mc,fid7,none,post,221.895,0.475,206.948,4.005,49.542,16.549,20.822,191.254,17.353,221.895,0.475,206.948
mc_post_fid7_p1_BAO_largeMale_none_bella_SS.csv,34,BAO,p1,mc,fid7,none,post,222.866,2.342,206.851,5.607,48.485,17.35,18.684,188.688,18.755,222.866,2.342,206.851
mc_post_fid7_p1_cornish_largeMale_none_bella_SS.csv,13,cornish,p1,mc,fid7,none,post,222.842,2.086,207.892,4.273,53.88,10.943,21.089,198.07,9.601,222.842,2.086,207.892
mc_post_fid7_p1_CUI_largeMale_none_bella_SS.csv,15,CUI,p1,mc,fid7,none,post,222.832,4.913,207.082,4.809,50.747,15.476,19.218,192.828,12.009,222.832,4.913,207.082
mc_post_fid7_p2_ADAMS_largeMale_right_bella_SS.csv,39,ADAMS,p2,mc,fid7,right,post,123.17,126.869,0.824,10.041,125.537,69.684,42.932,13.61,37.372,123.17,126.869,0.824
mc_post_fid7_p2_BALLARD_largeMale_right_bella_SS.csv,35,BALLARD,p2,mc,fid7,right,post,122.895,127.032,1.44,9.781,128.396,65.664,44.846,16.016,33.768,122.895,127.032,1.44
mc_post_fid7_p2_BAO_largeMale_right_bella_SS.csv,43,BAO,p2,mc,fid7,right,post,123.202,127.233,1.543,10.02,124.401,69.092,44.603,13.078,37.172,123.202,127.233,1.543
mc_post_fid7_p2_cornish_largeMale_right_bella_SS.csv,31,cornish,p2,mc,fid7,right,post,122.901,127.444,1.552,9.153,135.199,58.513,46.459,16.816,32.308,122.901,127.444,1.552
mc_post_fid7_p2_CUI_largeMale_right_bella_SS.csv,31,CUI,p2,mc,fid7,right,post,123.765,127.77,4.08,9.345,128.926,62.996,40.308,20.02,34.325,123.765,127.77,4.08
mc_post_fid7_p3_ADAMS_largeMale_left_bella_SS.csv,40,ADAMS,p3,mc,fid7,left,post,0.023,231.777,5.153,6.141,213.798,46.561,19.548,3.203,8.542,0.023,231.777,5.153
mc_post_fid7_p3_BALLARD_largeMale_left_bella_SS.csv,42,BALLARD,p3,mc,fid7,left,post,0.912,231.809,5.45,6.139,213.016,46.345,19.485,3.203,8.81,0.912,231.809,5.45
mc_post_fid7_p3_BAO_largeMale_left_bella_SS.csv,49,BAO,p3,mc,fid7,left,post,0.48,231.745,5.15,9.071,211.453,47.348,17.819,2.938,8.808,0.48,231.745,5.15
mc_post_fid7_p3_cornish_largeMale_left_bella_SS.csv,23,cornish,p3,mc,fid7,left,post,2.36,232.456,4.761,4.005,236.192,23.101,19.648,4.272,8.276,2.36,232.456,4.761
mc_post_fid7_p3_CUI_largeMale_left_bella_SS.csv,28,CUI,p3,mc,fid7,left,post,1.915,231.976,5.118,5.606,230.469,29.893,17.889,3.471,8.573,1.915,231.976,5.118
mc_post_fid8_p1_ADAMS_largeMale_none_blossom_INT.csv,43,ADAMS,p1,mc,fid8,none,post,0.023,37.706,94.865,38.879,15.205,76.329,94.837,8.809,65.918,0.023,37.706,94.865
mc_post_fid8_p1_BALLARD_largeMale_none_blossom_INT.csv,47,BALLARD,p1,mc,fid8,none,post,0.769,37.072,94.996,50.015,15.481,76.612,80.081,9.874,67.071,0.769,37.072,94.996
mc_post_fid8_p1_BAO_largeMale_none_blossom_INT.csv,51,BAO,p1,mc,fid8,none,post,0.023,38.676,94.997,57.79,14.95,75.807,76.249,8.007,67.078,0.023,38.676,94.997
mc_post_fid8_p1_cornish_largeMale_none_blossom_INT.csv,42,cornish,p1,mc,fid8,none,post,4.349,37.718,95.11,42.726,14.713,81.531,84.027,10.007,62.463,4.349,37.718,95.11
mc_post_fid8_p1_CUI_largeMale_none_blossom_INT.csv,42,CUI,p1,mc,fid8,none,post,8.582,37.405,95.064,31.889,13.614,89.413,78.198,10.677,67.535,8.582,37.405,95.064
mc_post_fid8_p2_ADAMS_largeMale_right_blossom_INT.csv,34,ADAMS,p2,mc,fid8,right,post,36.838,276.279,6.94,20.95,115.849,69.403,58.455,20.951,13.347,36.838,276.279,6.94
mc_post_fid8_p2_BALLARD_largeMale_right_blossom_INT.csv,37,BALLARD,p2,mc,fid8,right,post,37.07,276.444,7.175,25.837,114.715,68.335,56.324,20.085,14.681,37.07,276.444,7.175
mc_post_fid8_p2_BAO_largeMale_right_blossom_INT.csv,41,BAO,p2,mc,fid8,right,post,36.938,276.41,7.043,26.478,112.899,69.42,56.594,20.655,13.913,36.938,276.41,7.043
mc_post_fid8_p2_cornish_largeMale_right_blossom_INT.csv,26,cornish,p2,mc,fid8,right,post,42.224,277.193,3.953,27.439,131.669,48.403,53.747,22.725,13.551,42.224,277.193,3.953
mc_post_fid8_p2_CUI_largeMale_right_blossom_INT.csv,27,CUI,p2,mc,fid8,right,post,37.272,276.879,7.375,19.482,134.961,51.267,57.119,23.121,12.015,37.272,276.879,7.375
mc_post_fid8_p3_ADAMS_largeMale_left_blossom_INT.csv,3,ADAMS,p3,mc,fid8,left,post,0,0.113,0,0,0,0,0,299.019,0.801,300,0.113,300
mc_post_fid8_p3_BALLARD_largeMale_left_blossom_INT.csv,1,BALLARD,p3,mc,fid8,left,post,0,1.568,0,0,0,0,0,298.432,0,300,1.568,300
mc_post_fid8_p3_BAO_largeMale_left_blossom_INT.csv,3,BAO,p3,mc,fid8,left,post,0,0.152,0,0,0,0,0,298.246,1.602,300,0.152,300
mc_post_fid8_p3_cornish_largeMale_left_blossom_INT.csv,1,cornish,p3,mc,fid8,left,post,0,2.279,0,0,0,0,0,297.721,0,300,2.279,300
mc_post_fid8_p3_CUI_largeMale_left_blossom_INT.csv,1,CUI,p3,mc,fid8,left,post,0,1.436,0,0,0,0,0,298.564,0,300,1.436,300
mc_post_fid9_p1_ADAMS_largeMale_none_catalina_LS.csv,29,ADAMS,p1,mc,fid9,none,post,28.347,116.067,48.633,42.738,11.327,24.293,162.26,39.607,19.752,28.347,116.067,48.633
mc_post_fid9_p1_BALLARD_largeMale_none_catalina_LS.csv,29,BALLARD,p1,mc,fid9,none,post,28.445,116.266,48.732,44.475,12.362,24.56,159.361,39.775,18.949,28.445,116.266,48.732
mc_post_fid9_p1_BAO_largeMale_none_catalina_LS.csv,40,BAO,p1,mc,fid9,none,post,28.779,116.267,48.938,51.443,11.16,22.993,154.617,39.01,19.754,28.779,116.267,48.938
mc_post_fid9_p1_cornish_largeMale_none_catalina_LS.csv,28,cornish,p1,mc,fid9,none,post,29.659,117.948,49.946,43.543,11.412,17.961,165.202,42.195,18.992,29.659,117.948,49.946
mc_post_fid9_p1_CUI_largeMale_none_catalina_LS.csv,29,CUI,p1,mc,fid9,none,post,29.517,116.873,49.033,45.879,12.694,28.294,153.987,40.034,16.826,29.517,116.873,49.033
mc_post_fid9_p2_ADAMS_largeMale_left_catalina_LS.csv,25,ADAMS,p2,mc,fid9,left,post,19.425,23.996,0.023,5.337,4.721,22.96,171.07,30.695,64.866,19.425,23.996,0.023
mc_post_fid9_p2_BALLARD_largeMale_left_catalina_LS.csv,26,BALLARD,p2,mc,fid9,left,post,57.498,23.597,0.114,9.345,5.332,22.154,169.134,32.832,60.562,57.498,23.597,0.114
mc_post_fid9_p2_BAO_largeMale_left_catalina_LS.csv,34,BAO,p2,mc,fid9,left,post,57.933,23.768,0.506,13.383,3.473,23.49,165.47,30.695,62.461,57.933,23.768,0.506
mc_post_fid9_p2_cornish_largeMale_left_catalina_LS.csv,21,cornish,p2,mc,fid9,left,post,20.308,24.112,1.819,2.536,5.808,22.824,172.266,47.773,46.646,20.308,24.112,1.819
mc_post_fid9_p2_CUI_largeMale_left_catalina_LS.csv,18,CUI,p2,mc,fid9,left,post,58.164,23.731,0,5.602,0,22.755,169.507,29.635,66.185,58.164,23.731,300
mc_post_fid9_p3_ADAMS_largeMale_right_catalina_LS.csv,23,ADAMS,p3,mc,fid9,right,post,0.967,134.496,89.718,16.82,97.002,8.275,97.389,68.334,11.213,0.967,134.496,89.718
mc_post_fid9_p3_BALLARD_largeMale_right_catalina_LS.csv,24,BALLARD,p3,mc,fid9,right,post,0.962,134.429,89.585,16.28,97.201,8.01,97.433,69.169,10.945,0.962,134.429,89.585
mc_post_fid9_p3_BAO_largeMale_right_catalina_LS.csv,28,BAO,p3,mc,fid9,right,post,0.997,134.597,89.887,17.349,95.232,9.873,96.633,68.159,11.757,0.997,134.597,89.887
mc_post_fid9_p3_cornish_largeMale_right_catalina_LS.csv,18,cornish,p3,mc,fid9,right,post,0.407,135.208,90.531,16.108,97.19,5.177,100.434,72.94,7.744,0.407,135.208,90.531
mc_post_fid9_p3_CUI_largeMale_right_catalina_LS.csv,18,CUI,p3,mc,fid9,right,post,3.432,134.83,90.453,11.478,97.137,7.735,99.307,71.577,9.334,3.432,134.83,90.453
mc_pre_fid1_p1_JEW_largeMale_none_barbie_LL.csv,27,JEW,p1,mc,fid1,none,pre,6.258,37.959,3.856,6.937,169.94,14.415,43.783,52.147,11.411,6.258,37.959,3.856
mc_pre_fid1_p1_KALARIA_largeMale_none_barbie_LL.csv,29,KALARIA,p1,mc,fid1,none,pre,6.04,39.705,3.904,8.01,168.135,17.088,40.878,48.048,16.008,6.04,39.705,3.904
mc_pre_fid1_p1_KAR300TI_largeMale_none_barbie_LL.csv,41,KAR300TI,p1,mc,fid1,none,pre,6.503,38.373,4,15.75,161.576,22.673,32.837,48.344,18.02,6.503,38.373,4
mc_pre_fid1_p1_KUE_largeMale_none_barbie_LL.csv,35,KUE,p1,mc,fid1,none,pre,6.036,39.136,3.902,13.337,167.114,17.63,38.172,47.785,15.745,6.036,39.136,3.902
mc_pre_fid1_p1_lacy_largeMale_none_barbie_LL.csv,28,lacy,p1,mc,fid1,none,pre,6.138,38.238,4.003,9.498,167.87,17.447,39.004,46.32,18.53,6.138,38.238,4.003
mc_pre_fid1_p2_JEW_largeMale_left_barbie_LL.csv,37,JEW,p2,mc,fid1,left,pre,0,155.838,0.023,21.553,207.805,18.382,0,21.777,30.428,300,155.838,0.023
mc_pre_fid1_p2_KALARIA_largeMale_left_barbie_LL.csv,38,KALARIA,p2,mc,fid1,left,pre,246.238,155.75,0.462,25.62,204.407,20.025,0.534,19.618,29.334,246.238,155.75,0.462
mc_pre_fid1_p2_KAR300TI_largeMale_left_barbie_LL.csv,67,KAR300TI,p2,mc,fid1,left,pre,0,155.083,0.023,22.237,191.545,35.758,0,22.483,27.954,300,155.083,0.023
mc_pre_fid1_p2_KUE_largeMale_left_barbie_LL.csv,37,KUE,p2,mc,fid1,left,pre,0,155.518,0.023,24.427,207.917,17.146,0,21.876,28.611,300,155.518,0.023
mc_pre_fid1_p2_lacy_largeMale_left_barbie_LL.csv,33,lacy,p2,mc,fid1,left,pre,0,155.782,0.492,17.653,206.714,22.489,0,21.197,31.455,300,155.782,0.492
mc_pre_fid1_p3_JEW_largeMale_right_barbie_LL.csv,23,JEW,p3,mc,fid1,right,pre,0,0.548,299.949,19.646,0,14.114,0,242.815,22.826,300,0.548,299.949
mc_pre_fid1_p3_KALARIA_largeMale_right_barbie_LL.csv,23,KALARIA,p3,mc,fid1,right,pre,0,0.36,299.842,21.595,0,13.304,0,242.643,21.94,300,0.36,299.842
mc_pre_fid1_p3_KAR300TI_largeMale_right_barbie_LL.csv,67,KAR300TI,p3,mc,fid1,right,pre,0,0.023,299.586,21.575,0,13.634,0,221.4,42.954,300,0.023,299.586
mc_pre_fid1_p3_KUE_largeMale_right_barbie_LL.csv,23,KUE,p3,mc,fid1,right,pre,0,0.066,299.82,19.469,0,12.98,0,246.37,20.935,300,0.066,299.82
mc_pre_fid1_p3_lacy_largeMale_right_barbie_LL.csv,21,lacy,p3,mc,fid1,right,pre,0,0,299.184,19.14,0,12.531,0,249.882,17.631,300,0,299.184
mc_pre_fid10_p1_MAHMOUD_largeMale_none_alyssa_INT.csv,12,MAHMOUD,p1,mc,fid10,none,pre,13.427,3.02,24.91,5.605,3.999,8.813,6.408,259.074,16.078,13.427,3.02,24.91
mc_pre_fid10_p1_MARRONE_largeMale_none_alyssa_INT.csv,16,MARRONE,p1,mc,fid10,none,pre,32.669,3.306,25.196,6.94,4.004,8.274,5.341,256.89,18.507,32.669,3.306,25.196
mc_pre_fid10_p1_MARTINEZ_largeMale_none_alyssa_INT.csv,15,MARTINEZ,p1,mc,fid10,none,pre,34.84,3.874,25.232,6.942,4.268,8.277,3.739,257.154,16.81,34.84,3.874,25.232
mc_pre_fid10_p1_MOORE_largeMale_none_alyssa_INT.csv,18,MOORE,p1,mc,fid10,none,pre,34.348,3.384,25.01,8.278,4.269,8.543,3.47,255.446,19.488,34.348,3.384,25.01
mc_pre_fid10_p2_MAHMOUD_largeMale_right_alyssa_INT.csv,2,MAHMOUD,p2,mc,fid10,right,pre,0,1.551,0,0,0,0,0,298.305,0,300,1.551,300
mc_pre_fid10_p2_MARRONE_largeMale_right_alyssa_INT.csv,3,MARRONE,p2,mc,fid10,right,pre,0,0.904,0,0,0,0,0,298.559,0.537,300,0.904,300
mc_pre_fid10_p2_MARTINEZ_largeMale_right_alyssa_INT.csv,1,MARTINEZ,p2,mc,fid10,right,pre,0,0.16,0,0,0,0,0,299.84,0,300,0.16,300
mc_pre_fid10_p2_MOORE_largeMale_right_alyssa_INT.csv,5,MOORE,p2,mc,fid10,right,pre,0,0.347,0,0,0,0,0,298.32,1.333,300,0.347,300
mc_pre_fid10_p3_MAHMOUD_largeMale_left_alyssa_INT.csv,3,MAHMOUD,p3,mc,fid10,left,pre,0,1.729,0,0,0,0,0,289.063,9.208,300,1.729,300
mc_pre_fid10_p3_MARRONE_largeMale_left_alyssa_INT.csv,3,MARRONE,p3,mc,fid10,left,pre,0,0.028,0,0,0,0,0,292.498,7.474,300,0.028,300
mc_pre_fid10_p3_MARTINEZ_largeMale_left_alyssa_INT.csv,1,MARTINEZ,p3,mc,fid10,left,pre,0,0.052,0,0,0,0,0,299.948,0,300,0.052,300
mc_pre_fid10_p3_MOORE_largeMale_left_alyssa_INT.csv,3,MOORE,p3,mc,fid10,left,pre,0,0.153,0,0,0,0,0,290.771,9.076,300,0.153,300
mc_pre_fid11_p1_MAHMOUD_largeMale_none_bernice_LS.csv,47,MAHMOUD,p1,mc,fid11,none,pre,261.046,19.535,34.217,33.553,145.106,53.467,13.95,26.874,21.577,261.046,19.535,34.217
mc_pre_fid11_p1_MARRONE_largeMale_none_bernice_LS.csv,57,MARRONE,p1,mc,fid11,none,pre,260.7,19.725,35.108,27.121,135.336,61.662,22.823,17.885,34.039,260.7,19.725,35.108
mc_pre_fid11_p1_MARTINEZ_largeMale_none_bernice_LS.csv,52,MARTINEZ,p1,mc,fid11,none,pre,261.334,20.059,35.008,27.264,140.375,57.923,19.487,17.218,36.133,261.334,20.059,35.008
mc_pre_fid11_p1_MOORE_largeMale_none_bernice_LS.csv,67,MOORE,p1,mc,fid11,none,pre,261.143,19.569,35.052,32.941,131.331,58.881,20.206,18.619,37.672,261.143,19.569,35.052
mc_pre_fid11_p2_MAHMOUD_largeMale_left_bernice_LS.csv,42,MAHMOUD,p2,mc,fid11,left,pre,5.154,0.023,11.294,9.876,25.622,21.89,9.081,202.058,30.889,5.154,0.023,11.294
mc_pre_fid11_p2_MARRONE_largeMale_left_bernice_LS.csv,31,MARRONE,p2,mc,fid11,left,pre,4.343,0.342,11.283,7.737,24.289,23.759,12.547,201.692,29.634,4.343,0.342,11.283
mc_pre_fid11_p2_MARTINEZ_largeMale_left_bernice_LS.csv,33,MARTINEZ,p2,mc,fid11,left,pre,6.445,0.573,11.783,11.479,25.624,21.356,11.478,203.237,26.159,6.445,0.573,11.783
mc_pre_fid11_p2_MOORE_largeMale_left_bernice_LS.csv,43,MOORE,p2,mc,fid11,left,pre,5.788,0.173,11.398,13.609,22.421,24.83,8.541,200.75,29.614,5.788,0.173,11.398
mc_pre_fid11_p3_MAHMOUD_largeMale_right_bernice_LS.csv,2,MAHMOUD,p3,mc,fid11,right,pre,0,0.745,0,0,0,0,0,299.239,0,300,0.745,300
mc_pre_fid11_p3_MARRONE_largeMale_right_bernice_LS.csv,11,MARRONE,p3,mc,fid11,right,pre,0,3.567,0,0,0,0,0,285.154,11.279,300,3.567,300
mc_pre_fid11_p3_MARTINEZ_largeMale_right_bernice_LS.csv,3,MARTINEZ,p3,mc,fid11,right,pre,0,0.061,0,0,0,0,0,299.336,0.534,300,0.061,300
mc_pre_fid11_p3_MOORE_largeMale_right_bernice_LS.csv,15,MOORE,p3,mc,fid11,right,pre,0,0.609,0,0,0,0,0,295.394,3.997,300,0.609,300
mc_pre_fid13_p1_MAHMOUD_largeMale_none_ava_LL.csv,76,MAHMOUD,p1,mc,fid13,none,pre,5.992,11.153,34.041,23.729,76.143,31.012,6.102,120.35,37.115,5.992,11.153,34.041
mc_pre_fid13_p1_MARRONE_largeMale_none_ava_LL.csv,76,MARRONE,p1,mc,fid13,none,pre,1.465,11.342,34.831,26.429,68.332,37.91,3.738,119.954,42.172,1.465,11.342,34.831
mc_pre_fid13_p1_MARTINEZ_largeMale_none_ava_LL.csv,65,MARTINEZ,p1,mc,fid13,none,pre,2.333,11.141,34.898,22.689,72.273,33.896,5.338,125.296,38.175,2.333,11.141,34.898
mc_pre_fid13_p1_MOORE_largeMale_none_ava_LL.csv,80,MOORE,p1,mc,fid13,none,pre,0.374,11.053,35.078,26.158,66.456,38.455,6.409,114.564,47.584,0.374,11.053,35.078
mc_pre_fid13_p2_MAHMOUD_largeMale_left_ava_LL.csv,66,MAHMOUD,p2,mc,fid13,left,pre,42.791,1.148,32.38,20.636,55.452,26.829,8.537,159.149,28.212,42.791,1.148,32.38
mc_pre_fid13_p2_MARRONE_largeMale_left_ava_LL.csv,95,MARRONE,p2,mc,fid13,left,pre,64.467,0.404,32.436,25.263,42.541,37.107,4.275,139.602,50.713,64.467,0.404,32.436
mc_pre_fid13_p2_MARTINEZ_largeMale_left_ava_LL.csv,93,MARTINEZ,p2,mc,fid13,left,pre,64.801,1.573,32.235,23.089,47.849,35.502,3.47,141.17,47.251,64.801,1.573,32.235
mc_pre_fid13_p2_MOORE_largeMale_left_ava_LL.csv,94,MOORE,p2,mc,fid13,left,pre,65.216,0.348,32.382,27.571,46.173,33.561,2.398,143.342,46.607,65.216,0.348,32.382
mc_pre_fid13_p3_MAHMOUD_largeMale_right_ava_LL.csv,29,MAHMOUD,p3,mc,fid13,right,pre,279.263,7.193,15.601,15.055,117.784,26.111,3.603,112.037,18.111,279.263,7.193,15.601
mc_pre_fid13_p3_MARRONE_largeMale_right_ava_LL.csv,61,MARRONE,p3,mc,fid13,right,pre,158.027,3.773,15.786,11.743,105.139,43.245,1.068,114.78,23.455,158.027,3.773,15.786
mc_pre_fid13_p3_MARTINEZ_largeMale_right_ava_LL.csv,51,MARTINEZ,p3,mc,fid13,right,pre,0,4.108,15.852,11.748,100.635,48.579,0,119.45,19.495,300,4.108,15.852
mc_pre_fid13_p3_MOORE_largeMale_right_ava_LL.csv,61,MOORE,p3,mc,fid13,right,pre,157.738,3.989,15.729,13.062,110.529,37.353,0.802,114.868,23.084,157.738,3.989,15.729
mc_pre_fid14_p1_MAHMOUD_largeMale_none_delfina_LS.csv,89,MAHMOUD,p1,mc,fid14,none,pre,52.855,8.011,36.034,29.655,54.861,44.04,0.801,88.879,73.753,52.855,8.011,36.034
mc_pre_fid14_p1_MARRONE_largeMale_none_delfina_LS.csv,84,MARRONE,p1,mc,fid14,none,pre,50.837,0.252,36.423,28.56,53.388,43.237,1.669,93.293,79.601,50.837,0.252,36.423
mc_pre_fid14_p1_MARTINEZ_largeMale_none_delfina_LS.csv,76,MARTINEZ,p1,mc,fid14,none,pre,51.639,0.113,40.16,30.156,51.952,43.515,1.333,97.708,75.223,51.639,0.113,40.16
mc_pre_fid14_p1_MOORE_largeMale_none_delfina_LS.csv,85,MOORE,p1,mc,fid14,none,pre,0,0.3,36.338,29.087,52.328,45.097,0,95.283,77.905,300,0.3,36.338
mc_pre_fid14_p2_MAHMOUD_largeMale_right_delfina_LS.csv,18,MAHMOUD,p2,mc,fid14,right,pre,0,10.109,34.934,5.207,4.006,10.006,0,249.781,21.619,300,10.109,34.934
mc_pre_fid14_p2_MARRONE_largeMale_right_delfina_LS.csv,22,MARRONE,p2,mc,fid14,right,pre,0,1.02,34.921,5.072,4.003,9.878,0,251.383,29.096,300,1.02,34.921
mc_pre_fid14_p2_MARTINEZ_largeMale_right_delfina_LS.csv,20,MARTINEZ,p2,mc,fid14,right,pre,0,1.688,35.22,5.071,4.004,9.61,0,251.883,28.731,300,1.688,35.22
mc_pre_fid14_p2_MOORE_largeMale_right_delfina_LS.csv,20,MOORE,p2,mc,fid14,right,pre,0,1.765,35.132,4.806,4.005,9.875,0,251.444,29.356,300,1.765,35.132
mc_pre_fid14_p3_MAHMOUD_largeMale_left_delfina_LS.csv,4,MAHMOUD,p3,mc,fid14,left,pre,0,2,0,0,0,0,0,295.245,2.755,300,2,300
mc_pre_fid14_p3_MARRONE_largeMale_left_delfina_LS.csv,5,MARRONE,p3,mc,fid14,left,pre,0,0.146,0,0,0,0,0,294.67,5.072,300,0.146,300
mc_pre_fid14_p3_MARTINEZ_largeMale_left_delfina_LS.csv,5,MARTINEZ,p3,mc,fid14,left,pre,0,1.056,0,0,0,0,0,298.033,0.8,300,1.056,300
mc_pre_fid14_p3_MOORE_largeMale_left_delfina_LS.csv,5,MOORE,p3,mc,fid14,left,pre,0,0.366,0,0,0,0,0,294.891,4.743,300,0.366,300
mc_pre_fid15_p1_MAHMOUD_largeMale_none_chloe_INT.csv,51,MAHMOUD,p1,mc,fid15,none,pre,36.815,75.252,28.274,34.02,37.512,31.361,62.727,104.866,26.421,36.815,75.252,28.274
mc_pre_fid15_p1_MARRONE_largeMale_none_chloe_INT.csv,51,MARRONE,p1,mc,fid15,none,pre,36.504,75.476,28.764,32.836,32.027,38.238,61.928,99.101,34.968,36.504,75.476,28.764
mc_pre_fid15_p1_MARTINEZ_largeMale_none_chloe_INT.csv,47,MARTINEZ,p1,mc,fid15,none,pre,37.038,74.942,29.029,29.365,31.632,37.64,62.995,103.473,29.892,37.038,74.942,29.029
mc_pre_fid15_p1_MOORE_largeMale_none_chloe_INT.csv,59,MOORE,p1,mc,fid15,none,pre,37.381,75.287,28.84,39.23,28.568,39.222,58.471,98.238,34.169,37.381,75.287,28.84
mc_pre_fid15_p2_MAHMOUD_largeMale_right_chloe_INT.csv,28,MAHMOUD,p2,mc,fid15,right,pre,195.755,7.1,200.163,5.508,5.601,5.27,3.606,266.331,6.584,195.755,7.1,200.163
mc_pre_fid15_p2_MARRONE_largeMale_right_chloe_INT.csv,30,MARRONE,p2,mc,fid15,right,pre,195.74,0.023,200.546,3.735,5.338,6.497,4.005,257.176,23.226,195.74,0.023,200.546
mc_pre_fid15_p2_MARTINEZ_largeMale_right_chloe_INT.csv,15,MARTINEZ,p2,mc,fid15,right,pre,0,1.146,205.084,5.874,6.138,0.689,0,276.612,9.541,300,1.146,205.084
mc_pre_fid15_p2_MOORE_largeMale_right_chloe_INT.csv,30,MOORE,p2,mc,fid15,right,pre,196.452,0.26,200.456,5.832,5.343,6.522,2.139,257.668,22.236,196.452,0.26,200.456
mc_pre_fid15_p3_MAHMOUD_largeMale_left_chloe_INT.csv,10,MAHMOUD,p3,mc,fid15,left,pre,0,3.001,43.672,4.877,2.403,6.006,0,279.317,4.396,300,3.001,43.672
mc_pre_fid15_p3_MARRONE_largeMale_left_chloe_INT.csv,32,MARRONE,p3,mc,fid15,left,pre,0,2.387,43.761,4.27,1.869,6.673,0,264.778,22.153,300,2.387,43.761
mc_pre_fid15_p3_MARTINEZ_largeMale_left_chloe_INT.csv,11,MARTINEZ,p3,mc,fid15,left,pre,0,7.825,43.593,4.003,2.67,6.407,0,272.422,6.673,300,7.825,43.593
mc_pre_fid15_p3_MOORE_largeMale_left_chloe_INT.csv,30,MOORE,p3,mc,fid15,left,pre,0,2.498,43.738,4.271,1.602,6.936,0,265.275,21.552,300,2.498,43.738
mc_pre_fid16_p1_MAHMOUD_largeMale_none_carla_LL.csv,84,MAHMOUD,p1,mc,fid16,none,pre,51.508,32.289,15.067,23.428,45.662,41.52,15.62,115.014,45.69,51.508,32.289,15.067
mc_pre_fid16_p1_MARRONE_largeMale_none_carla_LL.csv,79,MARRONE,p1,mc,fid16,none,pre,0.375,31.873,15.324,19.746,41.145,50.18,25.094,89.324,74.136,0.375,31.873,15.324
mc_pre_fid16_p1_MARTINEZ_largeMale_none_carla_LL.csv,74,MARTINEZ,p1,mc,fid16,none,pre,5.25,32.211,15.391,21.348,42.71,49.924,17.348,86.208,77.212,5.25,32.211,15.391
mc_pre_fid16_p1_MOORE_largeMale_none_carla_LL.csv,80,MOORE,p1,mc,fid16,none,pre,0.858,32.351,15.536,21.141,40.844,50.705,23.5,89.163,73.789,0.858,32.351,15.536
mc_pre_fid16_p2_MAHMOUD_largeMale_right_carla_LL.csv,28,MAHMOUD,p2,mc,fid16,right,pre,0,38.976,2.946,7.212,14.409,16.816,0,233.613,24.318,300,38.976,2.946
mc_pre_fid16_p2_MARRONE_largeMale_right_carla_LL.csv,26,MARRONE,p2,mc,fid16,right,pre,0,44.07,1.629,7.605,12.547,22.145,0,232.931,24.069,300,44.07,1.629
mc_pre_fid16_p2_MARTINEZ_largeMale_right_carla_LL.csv,26,MARTINEZ,p2,mc,fid16,right,pre,0,44.375,1.664,7.208,15.748,17.886,0,230.529,26.926,300,44.375,1.664
mc_pre_fid16_p2_MOORE_largeMale_right_carla_LL.csv,26,MOORE,p2,mc,fid16,right,pre,0,44.284,1.572,7.476,14.425,20.018,0,231.953,25.093,300,44.284,1.572
mc_pre_fid16_p3_MAHMOUD_largeMale_left_carla_LL.csv,42,MAHMOUD,p3,mc,fid16,left,pre,1.75,10.827,193.611,18.347,16.581,16.082,6.333,208.478,32.429,1.75,10.827,193.611
mc_pre_fid16_p3_MARRONE_largeMale_left_carla_LL.csv,47,MARRONE,p3,mc,fid16,left,pre,0.972,10.852,193.163,18.984,13.882,18.682,8.637,202.062,36.781,0.972,10.852,193.163
mc_pre_fid16_p3_MARTINEZ_largeMale_left_carla_LL.csv,38,MARTINEZ,p3,mc,fid16,left,pre,5.078,11.219,194.866,13.58,15.748,13.086,6.133,199.402,46.973,5.078,11.219,194.866
mc_pre_fid16_p3_MOORE_largeMale_left_carla_LL.csv,44,MOORE,p3,mc,fid16,left,pre,1.684,11.025,194.346,20.915,12.543,18.431,7.201,203.083,36.143,1.684,11.025,194.346
mc_pre_fid17_p1_MAHMOUD_largeMale_none_amanda_INT.csv,44,MAHMOUD,p1,mc,fid17,none,pre,0,6.789,19.838,16.675,74.287,31.637,0,84.585,86.027,300,6.789,19.838
mc_pre_fid17_p1_MARRONE_largeMale_none_amanda_INT.csv,53,MARRONE,p1,mc,fid17,none,pre,189.965,0.309,20.062,18.421,65.504,38.301,0.8,129.193,47.381,189.965,0.309,20.062
mc_pre_fid17_p1_MARTINEZ_largeMale_none_amanda_INT.csv,38,MARTINEZ,p1,mc,fid17,none,pre,37.348,2.011,20.265,20.059,72.768,19.913,5.338,144.145,35.766,37.348,2.011,20.265
mc_pre_fid17_p1_MOORE_largeMale_none_amanda_INT.csv,54,MOORE,p1,mc,fid17,none,pre,0,0.588,19.805,18.413,63.598,41.303,0,129.066,46.977,300,0.588,19.805
mc_pre_fid17_p2_MAHMOUD_largeMale_right_amanda_INT.csv,12,MAHMOUD,p2,mc,fid17,right,pre,0,9.39,24.205,2.4,268.777,10.413,0,6.006,4.006,300,9.39,24.205
mc_pre_fid17_p2_MARRONE_largeMale_right_amanda_INT.csv,22,MARRONE,p2,mc,fid17,right,pre,0,8.245,24.528,4.805,227.822,53.523,0,6.406,6.14,300,8.245,24.528
mc_pre_fid17_p2_MARTINEZ_largeMale_right_amanda_INT.csv,14,MARTINEZ,p2,mc,fid17,right,pre,0,8.35,24.232,3.995,252.018,28.026,0,7.071,4.28,300,8.35,24.232
mc_pre_fid17_p2_MOORE_largeMale_right_amanda_INT.csv,22,MOORE,p2,mc,fid17,right,pre,0,8.192,24.476,5.339,229.853,51.787,0,6.672,5.605,300,8.192,24.476
mc_pre_fid17_p3_Rotholz_largeMale_left_amanda_INT.csv,33,Rotholz,p3,mc,fid17,left,pre,58.06,24.427,5.608,23.224,18.018,37.236,4.405,187.785,20.823,58.06,24.427,5.608
mc_pre_fid17_p3_SANCHEZ_largeMale_left_amanda_INT.csv,31,SANCHEZ,p3,mc,fid17,left,pre,58.005,24.905,0.984,26.858,21.622,36.033,2.407,188.783,23.217,58.005,24.905,0.984
mc_pre_fid17_p3_VASQUEZ_largeMale_left_amanda_INT.csv,29,VASQUEZ,p3,mc,fid17,left,pre,56.159,24.66,0,22.688,22.123,37.238,5.071,188.32,24.56,56.159,24.66,0
mc_pre_fid17_p3_Waindim_largeMale_left_amanda_INT.csv,27,Waindim,p3,mc,fid17,left,pre,57.762,24.396,0.37,27.768,22.418,36.073,2.133,188.283,22.955,57.762,24.396,0.37
mc_pre_fid18_p1_NGUYEN_largeMale_none_anna_LL.csv,63,NGUYEN,p1,mc,fid18,none,pre,0,0.851,55.101,9.254,64.156,34.072,0,160.319,30.929,300,0.851,55.101
mc_pre_fid18_p1_PATIL_largeMale_none_anna_LL.csv,59,PATIL,p1,mc,fid18,none,pre,0,0.023,54.884,10.145,66.367,33.16,0,163.874,26.431,300,0.023,54.884
mc_pre_fid18_p1_PHILLIPS_largeMale_none_anna_LL.csv,55,PHILLIPS,p1,mc,fid18,none,pre,0,0.465,55.184,9.346,66.724,32.474,0,163.425,27.566,300,0.465,55.184
mc_pre_fid18_p1_RAVIPATI_largeMale_none_anna_LL.csv,53,RAVIPATI,p1,mc,fid18,none,pre,60.658,3.534,54.518,8.943,69.566,29.966,1.067,160.709,26.215,60.658,3.534,54.518
mc_pre_fid18_p2_NGUYEN_largeMale_left_anna_LL.csv,78,NGUYEN,p2,mc,fid18,left,pre,0,1.851,126.866,21.94,47.065,23.328,0,176.393,29.119,300,1.851,126.866
mc_pre_fid18_p2_PATIL_largeMale_left_anna_LL.csv,85,PATIL,p2,mc,fid18,left,pre,155.23,0.023,126.737,13.534,49.975,22.294,5.877,175.5,32.797,155.23,0.023,126.737
mc_pre_fid18_p2_PHILLIPS_largeMale_left_anna_LL.csv,78,PHILLIPS,p2,mc,fid18,left,pre,0,0.409,126.935,18.342,48.95,22.321,0,182.708,27.169,300,0.409,126.935
mc_pre_fid18_p2_RAVIPATI_largeMale_left_anna_LL.csv,76,RAVIPATI,p2,mc,fid18,left,pre,155.397,1.61,127.068,16.727,51.28,20.185,1.606,179.268,29.296,155.397,1.61,127.068
mc_pre_fid18_p3_NGUYEN_largeMale_right_anna_LL.csv,100,NGUYEN,p3,mc,fid18,right,pre,0,4.101,0.108,31.535,58.478,43.01,0,130.023,51.953,300,4.101,0.108
mc_pre_fid18_p3_PATIL_largeMale_right_anna_LL.csv,89,PATIL,p3,mc,fid18,right,pre,2.149,4.018,0.023,24.719,59.814,39.717,0.538,128.161,47.028,2.149,4.018,0.023
mc_pre_fid18_p3_PHILLIPS_largeMale_right_anna_LL.csv,91,PHILLIPS,p3,mc,fid18,right,pre,0,4.221,11.162,24.832,61.827,37.532,0,129.03,45.764,300,4.221,11.162
mc_pre_fid18_p3_RAVIPATI_largeMale_right_anna_LL.csv,79,RAVIPATI,p3,mc,fid18,right,pre,0,4.186,11.125,26.156,59.762,38.17,0,132.221,42.687,300,4.186,11.125
mc_pre_fid19_p1_NGUYEN_largeMale_none_allison_FF.csv,84,NGUYEN,p1,mc,fid19,none,pre,48.351,12.351,36.351,45.575,36.298,68.277,53.09,28.499,66.51,48.351,12.351,36.351
mc_pre_fid19_p1_PATIL_largeMale_none_allison_FF.csv,81,PATIL,p1,mc,fid19,none,pre,8.164,12.164,36.187,32.169,35.895,68.438,64.199,28.131,71.145,8.164,12.164,36.187
mc_pre_fid19_p1_PHILLIPS_largeMale_none_allison_FF.csv,92,PHILLIPS,p1,mc,fid19,none,pre,27.812,12.33,36.087,43.992,38.707,57.564,57.862,30.899,66.853,27.812,12.33,36.087
mc_pre_fid19_p1_RAVIPATI_largeMale_none_allison_FF.csv,71,RAVIPATI,p1,mc,fid19,none,pre,29.518,12.166,36.723,30.816,38.597,64.33,62.667,29.623,70.03,29.518,12.166,36.723
mc_pre_fid19_p2_NGUYEN_largeMale_right_allison_FF.csv,104,NGUYEN,p2,mc,fid19,right,pre,25.6,30.601,7.101,28.995,53.007,64.092,52.004,53.496,48.006,25.6,30.601,7.101
mc_pre_fid19_p2_PATIL_largeMale_right_allison_FF.csv,97,PATIL,p2,mc,fid19,right,pre,25.183,30.652,6.76,25.539,57.282,59.541,54.047,52.457,51.111,25.183,30.652,6.76
mc_pre_fid19_p2_PHILLIPS_largeMale_right_allison_FF.csv,110,PHILLIPS,p2,mc,fid19,right,pre,25.546,30.785,6.931,36.708,56.312,57.35,43.671,54.351,46.966,25.546,30.785,6.931
mc_pre_fid19_p2_RAVIPATI_largeMale_right_allison_FF.csv,86,RAVIPATI,p2,mc,fid19,right,pre,25.479,30.953,7.062,19.481,59.396,59.788,55.542,54.057,50.012,25.479,30.953,7.062
mc_pre_fid19_p3_NGUYEN_largeMale_left_allison_FF.csv,84,NGUYEN,p3,mc,fid19,left,pre,56.101,37.814,2.568,44.275,40.467,69.073,79.031,18.751,45.435,56.101,37.814,2.568
mc_pre_fid19_p3_PATIL_largeMale_left_allison_FF.csv,80,PATIL,p3,mc,fid19,left,pre,53.992,37.814,0.023,29.937,36.717,76.815,90.541,18.322,47.645,53.992,37.814,0.023
mc_pre_fid19_p3_PHILLIPS_largeMale_left_allison_FF.csv,92,PHILLIPS,p3,mc,fid19,left,pre,54.394,37.843,0.207,33.064,40.309,71.305,88.155,19.293,47.667,54.394,37.843,0.207
mc_pre_fid19_p3_RAVIPATI_largeMale_left_allison_FF.csv,76,RAVIPATI,p3,mc,fid19,left,pre,53.858,37.845,3.108,27.206,40.506,70.208,92.351,24.612,42.009,53.858,37.845,3.108
mc_pre_fid2_p1_JEW_largeMale_none_daisy_LL.csv,36,JEW,p1,mc,fid2,none,pre,1.84E+13,3.445,16.926,11.421,211.233,31.896,18.387,10.375,15.914,1.84E+13,3.445,16.926
mc_pre_fid2_p1_KALARIA_largeMale_none_daisy_LL.csv,38,KALARIA,p1,mc,fid2,none,pre,12.464,3.655,17.002,9.877,210.932,32.828,18.42,9.347,16.809,12.464,3.655,17.002
mc_pre_fid2_p1_KAR300TI_largeMale_none_daisy_LL.csv,61,KAR300TI,p1,mc,fid2,none,pre,13.335,3.455,16.536,15.783,196.751,47.032,12.21,9.076,18.897,13.335,3.455,16.536
mc_pre_fid2_p1_KUE_largeMale_none_daisy_LL.csv,46,KUE,p1,mc,fid2,none,pre,12.702,3.888,16.704,15.757,208.391,33.932,13.506,9.075,18.921,12.702,3.888,16.704
mc_pre_fid2_p1_lacy_largeMale_none_daisy_LL.csv,34,lacy,p1,mc,fid2,none,pre,0.023,3.654,16.968,12.326,213.642,32.421,13.986,10.191,17.411,0.023,3.654,16.968
mc_pre_fid2_p2_JEW_largeMale_right_daisy_LL.csv,27,JEW,p2,mc,fid2,right,pre,227.286,143.603,0.36,9.743,212.544,17.755,4.44,41.843,13.315,227.286,143.603,0.36
mc_pre_fid2_p2_KALARIA_largeMale_right_daisy_LL.csv,27,KALARIA,p2,mc,fid2,right,pre,226.364,142.817,0.806,11.209,210.111,17.546,4.538,41.64,14.15,226.364,142.817,0.806
mc_pre_fid2_p2_KAR300TI_largeMale_right_daisy_LL.csv,51,KAR300TI,p2,mc,fid2,right,pre,227.264,142.446,0.066,22.598,206.736,21.166,3.839,42.976,10.742,227.264,142.446,0.066
mc_pre_fid2_p2_KUE_largeMale_right_daisy_LL.csv,29,KUE,p2,mc,fid2,right,pre,229.099,142.613,0.023,13.162,211.253,17.694,2.038,43.417,12.413,229.099,142.613,0.023
mc_pre_fid2_p2_lacy_largeMale_right_daisy_LL.csv,27,lacy,p2,mc,fid2,right,pre,228.166,143.851,0.241,10.624,210.708,21.401,3.076,43.164,10.786,228.166,143.851,0.241
mc_pre_fid2_p3_JEW_largeMale_left_daisy_LL.csv,19,JEW,p3,mc,fid2,left,pre,0,0.253,127.215,6.338,152.245,19.907,0,119.355,1.902,300,0.253,127.215
mc_pre_fid2_p3_KALARIA_largeMale_left_daisy_LL.csv,21,KALARIA,p3,mc,fid2,left,pre,0,1.368,126.825,5.291,148.969,24.256,0,115.314,4.802,300,1.368,126.825
mc_pre_fid2_p3_KAR300TI_largeMale_left_daisy_LL.csv,43,KAR300TI,p3,mc,fid2,left,pre,0,1.332,127.09,6.424,136.49,35.102,0,113.849,6.542,300,1.332,127.09
mc_pre_fid2_p3_KUE_largeMale_left_daisy_LL.csv,19,KUE,p3,mc,fid2,left,pre,0,0.04,127.093,5.171,152.144,20.763,0,117.707,4.175,300,0.04,127.093
mc_pre_fid2_p3_lacy_largeMale_left_daisy_LL.csv,17,lacy,p3,mc,fid2,left,pre,0,0.23,127.157,6.546,151.299,19.6,0,116.951,5.374,300,0.23,127.157
mc_pre_fid20_p1_NGUYEN_largeMale_none_daniela_LS.csv,58,NGUYEN,p1,mc,fid20,none,pre,9.101,76.601,26.851,29.847,20.242,27.508,36.883,151.128,33.492,9.101,76.601,26.851
mc_pre_fid20_p1_PATIL_largeMale_none_daniela_LS.csv,58,PATIL,p1,mc,fid20,none,pre,8.521,77.058,27.378,21.276,19.613,28.898,41.318,148.759,40.113,8.521,77.058,27.378
mc_pre_fid20_p1_PHILLIPS_largeMale_none_daniela_LS.csv,60,PHILLIPS,p1,mc,fid20,none,pre,8.824,76.89,27.24,24.018,20.025,27.488,42.712,150.581,34.407,8.824,76.89,27.24
mc_pre_fid20_p1_RAVIPATI_largeMale_none_daniela_LS.csv,51,RAVIPATI,p1,mc,fid20,none,pre,8.922,77.257,27.612,9.348,19.755,28.551,45.722,149.507,37.698,8.922,77.257,27.612
mc_pre_fid20_p2_NGUYEN_largeMale_right_daniela_LS.csv,47,NGUYEN,p2,mc,fid20,right,pre,241.806,1.104,190.056,10.168,25.195,6.902,6,206.05,44.581,241.806,1.104,190.056
mc_pre_fid20_p2_PATIL_largeMale_right_daniela_LS.csv,49,PATIL,p2,mc,fid20,right,pre,241.7,0.023,190.284,6.705,24.208,9.495,8.162,203.669,47.738,241.7,0.023,190.284
mc_pre_fid20_p2_PHILLIPS_largeMale_right_daniela_LS.csv,47,PHILLIPS,p2,mc,fid20,right,pre,241.967,0.023,190.516,10.455,24.308,9.229,5.339,209.401,41.245,241.967,0.023,190.516
mc_pre_fid20_p2_RAVIPATI_largeMale_right_daniela_LS.csv,45,RAVIPATI,p2,mc,fid20,right,pre,241.437,2.165,190.282,7.618,24.478,8.933,7.704,207.307,41.795,241.437,2.165,190.282
mc_pre_fid20_p3_NGUYEN_largeMale_left_daniela_LS.csv,54,NGUYEN,p3,mc,fid20,left,pre,188.352,190.602,0,8.5,180.592,76.009,4.749,22.249,7.751,188.352,190.602,0
mc_pre_fid20_p3_PATIL_largeMale_left_daniela_LS.csv,54,PATIL,p3,mc,fid20,left,pre,188.494,190.828,0.023,4.923,179.571,79.254,5.455,22.156,8.21,188.494,190.828,0.023
mc_pre_fid20_p3_PHILLIPS_largeMale_left_daniela_LS.csv,56,PHILLIPS,p3,mc,fid20,left,pre,188.558,190.959,0.369,6.12,182.852,74.625,6.004,23.09,6.94,188.558,190.959,0.369
mc_pre_fid20_p3_RAVIPATI_largeMale_left_daniela_LS.csv,51,RAVIPATI,p3,mc,fid20,left,pre,188.492,190.66,0.802,2.911,185.483,74.002,6.639,22.958,7.205,188.492,190.66,0.802
mc_pre_fid21_p1_NGUYEN_largeMale_none_adele_LS.csv,1,NGUYEN,p1,mc,fid21,none,pre,2.351,0,0,0,0,0,297.649,0,0,2.351,300,300
mc_pre_fid21_p1_PATIL_largeMale_none_adele_LS.csv,1,PATIL,p1,mc,fid21,none,pre,0.023,0,0,0,0,0,299.977,0,0,0.023,300,300
mc_pre_fid21_p1_PHILLIPS_largeMale_none_adele_LS.csv,1,PHILLIPS,p1,mc,fid21,none,pre,0.023,0,0,0,0,0,299.786,0,0,0.023,300,300
mc_pre_fid21_p2_NGUYEN_largeMale_left_adele_LS.csv,1,NGUYEN,p2,mc,fid21,left,pre,5.85,0,0,0,0,0,294.15,0,0,5.85,300,300
mc_pre_fid21_p2_PATIL_largeMale_left_adele_LS.csv,1,PATIL,p2,mc,fid21,left,pre,0.003,0,0,0,0,0,299.997,0,0,0.003,300,300
mc_pre_fid21_p2_PHILLIPS_largeMale_left_adele_LS.csv,1,PHILLIPS,p2,mc,fid21,left,pre,0.023,0,0,0,0,0,299.977,0,0,0.023,300,300
mc_pre_fid21_p3_NGUYEN_largeMale_right_adele_LS.csv,1,NGUYEN,p3,mc,fid21,right,pre,0,0,0,0,0,0,298.601,0,0,0,300,300
mc_pre_fid21_p3_PATIL_largeMale_right_adele_LS.csv,1,PATIL,p3,mc,fid21,right,pre,0.023,0,0,0,0,0,299.977,0,0,0.023,300,300
mc_pre_fid21_p3_PHILLIPS_largeMale_right_adele_LS.csv,1,PHILLIPS,p3,mc,fid21,right,pre,0.023,0,0,0,0,0,298.977,0,0,0.023,300,300
mc_pre_fid22_p1_NGUYEN_largeMale_none_bernadette_FF.csv,68,NGUYEN,p1,mc,fid22,none,pre,4.101,0,24.851,12.66,10.708,12.292,12.296,221.441,30.203,4.101,0,24.851
mc_pre_fid22_p1_PATIL_largeMale_none_bernadette_FF.csv,55,PATIL,p1,mc,fid22,none,pre,3.723,0.023,24.942,8.181,10.144,12.807,16.551,223.66,28.634,3.723,0.023,24.942
mc_pre_fid22_p1_PHILLIPS_largeMale_none_bernadette_FF.csv,55,PHILLIPS,p1,mc,fid22,none,pre,4.19,0.234,24.742,10.408,11.749,10.943,14.947,227.958,23.761,4.19,0.234,24.742
mc_pre_fid22_p1_RAVIPATI_largeMale_none_bernadette_FF.csv,54,RAVIPATI,p1,mc,fid22,none,pre,3.988,1.187,25.211,8.274,9.876,12.947,16.418,224.31,26.988,3.988,1.187,25.211
mc_pre_fid22_p2_NGUYEN_largeMale_right_bernadette_FF.csv,53,NGUYEN,p2,mc,fid22,right,pre,0,0.601,0,0,0,0,0,274.553,24.446,300,0.601,300
mc_pre_fid22_p2_PATIL_largeMale_right_bernadette_FF.csv,51,PATIL,p2,mc,fid22,right,pre,0,0.023,0,0,0,0,0,277.723,22.254,300,0.023,300
mc_pre_fid22_p2_PHILLIPS_largeMale_right_bernadette_FF.csv,41,PHILLIPS,p2,mc,fid22,right,pre,0,0.14,0,0,0,0,0,280.007,19.797,300,0.14,300
mc_pre_fid22_p2_RAVIPATI_largeMale_right_bernadette_FF.csv,49,RAVIPATI,p2,mc,fid22,right,pre,0,4.364,0,0,0,0,0,277.622,17.879,300,4.364,300
mc_pre_fid22_p3_NGUYEN_largeMale_left_bernadette_FF.csv,41,NGUYEN,p3,mc,fid22,left,pre,71.101,0.851,76.554,3,4.746,2.754,3.75,258.296,26.353,71.101,0.851,76.554
mc_pre_fid22_p3_PATIL_largeMale_left_bernadette_FF.csv,29,PATIL,p3,mc,fid22,left,pre,70.651,0.023,76.523,1.6,5.607,2.401,4.805,262.174,23.39,70.651,0.023,76.523
mc_pre_fid22_p3_PHILLIPS_largeMale_left_bernadette_FF.csv,27,PHILLIPS,p3,mc,fid22,left,pre,71.216,0.196,76.824,3.195,5.337,2.409,3.472,262.7,22.691,71.216,0.196,76.824
mc_pre_fid22_p3_RAVIPATI_largeMale_left_bernadette_FF.csv,27,RAVIPATI,p3,mc,fid22,left,pre,70.852,1.182,76.458,1.333,5.875,2.403,4.803,261.986,22.418,70.852,1.182,76.458
mc_pre_fid23_p1_NGUYEN_largeMale_none_bess_LL.csv,65,NGUYEN,p1,mc,fid23,none,pre,24.851,162.101,78.076,11.618,126.237,46.364,34.564,50.399,29.172,24.851,162.101,78.076
mc_pre_fid23_p1_PATIL_largeMale_none_bess_LL.csv,62,PATIL,p1,mc,fid23,none,pre,11.102,162.285,77.935,6.613,126.898,47.242,52.96,49.682,16.582,11.102,162.285,77.935
mc_pre_fid23_p1_PHILLIPS_largeMale_none_bess_LL.csv,68,PHILLIPS,p1,mc,fid23,none,pre,11.499,162.05,77.965,9.531,124.921,48.686,49.653,47.401,19.517,11.499,162.05,77.965
mc_pre_fid23_p1_RAVIPATI_largeMale_none_bess_LL.csv,61,RAVIPATI,p1,mc,fid23,none,pre,11.135,162.02,78.37,6.048,127.775,46.295,52.579,50.182,15.566,11.135,162.02,78.37
mc_pre_fid23_p2_NGUYEN_largeMale_right_bess_LL.csv,68,NGUYEN,p2,mc,fid23,right,pre,10.851,2.809,12.351,7.653,27.714,16.135,20.246,198.178,26.865,10.851,2.809,12.351
mc_pre_fid23_p2_PATIL_largeMale_right_bess_LL.csv,60,PATIL,p2,mc,fid23,right,pre,10.336,0.023,79.769,9.32,23.302,18.756,20.675,202.212,25.712,10.336,0.023,79.769
mc_pre_fid23_p2_PHILLIPS_largeMale_right_bess_LL.csv,62,PHILLIPS,p2,mc,fid23,right,pre,97.454,0.025,12.037,14.292,27.721,14.099,17.492,203.065,23.228,97.454,0.025,12.037
mc_pre_fid23_p2_RAVIPATI_largeMale_right_bess_LL.csv,55,RAVIPATI,p2,mc,fid23,right,pre,10.4,0.126,80.103,8.55,23.889,18.986,20.992,203.16,24.297,10.4,0.126,80.103
mc_pre_fid23_p3_NGUYEN_largeMale_left_bess_LL.csv,73,NGUYEN,p3,mc,fid23,left,pre,1.351,7.101,23.35,7.021,91.423,44.623,44.699,78.97,32.756,1.351,7.101,23.35
mc_pre_fid23_p3_PATIL_largeMale_left_bess_LL.csv,67,PATIL,p3,mc,fid23,left,pre,0.411,7.214,23.233,3.639,86.516,50.663,49.588,75.975,33.596,0.411,7.214,23.233
mc_pre_fid23_p3_PHILLIPS_largeMale_left_bess_LL.csv,84,PHILLIPS,p3,mc,fid23,left,pre,0.975,7.381,23.397,12.032,87.233,47.294,44.406,77.515,31.497,0.975,7.381,23.397
mc_pre_fid23_p3_RAVIPATI_largeMale_left_bess_LL.csv,64,RAVIPATI,p3,mc,fid23,left,pre,1.011,7.218,23.234,2.706,87.712,50.459,49.432,79.334,30.064,1.011,7.218,23.234
mc_pre_fid24_p1_NGUYEN_largeMale_none_ariana_LS.csv,35,NGUYEN,p1,mc,fid24,none,pre,31.851,78.602,61.101,29.293,192.207,27.398,25.751,12.956,11.544,31.851,78.602,61.101
mc_pre_fid24_p1_PATIL_largeMale_none_ariana_LS.csv,48,PATIL,p1,mc,fid24,none,pre,31.416,78.662,61.044,30.607,188.315,31.43,25.624,13.119,10.882,31.416,78.662,61.044
mc_pre_fid24_p1_PHILLIPS_largeMale_none_ariana_LS.csv,49,PHILLIPS,p1,mc,fid24,none,pre,31.615,78.865,61.246,31.37,189.261,29.459,25.626,13.382,10.51,31.615,78.865,61.246
mc_pre_fid24_p1_RAVIPATI_largeMale_none_ariana_LS.csv,36,RAVIPATI,p1,mc,fid24,none,pre,31.118,78.464,61.445,30.081,191.759,27.3,26.06,13.434,10.945,31.118,78.464,61.445
mc_pre_fid24_p2_NGUYEN_largeMale_right_ariana_LS.csv,49,NGUYEN,p2,mc,fid24,right,pre,8.351,11.851,3.851,4.6,6.033,9.436,10,253.106,13.432,8.351,11.851,3.851
mc_pre_fid24_p2_PATIL_largeMale_right_ariana_LS.csv,54,PATIL,p2,mc,fid24,right,pre,7.546,10.753,1.406,0.534,5.338,13.13,12.545,253.254,15.176,7.546,10.753,1.406
mc_pre_fid24_p2_PHILLIPS_largeMale_right_ariana_LS.csv,56,PHILLIPS,p2,mc,fid24,right,pre,8.05,10.749,0.843,5.318,7.287,10.414,8.658,191.197,13.342,8.05,10.749,0.843
mc_pre_fid24_p2_RAVIPATI_largeMale_right_ariana_LS.csv,54,RAVIPATI,p2,mc,fid24,right,pre,7.513,10.984,1.644,1.066,4.801,12.821,12.316,254.229,13.893,7.513,10.984,1.644
mc_pre_fid24_p3_NGUYEN_largeMale_left_ariana_LS.csv,45,NGUYEN,p3,mc,fid24,left,pre,162.351,1.1,155.851,4,108.901,20.498,6,150.248,9.003,162.351,1.1,155.851
mc_pre_fid24_p3_PATIL_largeMale_left_ariana_LS.csv,46,PATIL,p3,mc,fid24,left,pre,161.688,0.023,156.119,2.137,105.737,24.261,7.142,150.827,9.873,161.688,0.023,156.119
mc_pre_fid24_p3_PHILLIPS_largeMale_left_ariana_LS.csv,35,PHILLIPS,p3,mc,fid24,left,pre,161.888,0.047,156.284,2.932,107.41,22.689,6.144,155.168,5.61,161.888,0.047,156.284
mc_pre_fid24_p3_RAVIPATI_largeMale_left_ariana_LS.csv,26,RAVIPATI,p3,mc,fid24,left,pre,161.823,2.131,156.483,2.133,108.484,21.35,6.942,154.159,4.801,161.823,2.131,156.483
mc_pre_fid25_p1_NGUYEN_largeMale_none_amy_FF.csv,51,NGUYEN,p1,mc,fid25,none,pre,0,1.851,24.35,10.409,205.089,41.954,0,23.796,16.501,300,1.851,24.35
mc_pre_fid25_p1_PATIL_largeMale_none_amy_FF.csv,45,PATIL,p1,mc,fid25,none,pre,61.619,1.055,24.515,6.138,210.399,37.428,3.204,23.06,18.716,61.619,1.055,24.515
mc_pre_fid25_p1_PHILLIPS_largeMale_none_amy_FF.csv,47,PHILLIPS,p1,mc,fid25,none,pre,61.851,0.111,24.412,8.809,209.682,37.755,1.866,25.699,16.025,61.851,0.111,24.412
mc_pre_fid25_p1_RAVIPATI_largeMale_none_amy_FF.csv,43,RAVIPATI,p1,mc,fid25,none,pre,61.485,1.426,26.249,5.604,208.799,39.328,3.204,23.76,17.879,61.485,1.426,26.249
mc_pre_fid25_p2_NGUYEN_largeMale_right_amy_FF.csv,34,NGUYEN,p2,mc,fid25,right,pre,0,169.851,1.351,1.471,157.008,8.992,0,127.259,3.519,300,169.851,1.351
mc_pre_fid25_p2_PATIL_largeMale_right_amy_FF.csv,27,PATIL,p2,mc,fid25,right,pre,0,170.128,0.023,1.598,162.231,5.206,0,126.76,4.182,300,170.128,0.023
mc_pre_fid25_p2_PHILLIPS_largeMale_right_amy_FF.csv,24,PHILLIPS,p2,mc,fid25,right,pre,0,170.128,0.075,1.602,161.509,5.873,0,111.044,4.004,300,170.128,0.075
mc_pre_fid25_p2_RAVIPATI_largeMale_right_amy_FF.csv,21,RAVIPATI,p2,mc,fid25,right,pre,0,170.196,1.693,1.336,161.568,4.266,0,127.311,3.741,300,170.196,1.693
mc_pre_fid25_p3_NGUYEN_largeMale_left_amy_FF.csv,61,NGUYEN,p3,mc,fid25,left,pre,155.601,0.254,157.601,16.406,33.714,35.602,8.525,167.028,38.071,155.601,0.254,157.601
mc_pre_fid25_p3_PATIL_largeMale_left_amy_FF.csv,57,PATIL,p3,mc,fid25,left,pre,154.93,0,156.934,5.211,34.774,34.827,18.723,169.904,36.561,154.93,0,156.934
mc_pre_fid25_p3_PHILLIPS_largeMale_left_amy_FF.csv,74,PHILLIPS,p3,mc,fid25,left,pre,155.764,0.135,157.367,15.584,35.496,32.836,10.677,169.802,35.47,155.764,0.135,157.367
mc_pre_fid25_p3_RAVIPATI_largeMale_left_amy_FF.csv,56,RAVIPATI,p3,mc,fid25,left,pre,154.963,0.879,157.101,4.635,34.175,35.497,19.484,168.024,37.306,154.963,0.879,157.101
mc_pre_fid26_p1_NGUYEN_largeMale_none_beverly_LS.csv,102,NGUYEN,p1,mc,fid26,none,pre,3.101,118.783,8.851,18.944,94.87,47.129,15.249,77.067,45.048,3.101,118.783,8.851
mc_pre_fid26_p1_PATIL_largeMale_none_beverly_LS.csv,91,PATIL,p1,mc,fid26,none,pre,2.331,119.453,9.14,15.743,94.122,47.941,19.229,73.81,49.132,2.331,119.453,9.14
mc_pre_fid26_p1_PHILLIPS_largeMale_none_beverly_LS.csv,95,PHILLIPS,p1,mc,fid26,none,pre,2.297,119.212,9.239,19.487,92.881,48.319,16.547,79.116,42.846,2.297,119.212,9.239
mc_pre_fid26_p1_RAVIPATI_largeMale_none_beverly_LS.csv,90,RAVIPATI,p1,mc,fid26,none,pre,2.764,118.816,8.903,14.947,98.6,43.977,18.689,78.85,44.071,2.764,118.816,8.903
mc_pre_fid26_p2_NGUYEN_largeMale_right_beverly_LS.csv,119,NGUYEN,p2,mc,fid26,right,pre,9.851,1.851,13.851,22.653,39.192,56.349,71.738,57.803,50.414,9.851,1.851,13.851
mc_pre_fid26_p2_PATIL_largeMale_right_beverly_LS.csv,90,PATIL,p2,mc,fid26,right,pre,9.712,0.018,13.711,9.21,42.841,55.486,78.623,54.884,58.938,9.712,0.018,13.711
mc_pre_fid26_p2_PHILLIPS_largeMale_right_beverly_LS.csv,123,PHILLIPS,p2,mc,fid26,right,pre,9.742,0.023,14.013,27.327,43.248,51.987,69.825,56.979,50.611,9.742,0.023,14.013
mc_pre_fid26_p2_RAVIPATI_largeMale_right_beverly_LS.csv,86,RAVIPATI,p2,mc,fid26,right,pre,9.675,0.075,13.678,9.071,44.587,53.905,79.233,56.003,57.126,9.675,0.075,13.678
mc_pre_fid26_p3_NGUYEN_largeMale_left_beverly_LS.csv,91,NGUYEN,p3,mc,fid26,left,pre,115,2.806,12.799,23.114,69.947,72.164,48.971,39.954,43.899,115,2.806,12.799
mc_pre_fid26_p3_PATIL_largeMale_left_beverly_LS.csv,86,PATIL,p3,mc,fid26,left,pre,114.443,0.018,13.277,17.819,68.474,75.263,50.958,41.646,45.822,114.443,0.018,13.277
mc_pre_fid26_p3_PHILLIPS_largeMale_left_beverly_LS.csv,94,PHILLIPS,p3,mc,fid26,left,pre,114.879,0.894,12.907,24.288,70.709,70.998,45.647,42.436,45.831,114.879,0.894,12.907
mc_pre_fid26_p3_RAVIPATI_largeMale_left_beverly_LS.csv,81,RAVIPATI,p3,mc,fid26,left,pre,114.88,2.163,14.177,17.421,66.603,76.074,51.52,42.186,44.033,114.88,2.163,14.177
mc_pre_fid29_p1_PATIL_largeMale_none_alice_LS.csv,24,PATIL,p1,mc,fid29,none,pre,49.117,242.511,15.354,14.614,33.624,32.622,194.297,15.619,9.206,49.117,242.511,15.354
mc_pre_fid29_p1_PHILLIPS_largeMale_none_alice_LS.csv,27,PHILLIPS,p1,mc,fid29,none,pre,49.318,242.844,15.418,19.788,33.785,31.933,189.689,15.214,9.344,49.318,242.844,15.418
mc_pre_fid29_p1_RAVIPATI_largeMale_none_alice_LS.csv,22,RAVIPATI,p1,mc,fid29,none,pre,48.884,241.912,15.521,15.75,34.544,31.406,192.369,16.016,8.809,48.884,241.912,15.521
mc_pre_fid29_p2_NGUYEN_largeMale_right_alice_LS.csv,48,NGUYEN,p2,mc,fid29,right,pre,34.351,18.469,4.217,18.994,39.504,17.513,110.001,75.883,33.238,34.351,18.469,4.217
mc_pre_fid29_p2_PATIL_largeMale_right_alice_LS.csv,41,PATIL,p2,mc,fid29,right,pre,32.771,18.757,0.018,8.001,40.999,22.816,115.386,74.068,38.712,32.771,18.757,0.018
mc_pre_fid29_p2_PHILLIPS_largeMale_right_alice_LS.csv,48,PHILLIPS,p2,mc,fid29,right,pre,32.971,18.557,0.143,14.95,41.104,21.095,111.861,76.605,34.17,32.971,18.557,0.143
mc_pre_fid29_p2_RAVIPATI_largeMale_right_alice_LS.csv,40,RAVIPATI,p2,mc,fid29,right,pre,33.143,18.724,1.144,8.373,40.402,21.855,114.859,76.679,36.616,33.143,18.724,1.144
mc_pre_fid29_p3_Rotholz_largeMale_left_alice_LS.csv,31,Rotholz,p3,mc,fid29,left,pre,8.272,112.376,41.505,11.611,18.819,16.019,205.003,24.659,15.617,8.272,112.376,41.505
mc_pre_fid29_p3_SANCHEZ_largeMale_left_alice_LS.csv,40,SANCHEZ,p3,mc,fid29,left,pre,14.493,112.123,38.514,25.36,18.419,15.21,191.327,23.292,13.503,14.493,112.123,38.514
mc_pre_fid29_p3_VASQUEZ_largeMale_left_alice_LS.csv,37,VASQUEZ,p3,mc,fid29,left,pre,0.499,111.81,37.602,19.222,18.687,14.945,207.372,24.327,14.948,0.499,111.81,37.602
mc_pre_fid29_p3_Waindim_largeMale_left_alice_LS.csv,39,Waindim,p3,mc,fid29,left,pre,1.099,112.146,38.47,16.817,18.412,16.294,208.47,23.149,15.759,1.099,112.146,38.47
mc_pre_fid3_p1_JEW_largeMale_none_diana_LL.csv,7,JEW,p1,mc,fid3,none,pre,5.791,71.723,0,3.171,0,0,60.862,228.277,7.667,5.791,71.723,300
mc_pre_fid3_p1_KALARIA_largeMale_none_diana_LL.csv,9,KALARIA,p1,mc,fid3,none,pre,4.7,71.702,0,2.941,0,0,60.322,224.292,12.016,4.7,71.702,300
mc_pre_fid3_p1_KAR300TI_largeMale_none_diana_LL.csv,18,KAR300TI,p1,mc,fid3,none,pre,4.633,69.864,0,5.708,0,0,59.09,221.698,13.481,4.633,69.864,300
mc_pre_fid3_p1_KUE_largeMale_none_diana_LL.csv,10,KUE,p1,mc,fid3,none,pre,4.566,70.169,0,5.002,0,0,60.465,228.33,6.18,4.566,70.169,300
mc_pre_fid3_p1_lacy_largeMale_none_diana_LL.csv,7,lacy,p1,mc,fid3,none,pre,5.666,69.466,0,3.072,0,0,59.965,230.534,6.406,5.666,69.466,300
mc_pre_fid3_p2_JEW_largeMale_right_diana_LL.csv,26,JEW,p2,mc,fid3,right,pre,124.656,0.023,49.846,12.044,6.34,22.821,17.113,198.243,43.111,124.656,0.023,49.846
mc_pre_fid3_p2_KALARIA_largeMale_right_diana_LL.csv,26,KALARIA,p2,mc,fid3,right,pre,124.167,0.576,48.354,12.549,6.677,22.685,17.351,192.656,46.971,124.167,0.576,48.354
mc_pre_fid3_p2_KAR300TI_largeMale_right_diana_LL.csv,25,KAR300TI,p2,mc,fid3,right,pre,124.599,0.023,48.889,13.824,5.107,23.782,17.082,199.766,39.913,124.599,0.023,48.889
mc_pre_fid3_p2_KUE_largeMale_right_diana_LL.csv,27,KUE,p2,mc,fid3,right,pre,124.899,0.071,48.594,12.816,7.272,22.149,17.018,194.272,45.746,124.899,0.071,48.594
mc_pre_fid3_p2_lacy_largeMale_right_diana_LL.csv,24,lacy,p2,mc,fid3,right,pre,125.467,0,49.49,13.805,7.668,21.498,17.65,194.707,43.75,125.467,0,49.49
mc_pre_fid3_p3_JEW_largeMale_left_diana_LL.csv,1,JEW,p3,mc,fid3,left,pre,0,0.35,0,0,0,0,0,299.65,0,300,0.35,300
mc_pre_fid3_p3_KALARIA_largeMale_left_diana_LL.csv,1,KALARIA,p3,mc,fid3,left,pre,0,0.464,0,0,0,0,0,299.536,0,300,0.464,300
mc_pre_fid3_p3_KAR300TI_largeMale_left_diana_LL.csv,3,KAR300TI,p3,mc,fid3,left,pre,0,0.261,0,0,0,0,0,296.137,3.602,300,0.261,300
mc_pre_fid3_p3_KUE_largeMale_left_diana_LL.csv,1,KUE,p3,mc,fid3,left,pre,0,0.023,0,0,0,0,0,299.977,0,300,0.023,300
mc_pre_fid3_p3_lacy_largeMale_left_diana_LL.csv,1,lacy,p3,mc,fid3,left,pre,0,0,0,0,0,0,0,300,0,300,0,300
mc_pre_fid30_p1_Rotholz_largeMale_none_dawn_LL.csv,57,Rotholz,p1,mc,fid30,none,pre,46.422,0.167,84.461,14.813,42.163,28.435,56.455,125.534,32.433,46.422,0.167,84.461
mc_pre_fid30_p1_SANCHEZ_largeMale_none_dawn_LL.csv,69,SANCHEZ,p1,mc,fid30,none,pre,44.097,2.992,84.138,21.249,44.496,24.296,57.657,123.272,26.038,44.097,2.992,84.138
mc_pre_fid30_p1_VASQUEZ_largeMale_none_dawn_LL.csv,68,VASQUEZ,p1,mc,fid30,none,pre,43.787,2.645,84.093,20.55,41.242,26.96,54.189,120.686,32.803,43.787,2.645,84.093
mc_pre_fid30_p1_Waindim_largeMale_none_dawn_LL.csv,72,Waindim,p1,mc,fid30,none,pre,44.221,0.454,83.993,31.219,40.905,28.56,46.188,124.389,28.285,44.221,0.454,83.993
mc_pre_fid30_p2_Rotholz_largeMale_right_dawn_LL.csv,104,Rotholz,p2,mc,fid30,right,pre,8.698,10.7,0.302,23.627,52.044,56.854,27.229,88.093,51.424,8.698,10.7,0.302
mc_pre_fid30_p2_SANCHEZ_largeMale_right_dawn_LL.csv,129,SANCHEZ,p2,mc,fid30,right,pre,7.542,10.746,1.404,34,45.209,58.384,26.112,78.491,56.223,7.542,10.746,1.404
mc_pre_fid30_p2_VASQUEZ_largeMale_right_dawn_LL.csv,130,VASQUEZ,p2,mc,fid30,right,pre,6.53,11.469,0,34.97,42.43,61.294,24.158,76.544,60.328,6.53,11.469,0
mc_pre_fid30_p2_Waindim_largeMale_right_dawn_LL.csv,125,Waindim,p2,mc,fid30,right,pre,7.101,11.634,2.026,48.579,40.832,60.871,10.945,76.347,60.223,7.101,11.634,2.026
mc_pre_fid30_p3_Rotholz_largeMale_left_dawn_LL.csv,120,Rotholz,p3,mc,fid30,left,pre,14.326,0.328,8.72,28.823,68.871,50.243,23.625,81.27,46.84,14.326,0.328,8.72
mc_pre_fid30_p3_SANCHEZ_largeMale_left_dawn_LL.csv,149,SANCHEZ,p3,mc,fid30,left,pre,14.64,2.094,8.765,32.442,63.797,57.627,18.694,75.24,50.106,14.64,2.094,8.765
mc_pre_fid30_p3_VASQUEZ_largeMale_left_dawn_LL.csv,150,VASQUEZ,p3,mc,fid30,left,pre,13.926,0.312,7.386,29.763,63.361,58.549,19.487,70.338,58.19,13.926,0.312,7.386
mc_pre_fid30_p3_Waindim_largeMale_left_dawn_LL.csv,124,Waindim,p3,mc,fid30,left,pre,14.393,0.781,8.524,47.26,62.987,60.052,2.131,76.345,50.444,14.393,0.781,8.524
mc_pre_fid31_p1_Rotholz_largeMale_none_bailey_LL.csv,63,Rotholz,p1,mc,fid31,none,pre,0.039,70.243,52.091,28.558,80.714,38.443,56.589,51.785,43.78,0.039,70.243,52.091
mc_pre_fid31_p1_SANCHEZ_largeMale_none_bailey_LL.csv,64,SANCHEZ,p1,mc,fid31,none,pre,43.695,70.121,51.97,34.891,78.426,36.041,12.576,44.617,52.423,43.695,70.121,51.97
mc_pre_fid31_p1_VASQUEZ_largeMale_none_bailey_LL.csv,66,VASQUEZ,p1,mc,fid31,none,pre,0.407,70.009,53.326,26.557,76.302,41.779,62.429,50.384,42.142,0.407,70.009,53.326
mc_pre_fid31_p1_Waindim_largeMale_none_bailey_LL.csv,62,Waindim,p1,mc,fid31,none,pre,0.94,69.975,53.459,34.15,77.772,40.56,55.187,50.452,40.851,0.94,69.975,53.459
mc_pre_fid31_p2_Rotholz_largeMale_left_bailey_LL.csv,29,Rotholz,p2,mc,fid31,left,pre,0,76.781,0.314,6.808,208.252,50.045,0,22.821,11.614,300,76.781,0.314
mc_pre_fid31_p2_SANCHEZ_largeMale_left_bailey_LL.csv,31,SANCHEZ,p2,mc,fid31,left,pre,84,76.526,2.051,6.673,215.412,41.381,0.802,21.624,12.009,84,76.526,2.051
mc_pre_fid31_p2_VASQUEZ_largeMale_left_bailey_LL.csv,33,VASQUEZ,p2,mc,fid31,left,pre,72.576,76.313,0,6.673,207.607,50.717,2.27,21.522,11.211,72.576,76.313,0
mc_pre_fid31_p2_Waindim_largeMale_left_bailey_LL.csv,29,Waindim,p2,mc,fid31,left,pre,0,76.953,0.771,9.412,228.923,28.792,0,21.75,10.352,300,76.953,0.771
mc_pre_fid31_p3_Rotholz_largeMale_right_bailey_LL.csv,49,Rotholz,p3,mc,fid31,right,pre,4.739,14.349,1.536,42.04,44.04,59.732,7.607,88.889,56.156,4.739,14.349,1.536
mc_pre_fid31_p3_SANCHEZ_largeMale_right_bailey_LL.csv,56,SANCHEZ,p3,mc,fid31,right,pre,4.65,14.527,1.183,48.658,43.236,60.444,5.606,92.358,48.515,4.65,14.527,1.183
mc_pre_fid31_p3_VASQUEZ_largeMale_right_bailey_LL.csv,60,VASQUEZ,p3,mc,fid31,right,pre,4.072,14.349,1.536,43.573,40.572,62.601,11.079,89.924,50.715,4.072,14.349,1.536
mc_pre_fid31_p3_Waindim_largeMale_right_bailey_LL.csv,53,Waindim,p3,mc,fid31,right,pre,6.176,14.183,0.839,50.181,42.384,61.538,5.072,87.807,52.179,6.176,14.183,0.839
mc_pre_fid32_p1_Rotholz_largeMale_none_claire_INT.csv,26,Rotholz,p1,mc,fid32,none,pre,6.838,139.637,193.691,28.023,67.47,42.079,96.761,36.036,22.793,6.838,139.637,193.691
mc_pre_fid32_p1_SANCHEZ_largeMale_none_claire_INT.csv,28,SANCHEZ,p1,mc,fid32,none,pre,23.098,140.019,193.671,29.637,73.295,37.638,94.427,36.568,17.079,23.098,140.019,193.671
mc_pre_fid32_p1_VASQUEZ_largeMale_none_claire_INT.csv,30,VASQUEZ,p1,mc,fid32,none,pre,0.266,139.605,193.525,24.29,70.272,43.51,103.069,36.302,22.291,0.266,139.605,193.525
mc_pre_fid32_p1_Waindim_largeMale_none_claire_INT.csv,28,Waindim,p1,mc,fid32,none,pre,1.202,140.341,194.096,37.69,71.397,39.746,91.047,35.937,22.981,1.202,140.341,194.096
mc_pre_fid32_p2_Rotholz_largeMale_right_claire_INT.csv,7,Rotholz,p2,mc,fid32,right,pre,0,0,0.357,4.404,286.03,9.209,0,0,0,300,300,0.357
mc_pre_fid32_p2_SANCHEZ_largeMale_right_claire_INT.csv,5,SANCHEZ,p2,mc,fid32,right,pre,0,0,1.803,3.733,286.716,7.748,0,0,0,300,300,1.803
mc_pre_fid32_p2_VASQUEZ_largeMale_right_claire_INT.csv,5,VASQUEZ,p2,mc,fid32,right,pre,0,0,1.058,4.271,287.598,7.073,0,0,0,300,300,1.058
mc_pre_fid32_p2_Waindim_largeMale_right_claire_INT.csv,5,Waindim,p2,mc,fid32,right,pre,0,0,0.96,3.84,287.558,7.642,0,0,0,300,300,0.96
mc_pre_fid32_p3_Rotholz_largeMale_left_claire_INT.csv,3,Rotholz,p3,mc,fid32,left,pre,0,0,0.168,0,292.624,7.208,0,0,0,300,300,0.168
mc_pre_fid32_p3_SANCHEZ_largeMale_left_claire_INT.csv,5,SANCHEZ,p3,mc,fid32,left,pre,0,0,2.447,1.597,290.076,5.88,0,0,0,300,300,2.447
mc_pre_fid32_p3_VASQUEZ_largeMale_left_claire_INT.csv,3,VASQUEZ,p3,mc,fid32,left,pre,0,0,0.465,0,288.859,10.676,0,0,0,300,300,0.465
mc_pre_fid32_p3_Waindim_largeMale_left_claire_INT.csv,3,Waindim,p3,mc,fid32,left,pre,0,0,0.933,0,292.929,6.138,0,0,0,300,300,0.933
mc_pre_fid34_p1_Rotholz_largeMale_none_charlotte_INT.csv,31,Rotholz,p1,mc,fid34,none,pre,4.352,8.355,27.173,4.803,14.815,11.612,17.222,217.973,29.223,4.352,8.355,27.173
mc_pre_fid34_p1_SANCHEZ_largeMale_none_charlotte_INT.csv,45,SANCHEZ,p1,mc,fid34,none,pre,6.534,9.733,26.818,14.95,16.28,10.68,9.071,213.934,28.551,6.534,9.733,26.818
mc_pre_fid34_p1_VASQUEZ_largeMale_none_charlotte_INT.csv,42,VASQUEZ,p1,mc,fid34,none,pre,0.748,9.293,26.373,15.485,16.031,9.323,15.213,218.646,24.554,0.748,9.293,26.373
mc_pre_fid34_p1_Waindim_largeMale_none_charlotte_INT.csv,37,Waindim,p1,mc,fid34,none,pre,2.85,9.257,26.61,23.516,15.751,9.606,4.705,215.919,27.653,2.85,9.257,26.61
mc_pre_fid34_p2_Rotholz_largeMale_right_charlotte_INT.csv,62,Rotholz,p2,mc,fid34,right,pre,159.795,2.838,162.598,12.879,24.422,19.222,22.82,172.972,44.847,159.795,2.838,162.598
mc_pre_fid34_p2_SANCHEZ _largeMale_right_charlotte_INT.csv,77,SANCHEZ ,p2,mc,fid34,right,pre,159.342,1.848,162.81,19.603,19.208,24.034,18.418,170.33,46.559,159.342,1.848,162.81
mc_pre_fid34_p2_VASQUEZ_largeMale_right_charlotte_INT.csv,73,VASQUEZ,p2,mc,fid34,right,pre,159.399,1.04,162.868,19.959,18.691,24.71,18.72,178.436,38.444,159.399,1.04,162.868
mc_pre_fid34_p2_Waindim_largeMale_right_charlotte_INT.csv,68,Waindim,p2,mc,fid34,right,pre,175.313,1.106,164.566,36.388,18.451,25.299,3.838,177.272,37.646,175.313,1.106,164.566
mc_pre_fid34_p3_Rotholz_largeMale_left_charlotte_INT.csv,43,Rotholz,p3,mc,fid34,left,pre,53.133,0.297,56.737,17.551,12.812,22.825,3.204,198.984,44.327,53.133,0.297,56.737
mc_pre_fid34_p3_SANCHEZ_largeMale_left_charlotte_INT.csv,45,SANCHEZ,p3,mc,fid34,left,pre,52.213,3.094,57.282,21.348,11.212,22.697,2.932,190.726,47.991,52.213,3.094,57.282
mc_pre_fid34_p3_VASQUEZ_largeMale_left_charlotte_INT.csv,43,VASQUEZ,p3,mc,fid34,left,pre,51.771,0.023,56.84,22.165,10.939,22.423,4,206.02,34.43,51.771,0.023,56.84
mc_pre_fid34_p3_Waindim_largeMale_left_charlotte_INT.csv,54,Waindim,p3,mc,fid34,left,pre,0,2.051,57.109,24.903,11.205,22.884,0,190.824,48.133,300,2.051,57.109
mc_pre_fid36_p1_Rotholz_largeMale_none_bethany_LS.csv,67,Rotholz,p1,mc,fid36,none,pre,1.221,32.451,48.066,26.42,57.255,57.264,25.621,83.687,48.532,1.221,32.451,48.066
mc_pre_fid36_p1_SANCHEZ_largeMale_none_bethany_LS.csv,78,SANCHEZ,p1,mc,fid36,none,pre,7.504,32.595,47.813,31.039,60.193,52.205,17.354,88.353,43.619,7.504,32.595,47.813
mc_pre_fid36_p1_VASQUEZ_largeMale_none_bethany_LS.csv,78,VASQUEZ,p1,mc,fid36,none,pre,0.653,32.255,47.735,34.712,54.488,55.751,23.485,83.616,43.379,0.653,32.255,47.735
mc_pre_fid36_p1_Waindim_largeMale_none_bethany_LS.csv,73,Waindim,p1,mc,fid36,none,pre,3.122,32.485,47.969,44.133,57.501,53.627,11.217,79.069,51.331,3.122,32.485,47.969
mc_pre_fid36_p2_Rotholz_largeMale_right_bethany_LS.csv,62,Rotholz,p2,mc,fid36,right,pre,206.935,1.129,212.809,20.282,3.468,22.429,29.628,167.897,55.167,206.935,1.129,212.809
mc_pre_fid36_p2_SANCHEZ_largeMale_right_bethany_LS.csv,42,SANCHEZ,p2,mc,fid36,right,pre,207.178,5.113,212.519,26.06,2.668,22.686,24.524,188.717,28.838,207.178,5.113,212.519
mc_pre_fid36_p2_VASQUEZ_largeMale_right_bethany_LS.csv,43,VASQUEZ,p2,mc,fid36,right,pre,206.835,0.767,212.442,24.302,2.169,25.084,20.827,190.325,30.948,206.835,0.767,212.442
mc_pre_fid36_p2_Waindim_largeMale_right_bethany_LS.csv,56,Waindim,p2,mc,fid36,right,pre,238.535,2.532,212.879,36.622,2.072,26.748,13.602,175.225,43,238.535,2.532,212.879
mc_pre_fid36_p3_Rotholz_largeMale_left_bethany_LS.csv,78,Rotholz,p3,mc,fid36,left,pre,102.277,48.223,76.652,28.425,59.258,65.052,18.017,64.059,64.873,102.277,48.223,76.652
mc_pre_fid36_p3_SANCHEZ_largeMale_left_bethany_LS.csv,84,SANCHEZ,p3,mc,fid36,left,pre,103.089,46.766,76.667,34.615,70.465,53.387,13.084,69.941,55.931,103.089,46.766,76.667
mc_pre_fid36_p3_VASQUEZ_largeMale_left_bethany_LS.csv,76,VASQUEZ,p3,mc,fid36,left,pre,102.881,46.423,76.719,36.595,74.743,45.707,14.409,73.8,54.746,102.881,46.423,76.719
mc_pre_fid36_p3_Waindim_largeMale_left_bethany_LS.csv,85,Waindim,p3,mc,fid36,left,pre,104.982,46.592,76.788,47.707,59.436,64.414,4.206,67.526,56.47,104.982,46.592,76.788
mc_pre_fid37_p1_Rotholz_largeMale_none_bianca_LL.csv,23,Rotholz,p1,mc,fid37,none,pre,22.872,15.665,0.168,3.204,226.904,18.021,36.889,5.607,9.207,22.872,15.665,0.168
mc_pre_fid37_p1_SANCHEZ_largeMale_none_bianca_LL.csv,21,SANCHEZ,p1,mc,fid37,none,pre,23.351,15.61,1.199,14.785,231.159,11.635,28.413,5.339,7.47,23.351,15.61,1.199
mc_pre_fid37_p1_VASQUEZ_largeMale_none_bianca_LL.csv,19,VASQUEZ,p1,mc,fid37,none,pre,23.14,15.538,1.155,6.411,231.489,11.484,37.037,5.204,7.208,23.14,15.538,1.155
mc_pre_fid37_p1_Waindim_largeMale_none_bianca_LL.csv,25,Waindim,p1,mc,fid37,none,pre,256.011,15.803,1.353,8.088,225.218,19.383,33.897,5.108,6.874,256.011,15.803,1.353
mc_pre_fid37_p2_Rotholz_largeMale_left_bianca_LL.csv,38,Rotholz,p2,mc,fid37,left,pre,72.149,2.479,34.913,6.407,168.856,18.418,1.6,90.09,13.212,72.149,2.479,34.913
mc_pre_fid37_p2_SANCHEZ_largeMale_left_bianca_LL.csv,36,SANCHEZ,p2,mc,fid37,left,pre,0,3.157,35.189,7.475,166.289,21.623,0,88.624,13.346,300,3.157,35.189
mc_pre_fid37_p2_VASQUEZ_largeMale_left_bianca_LL.csv,41,VASQUEZ,p2,mc,fid37,left,pre,31.508,3.481,35.112,8.651,166.925,19.619,1.335,88.221,15.249,31.508,3.481,35.112
mc_pre_fid37_p2_Waindim_largeMale_left_bianca_LL.csv,43,Waindim,p2,mc,fid37,left,pre,0,3.081,35.411,12.336,160.024,24.698,0,88.625,13.559,300,3.081,35.411
mc_pre_fid37_p3_Rotholz_largeMale_right_bianca_LL.csv,46,Rotholz,p3,mc,fid37,right,pre,104.075,0.637,36.673,16.813,56.192,32.964,2.403,161.759,29.232,104.075,0.637,36.673
mc_pre_fid37_p3_SANCHEZ_largeMale_right_bianca_LL.csv,42,SANCHEZ,p3,mc,fid37,right,pre,104.22,1.984,37.752,17.897,29.632,28.82,1.599,152.157,38.428,104.22,1.984,37.752
mc_pre_fid37_p3_VASQUEZ_largeMale_right_bianca_LL.csv,43,VASQUEZ,p3,mc,fid37,right,pre,104.107,0.023,37.107,17.888,61.358,26.959,1.602,159.34,32.83,104.107,0.023,37.107
mc_pre_fid37_p3_Waindim_largeMale_right_bianca_LL.csv,53,Waindim,p3,mc,fid37,right,pre,105.313,1.275,37.508,18.414,55.017,33.638,0.531,148.672,42.453,105.313,1.275,37.508
mc_pre_fid38_p1_Rotholz_largeMale_none_audrey_FF.csv,19,Rotholz,p1,mc,fid38,none,pre,59.997,2.339,92.428,0,199.968,7.604,32.431,52.853,4.805,59.997,2.339,92.428
mc_pre_fid38_p1_SANCHEZ_largeMale_none_audrey_FF.csv,7,SANCHEZ,p1,mc,fid38,none,pre,60.241,2.583,93.34,1.063,206.611,1.6,30.699,56.056,1.339,60.241,2.583,93.34
mc_pre_fid38_p1_VASQUEZ_largeMale_none_audrey_FF.csv,7,VASQUEZ,p1,mc,fid38,none,pre,60.029,0.503,93.163,1.067,206.837,1.735,30.598,57.658,1.602,60.029,0.503,93.163
mc_pre_fid38_p1_Waindim_largeMale_none_audrey_FF.csv,27,Waindim,p1,mc,fid38,none,pre,66.254,2.977,93.439,6.027,191.992,16.054,24.607,53.53,4.726,66.254,2.977,93.439
mc_pre_fid38_p2_Rotholz_largeMale_right_audrey_FF.csv,20,Rotholz,p2,mc,fid38,right,pre,5.945,9.95,64.005,0,3.602,7.608,34.844,241.457,9.607,5.945,9.95,64.005
mc_pre_fid38_p2_SANCHEZ_largeMale_right_audrey_FF.csv,27,SANCHEZ,p2,mc,fid38,right,pre,5.826,9.826,1.018,5.885,6.139,4.537,32.293,241.548,8.534,5.826,9.826,1.018
mc_pre_fid38_p2_VASQUEZ_largeMale_right_audrey_FF.csv,27,VASQUEZ,p2,mc,fid38,right,pre,5.244,9.248,0.023,2.668,6.557,5.606,33.901,241.102,10.143,5.244,9.248,0.023
mc_pre_fid38_p2_Waindim_largeMale_right_audrey_FF.csv,32,Waindim,p2,mc,fid38,right,pre,24.465,9.783,1.244,8.265,4.268,7.212,28.031,236.907,13.984,24.465,9.783,1.244
mc_pre_fid38_p3_Rotholz_largeMale_left_audrey_FF.csv,5,Rotholz,p3,mc,fid38,left,pre,0,1.038,0,0,0,0,0,295.239,3.607,300,1.038,300
mc_pre_fid38_p3_SANCHEZ_largeMale_left_audrey_FF.csv,1,SANCHEZ,p3,mc,fid38,left,pre,0,2.011,0,0,0,0,0,297.956,0,300,2.011,300
mc_pre_fid38_p3_VASQUEZ_largeMale_left_audrey_FF.csv,1,VASQUEZ,p3,mc,fid38,left,pre,0,0.023,0,0,0,0,0,299.977,0,300,0.023,300
mc_pre_fid38_p3_Waindim_largeMale_left_audrey_FF.csv,9,Waindim,p3,mc,fid38,left,pre,0,0.967,0,0,0,0,0,292.762,6.208,300,0.967,300
mc_pre_fid39_p1_Rotholz_largeMale_none_alexandra_INT.csv,3,Rotholz,p1,mc,fid39,none,pre,0,0.937,0,0,0,0,0,296.665,2.398,300,0.937,300
mc_pre_fid39_p1_SANCHEZ_largeMale_none_alexandra_INT.csv,2,SANCHEZ,p1,mc,fid39,none,pre,0,4.051,0,0,0,0,0,48.082,2.669,300,4.051,300
mc_pre_fid39_p1_VASQUEZ_largeMale_none_alexandra_INT.csv,1,VASQUEZ,p1,mc,fid39,none,pre,0,0,0,0,0,0,0,299.904,0,300,0,300
mc_pre_fid39_p1_Waindim_largeMale_none_alexandra_INT.csv,3,Waindim,p1,mc,fid39,none,pre,0,1.505,0,0,0,0,0,295.425,3.07,300,1.505,300
mc_pre_fid39_p2_Rotholz_largeMale_right_alexandra_INT.csv,21,Rotholz,p2,mc,fid39,right,pre,0,0.613,266.441,6.798,8.803,8.783,0,258.84,16.022,300,0.613,266.441
mc_pre_fid39_p2_SANCHEZ_largeMale_right_alexandra_INT.csv,18,SANCHEZ,p2,mc,fid39,right,pre,0,2.786,267.752,7.705,7.42,10.292,0,256.688,15.109,300,2.786,267.752
mc_pre_fid39_p2_VASQUEZ_largeMale_right_alexandra_INT.csv,18,VASQUEZ,p2,mc,fid39,right,pre,0,1.04,267.607,7.21,8.406,8.008,0,260.96,14.232,300,1.04,267.607
mc_pre_fid39_p2_Waindim_largeMale_right_alexandra_INT.csv,20,Waindim,p2,mc,fid39,right,pre,0,1.974,268.314,9.376,7.872,8.908,0,258.146,13.632,300,1.974,268.314
mc_pre_fid39_p3_Rotholz_largeMale_left_alexandra_INT.csv,7,Rotholz,p3,mc,fid39,left,pre,0,0,0.251,0,298.04,1.599,0,0,0,300,300,0.251
mc_pre_fid39_p3_SANCHEZ_largeMale_left_alexandra_INT.csv,1,SANCHEZ,p3,mc,fid39,left,pre,0,0,0.979,0,299.021,0,0,0,0,300,300,0.979
mc_pre_fid39_p3_VASQUEZ_largeMale_left_alexandra_INT.csv,1,VASQUEZ,p3,mc,fid39,left,pre,0,0,0.028,0,299.857,0,0,0,0,300,300,0.028
mc_pre_fid39_p3_Waindim_largeMale_left_alexandra_INT.csv,9,Waindim,p3,mc,fid39,left,pre,0,0,0.47,0,295.835,3.636,0,0,0,300,300,0.47
mc_pre_fid4_p1_MAHMOUD_largeMale_none_beyonce_FF.csv,134,MAHMOUD,p1,mc,fid4,none,pre,7.569,0.023,11.039,26.435,78.616,41.643,21.086,79.618,52.579,7.569,0.023,11.039
mc_pre_fid4_p1_MARRONE_largeMale_none_beyonce_FF.csv,113,MARRONE,p1,mc,fid4,none,pre,7.355,1.75,11.094,17.899,70.788,51.517,26.998,81.139,49.909,7.355,1.75,11.094
mc_pre_fid4_p1_MARTINEZ_largeMale_none_beyonce_FF.csv,121,MARTINEZ,p1,mc,fid4,none,pre,8.091,3.819,10.761,23.51,74.459,41.653,24.816,79.22,52.716,8.091,3.819,10.761
mc_pre_fid4_p1_MOORE_largeMale_none_beyonce_FF.csv,135,MOORE,p1,mc,fid4,none,pre,8.37,0.624,11.037,37.636,68.101,51.1,10.669,76.318,55.552,8.37,0.624,11.037
mc_pre_fid4_p2_MAHMOUD_largeMale_right_beyonce_FF.csv,120,MAHMOUD,p2,mc,fid4,right,pre,5.262,9.266,0.023,23.572,100.77,45.155,21.531,60.327,48.57,5.262,9.266,0.023
mc_pre_fid4_p2_MARRONE_largeMale_right_beyonce_FF.csv,101,MARRONE,p2,mc,fid4,right,pre,5.391,9.923,17.131,13.717,69.944,77.144,23.481,55.256,56.593,5.391,9.923,17.131
mc_pre_fid4_p2_MARTINEZ_largeMale_right_beyonce_FF.csv,98,MARTINEZ,p2,mc,fid4,right,pre,5.656,8.86,1.381,12.551,84.361,67.875,23.216,61.113,49.503,5.656,8.86,1.381
mc_pre_fid4_p2_MOORE_largeMale_right_beyonce_FF.csv,112,MOORE,p2,mc,fid4,right,pre,5.996,9.734,0.658,35.628,70.79,75.143,7.753,56.865,53.114,5.996,9.734,0.658
mc_pre_fid4_p3_MAHMOUD_largeMale_left_beyonce_FF.csv,122,MAHMOUD,p3,mc,fid4,left,pre,2.744,27.303,13.426,27.859,64.063,56.6,34.2,51.532,63.462,2.744,27.303,13.426
mc_pre_fid4_p3_MARRONE_largeMale_left_beyonce_FF.csv,89,MARRONE,p3,mc,fid4,left,pre,2.404,27.231,13.88,13.095,57.681,66.779,44.565,50.178,66.571,2.404,27.231,13.88
mc_pre_fid4_p3_MARTINEZ_largeMale_left_beyonce_FF.csv,92,MARTINEZ,p3,mc,fid4,left,pre,3.104,27.396,13.785,13.512,64.068,62.882,41.905,50.186,67.363,3.104,27.396,13.785
mc_pre_fid4_p3_MOORE_largeMale_left_beyonce_FF.csv,113,MOORE,p3,mc,fid4,left,pre,10.585,27.404,13.527,46.591,57.126,63.496,18.162,48.031,66.123,10.585,27.404,13.527
mc_pre_fid5_p1_MAHMOUD_largeMale_none_abigail_LL.csv,52,MAHMOUD,p1,mc,fid5,none,pre,2.36,31.719,59.213,24.027,30.629,20.287,33.896,154.106,34.695,2.36,31.719,59.213
mc_pre_fid5_p1_MARRONE_largeMale_none_abigail_LL.csv,45,MARRONE,p1,mc,fid5,none,pre,0.781,32.81,59.774,13.611,24.573,25.881,45.914,152.236,37.004,0.781,32.81,59.774
mc_pre_fid5_p1_MARTINEZ_largeMale_none_abigail_LL.csv,44,MARTINEZ,p1,mc,fid5,none,pre,1.584,34.148,59.774,9.609,25.369,27.482,46.445,153.744,35.767,1.584,34.148,59.774
mc_pre_fid5_p1_MOORE_largeMale_none_abigail_LL.csv,48,MOORE,p1,mc,fid5,none,pre,0.793,32.286,60.051,15.213,17.888,32.965,44.574,150.935,37.632,0.793,32.286,60.051
mc_pre_fid5_p2_MAHMOUD_largeMale_left_abigail_LL.csv,22,MAHMOUD,p2,mc,fid5,left,pre,0,2.461,65.992,1.868,148.052,23.426,0,56.323,2.67,300,2.461,65.992
mc_pre_fid5_p2_MARRONE_largeMale_left_abigail_LL.csv,23,MARRONE,p2,mc,fid5,left,pre,0,0.231,66.419,1.866,208.479,28.039,0,58.442,2.943,300,0.231,66.419
mc_pre_fid5_p2_MARTINEZ_largeMale_left_abigail_LL.csv,23,MARTINEZ,p2,mc,fid5,left,pre,0,6.389,66.182,1.334,197.232,38.987,0,53.385,2.673,300,6.389,66.182
mc_pre_fid5_p2_MOORE_largeMale_left_abigail_LL.csv,25,MOORE,p2,mc,fid5,left,pre,0,0.162,66.36,1.867,206.949,29.362,0,57.389,4.271,300,0.162,66.36
mc_pre_fid5_p3_MAHMOUD_largeMale_right_abigail_LL.csv,20,MAHMOUD,p3,mc,fid5,right,pre,0,189.119,0.023,13.323,225.802,8.408,0,34.837,17.607,300,189.119,0.023
mc_pre_fid5_p3_MARRONE_largeMale_right_abigail_LL.csv,26,MARRONE,p3,mc,fid5,right,pre,264.446,189.072,0.353,11.472,217.6,14.683,2.135,32.028,21.729,264.446,189.072,0.353
mc_pre_fid5_p3_MARTINEZ_largeMale_right_abigail_LL.csv,26,MARTINEZ,p3,mc,fid5,right,pre,264.214,189.038,0.036,10.682,221.846,12.016,2.404,31.935,21.081,264.214,189.038,0.036
mc_pre_fid5_p3_MOORE_largeMale_right_abigail_LL.csv,29,MOORE,p3,mc,fid5,right,pre,264.223,188.948,0.493,12.814,215.785,16.723,1.602,32.038,20.545,264.223,188.948,0.493
mc_pre_fid9_p1_MAHMOUD_largeMale_none_catalina_LS.csv,49,MAHMOUD,p1,mc,fid9,none,pre,38.253,63.078,0.023,24.215,102.838,49.181,40.537,69.428,13.778,38.253,63.078,0.023
mc_pre_fid9_p1_MARRONE_largeMale_none_catalina_LS.csv,56,MARRONE,p1,mc,fid9,none,pre,36.338,62.834,0.938,12.674,72.362,78.65,55.594,42.176,37.606,36.338,62.834,0.938
mc_pre_fid9_p1_MARTINEZ_largeMale_none_catalina_LS.csv,51,MARTINEZ,p1,mc,fid9,none,pre,36.704,63.667,0.67,12.547,82.317,72.868,50.989,50.457,30.152,36.704,63.667,0.67
mc_pre_fid9_p1_MOORE_largeMale_none_catalina_LS.csv,72,MOORE,p1,mc,fid9,none,pre,36.448,62.877,1.346,24.065,67.062,86.053,42.457,40.836,38.181,36.448,62.877,1.346
mc_pre_fid9_p2_MAHMOUD_largeMale_right_catalina_LS.csv,30,MAHMOUD,p2,mc,fid9,right,pre,15.94,37.162,0.023,2.126,16.319,12.405,12.024,198.316,58.448,15.94,37.162,0.023
mc_pre_fid9_p2_MARRONE_largeMale_right_catalina_LS.csv,48,MARRONE,p2,mc,fid9,right,pre,15.563,36.118,0.381,0,6.144,22.385,9.347,157.436,104.287,15.563,36.118,0.381
mc_pre_fid9_p2_MARTINEZ_largeMale_right_catalina_LS.csv,48,MARTINEZ,p2,mc,fid9,right,pre,15.595,36.15,5.454,0,5.072,18.684,11.482,166.297,92.8,15.595,36.15,5.454
mc_pre_fid9_p2_MOORE_largeMale_right_catalina_LS.csv,60,MOORE,p2,mc,fid9,right,pre,16.141,36.16,0.659,8.269,5.869,20.297,4.805,155.767,104.233,16.141,36.16,0.659
mc_pre_fid9_p3_MAHMOUD_largeMale_left_catalina_LS.csv,47,MAHMOUD,p3,mc,fid9,left,pre,33.061,91.923,4.532,1.207,32.13,53.247,181.266,8.408,19.21,33.061,91.923,4.532
mc_pre_fid9_p3_MARRONE_largeMale_left_catalina_LS.csv,42,MARRONE,p3,mc,fid9,left,pre,33.185,92.176,0.099,1.067,36.548,54.187,180.639,6.676,20.784,33.185,92.176,0.099
mc_pre_fid9_p3_MARTINEZ_largeMale_left_catalina_LS.csv,42,MARTINEZ,p3,mc,fid9,left,pre,34.585,92.776,4.689,3.468,49.106,37.389,179.721,7.206,18.421,34.585,92.776,4.689
mc_pre_fid9_p3_MOORE_largeMale_left_catalina_LS.csv,58,MOORE,p3,mc,fid9,left,pre,33.73,92.451,0.893,14.149,34.166,51.793,171.77,6.142,21.087,33.73,92.451,0.893